{
"type": "FeatureCollection",
"name": "regions_EE",
"crs": { "type": "name", "properties": { "name": "urn:ogc:def:crs:OGC:1.3:CRS84" } },
"features": [
{ "type": "Feature", "properties": { "loc": "EE007" }, "geometry": { "type": "Polygon", "coordinates": [ [ [ 27.35705, 58.787144 ], [ 26.939957, 58.869248 ], [ 26.893188, 58.891503 ], [ 26.845138, 58.894742 ], [ 26.758047, 58.881657 ], [ 26.742988, 58.896945 ], [ 26.734558, 58.94386 ], [ 26.70862, 58.962642 ], [ 26.798259, 58.99634 ], [ 26.81389, 59.030092 ], [ 26.811248, 59.059499 ], [ 26.825624, 59.118798 ], [ 26.891726, 59.139987 ], [ 26.930166, 59.141605 ], [ 26.945736, 59.165287 ], [ 26.927412, 59.204439 ], [ 26.857407, 59.229674 ], [ 26.840722, 59.256651 ], [ 26.766012, 59.248856 ], [ 26.750032, 59.265193 ], [ 26.752346, 59.296908 ], [ 26.800991, 59.341322 ], [ 26.780522, 59.353643 ], [ 26.726548, 59.365142 ], [ 26.745586, 59.383911 ], [ 26.744407, 59.408576 ], [ 26.790822, 59.420002 ], [ 26.783928, 59.461429 ], [ 26.759357, 59.499425 ], [ 26.902894, 59.446193 ], [ 26.953996, 59.436693 ], [ 27.377315, 59.446153 ], [ 27.62617, 59.415024 ], [ 27.733409, 59.417284 ], [ 27.764033, 59.400704 ], [ 27.804852, 59.395406 ], [ 27.913422, 59.402318 ], [ 27.97924, 59.425415 ], [ 28.041915, 59.47012 ], [ 28.093739, 59.453794 ], [ 28.20525, 59.385205 ], [ 28.205182, 59.367032 ], [ 28.130415, 59.293355 ], [ 28.032719, 59.287124 ], [ 27.955968, 59.270406 ], [ 27.916953, 59.24865 ], [ 27.900397, 59.233095 ], [ 27.886721, 59.184337 ], [ 27.808762, 59.127073 ], [ 27.805964, 59.106219 ], [ 27.790828, 59.091393 ], [ 27.789445, 59.071719 ], [ 27.770977, 59.03978 ], [ 27.744754, 59.022314 ], [ 27.738311, 58.979945 ], [ 27.35705, 58.787144 ] ] ] } },
{ "type": "Feature", "properties": { "loc": "EE006" }, "geometry": { "type": "Polygon", "coordinates": [ [ [ 25.83016, 59.564064 ], [ 25.868641, 59.578155 ], [ 25.871035, 59.619298 ], [ 25.912641, 59.611532 ], [ 25.920136, 59.58202 ], [ 25.965528, 59.582039 ], [ 25.975834, 59.596617 ], [ 25.971696, 59.631061 ], [ 25.998974, 59.615484 ], [ 26.048051, 59.624199 ], [ 26.108462, 59.586242 ], [ 26.264372, 59.584927 ], [ 26.326479, 59.557614 ], [ 26.429159, 59.545401 ], [ 26.496413, 59.515413 ], [ 26.567783, 59.521825 ], [ 26.584865, 59.533372 ], [ 26.588804, 59.548889 ], [ 26.609013, 59.551119 ], [ 26.739525, 59.518744 ], [ 26.783928, 59.461429 ], [ 26.790822, 59.420002 ], [ 26.744407, 59.408576 ], [ 26.745586, 59.383911 ], [ 26.726548, 59.365142 ], [ 26.780522, 59.353643 ], [ 26.800991, 59.341322 ], [ 26.752346, 59.296908 ], [ 26.750032, 59.265193 ], [ 26.766012, 59.248856 ], [ 26.840722, 59.256651 ], [ 26.857407, 59.229674 ], [ 26.927412, 59.204439 ], [ 26.945736, 59.165287 ], [ 26.930166, 59.141605 ], [ 26.891726, 59.139987 ], [ 26.825624, 59.118798 ], [ 26.811248, 59.059499 ], [ 26.81389, 59.030092 ], [ 26.798259, 58.99634 ], [ 26.70862, 58.962642 ], [ 26.685737, 58.966282 ], [ 26.559323, 58.933397 ], [ 26.529892, 58.946768 ], [ 26.496591, 58.944204 ], [ 26.460488, 58.920315 ], [ 26.46256, 58.904251 ], [ 26.446806, 58.88963 ], [ 26.414347, 58.879696 ], [ 26.37065, 58.880499 ], [ 26.327398, 58.921004 ], [ 26.274098, 58.911396 ], [ 26.247984, 58.895263 ], [ 26.164052, 58.890066 ], [ 26.122935, 58.869621 ], [ 26.123306, 58.838064 ], [ 26.020142, 58.829279 ], [ 26.005293, 58.815116 ], [ 25.97065, 58.814763 ], [ 25.959065, 58.804892 ], [ 25.969311, 58.781735 ], [ 25.964521, 58.765583 ], [ 25.930243, 58.753091 ], [ 25.910563, 58.768388 ], [ 25.883771, 58.771568 ], [ 25.870595, 58.752937 ], [ 25.835962, 58.747951 ], [ 25.835051, 58.729459 ], [ 25.764225, 58.682372 ], [ 25.666439, 58.669555 ], [ 25.642653, 58.650678 ], [ 25.58708, 58.636368 ], [ 25.551789, 58.636865 ], [ 25.535774, 58.624497 ], [ 25.511747, 58.631113 ], [ 25.456776, 58.608445 ], [ 25.361473, 58.606883 ], [ 25.247412, 58.628138 ], [ 25.267148, 58.646115 ], [ 25.300854, 58.706941 ], [ 25.246289, 58.72129 ], [ 25.079374, 58.725687 ], [ 25.041378, 58.710845 ], [ 24.990194, 58.704847 ], [ 24.93133, 58.665172 ], [ 24.909259, 58.691779 ], [ 24.915764, 58.732967 ], [ 24.864197, 58.753632 ], [ 24.805485, 58.734269 ], [ 24.704323, 58.746432 ], [ 24.582299, 58.70842 ], [ 24.564225, 58.727083 ], [ 24.532352, 58.733806 ], [ 24.489714, 58.715303 ], [ 24.450505, 58.681652 ], [ 24.382058, 58.660729 ], [ 24.176026, 58.683052 ], [ 24.14395, 58.702482 ], [ 24.154208, 58.740886 ], [ 24.102119, 58.75801 ], [ 24.144377, 58.786561 ], [ 24.1442, 58.820492 ], [ 24.180311, 58.843293 ], [ 24.122887, 58.920423 ], [ 24.085739, 58.953495 ], [ 24.081999, 58.969886 ], [ 24.093649, 58.989357 ], [ 24.150078, 59.022453 ], [ 24.190251, 59.030855 ], [ 24.29437, 59.013785 ], [ 24.323034, 59.048767 ], [ 24.363931, 59.058939 ], [ 24.363403, 59.089735 ], [ 24.488225, 59.099975 ], [ 24.564327, 59.097036 ], [ 24.568443, 59.117549 ], [ 24.553792, 59.133009 ], [ 24.565555, 59.144051 ], [ 24.569422, 59.183797 ], [ 24.645611, 59.216978 ], [ 24.724277, 59.219514 ], [ 24.783002, 59.200679 ], [ 24.805712, 59.220996 ], [ 24.896904, 59.225509 ], [ 24.904874, 59.221502 ], [ 24.907061, 59.19099 ], [ 24.934897, 59.154219 ], [ 25.008294, 59.140236 ], [ 25.065373, 59.10408 ], [ 25.18375, 59.085334 ], [ 25.203944, 59.040517 ], [ 25.262007, 59.023183 ], [ 25.300994, 58.998212 ], [ 25.326974, 58.995215 ], [ 25.352135, 59.010676 ], [ 25.381514, 59.01281 ], [ 25.400892, 59.030579 ], [ 25.406666, 59.055577 ], [ 25.400321, 59.081024 ], [ 25.422759, 59.088301 ], [ 25.457952, 59.074322 ], [ 25.478594, 59.093133 ], [ 25.449813, 59.115411 ], [ 25.45264, 59.138367 ], [ 25.50254, 59.180553 ], [ 25.524988, 59.210986 ], [ 25.487811, 59.264957 ], [ 25.580214, 59.272264 ], [ 25.63892, 59.258373 ], [ 25.666571, 59.275336 ], [ 25.782248, 59.296024 ], [ 25.877042, 59.288659 ], [ 25.914932, 59.273749 ], [ 25.94299, 59.276902 ], [ 25.948999, 59.284485 ], [ 25.931183, 59.357476 ], [ 25.889866, 59.404019 ], [ 25.887136, 59.432241 ], [ 25.845878, 59.451251 ], [ 25.830404, 59.498372 ], [ 25.801837, 59.529532 ], [ 25.803949, 59.540408 ], [ 25.831649, 59.551929 ], [ 25.83016, 59.564064 ] ] ] } },
{ "type": "Feature", "properties": { "loc": "EE008" }, "geometry": { "type": "Polygon", "coordinates": [ [ [ 27.35705, 58.787144 ], [ 27.548197, 58.373302 ], [ 27.512696, 58.322019 ], [ 27.49233, 58.256941 ], [ 27.493174, 58.227073 ], [ 27.585408, 58.124858 ], [ 27.626768, 58.098479 ], [ 27.611635, 58.057893 ], [ 27.625864, 58.006962 ], [ 27.643603, 58.003555 ], [ 27.657366, 58.017791 ], [ 27.691847, 58.002254 ], [ 27.693991, 57.98924 ], [ 27.681085, 57.962809 ], [ 27.661502, 57.954452 ], [ 27.671389, 57.940252 ], [ 27.685251, 57.924928 ], [ 27.71317, 57.91957 ], [ 27.708094, 57.903084 ], [ 27.810369, 57.895003 ], [ 27.810988, 57.861388 ], [ 27.779289, 57.837234 ], [ 27.742002, 57.83054 ], [ 27.704427, 57.843477 ], [ 27.552963, 57.829365 ], [ 27.531827, 57.795648 ], [ 27.500638, 57.787136 ], [ 27.53643, 57.734961 ], [ 27.520584, 57.712628 ], [ 27.502861, 57.709387 ], [ 27.486181, 57.718558 ], [ 27.443219, 57.713815 ], [ 27.381107, 57.672086 ], [ 27.381792, 57.646164 ], [ 27.397231, 57.633921 ], [ 27.399773, 57.611543 ], [ 27.323789, 57.578497 ], [ 27.351579, 57.518237 ], [ 27.259632, 57.548962 ], [ 27.106321, 57.5656 ], [ 27.046124, 57.5831 ], [ 27.028346, 57.603736 ], [ 26.982883, 57.611218 ], [ 26.948725, 57.604415 ], [ 26.946116, 57.619548 ], [ 26.916729, 57.632867 ], [ 26.868732, 57.616177 ], [ 26.854805, 57.590412 ], [ 26.801264, 57.581184 ], [ 26.774215, 57.561904 ], [ 26.76586, 57.564017 ], [ 26.764952, 57.575867 ], [ 26.738928, 57.584484 ], [ 26.719714, 57.570127 ], [ 26.678398, 57.565024 ], [ 26.62302, 57.535195 ], [ 26.612963, 57.511438 ], [ 26.592653, 57.517349 ], [ 26.582021, 57.536454 ], [ 26.557449, 57.515903 ], [ 26.52392, 57.517105 ], [ 26.501195, 57.526173 ], [ 26.466526, 57.573974 ], [ 26.330855, 57.58094 ], [ 26.275692, 57.597903 ], [ 26.244905, 57.632261 ], [ 26.235934, 57.656904 ], [ 26.183434, 57.687647 ], [ 26.200886, 57.71071 ], [ 26.198415, 57.718651 ], [ 26.146223, 57.734188 ], [ 26.126464, 57.753034 ], [ 26.029243, 57.772357 ], [ 26.028104, 57.785595 ], [ 26.056567, 57.835898 ], [ 26.051066, 57.848361 ], [ 26.02351, 57.848339 ], [ 26.002884, 57.857954 ], [ 25.963474, 57.84748 ], [ 25.891806, 57.849421 ], [ 25.875746, 57.862175 ], [ 25.829606, 57.863456 ], [ 25.78057, 57.908102 ], [ 25.740374, 57.922369 ], [ 25.704024, 57.904763 ], [ 25.683461, 57.905293 ], [ 25.633659, 57.931328 ], [ 25.586352, 57.943883 ], [ 25.589927, 57.960652 ], [ 25.581422, 57.969223 ], [ 25.558964, 57.964089 ], [ 25.512705, 57.97794 ], [ 25.485555, 57.976867 ], [ 25.448945, 57.994796 ], [ 25.461092, 58.005807 ], [ 25.452045, 58.014056 ], [ 25.367152, 58.031585 ], [ 25.295084, 58.08005 ], [ 25.267517, 58.062663 ], [ 25.30058, 58.036218 ], [ 25.300542, 57.999194 ], [ 25.289575, 57.991775 ], [ 25.263333, 57.994056 ], [ 25.239235, 58.009449 ], [ 25.222432, 58.03 ], [ 25.220839, 58.050853 ], [ 25.208596, 58.064046 ], [ 25.211936, 58.076439 ], [ 25.203342, 58.082657 ], [ 25.175505, 58.07561 ], [ 25.113612, 58.077507 ], [ 25.101029, 58.066946 ], [ 25.075431, 58.063704 ], [ 25.046307, 58.040146 ], [ 25.023439, 58.07165 ], [ 25.027237, 58.086979 ], [ 25.068498, 58.117579 ], [ 25.121515, 58.12353 ], [ 25.115217, 58.150124 ], [ 25.126511, 58.159016 ], [ 25.144002, 58.157579 ], [ 25.164546, 58.190585 ], [ 25.24413, 58.204095 ], [ 25.247072, 58.240869 ], [ 25.260948, 58.264014 ], [ 25.246991, 58.277308 ], [ 25.180019, 58.28865 ], [ 25.134494, 58.316236 ], [ 24.986783, 58.328215 ], [ 24.975701, 58.352336 ], [ 24.984887, 58.410572 ], [ 25.009195, 58.437366 ], [ 25.014718, 58.477493 ], [ 25.029221, 58.494754 ], [ 25.161031, 58.534451 ], [ 25.191779, 58.563456 ], [ 25.228431, 58.572214 ], [ 25.217771, 58.612236 ], [ 25.247412, 58.628138 ], [ 25.361473, 58.606883 ], [ 25.456776, 58.608445 ], [ 25.511747, 58.631113 ], [ 25.535774, 58.624497 ], [ 25.551789, 58.636865 ], [ 25.58708, 58.636368 ], [ 25.642653, 58.650678 ], [ 25.666439, 58.669555 ], [ 25.764225, 58.682372 ], [ 25.835051, 58.729459 ], [ 25.835962, 58.747951 ], [ 25.870595, 58.752937 ], [ 25.883771, 58.771568 ], [ 25.910563, 58.768388 ], [ 25.930243, 58.753091 ], [ 25.964521, 58.765583 ], [ 25.969311, 58.781735 ], [ 25.959065, 58.804892 ], [ 25.97065, 58.814763 ], [ 26.005293, 58.815116 ], [ 26.020142, 58.829279 ], [ 26.123306, 58.838064 ], [ 26.122935, 58.869621 ], [ 26.164052, 58.890066 ], [ 26.247984, 58.895263 ], [ 26.274098, 58.911396 ], [ 26.327398, 58.921004 ], [ 26.37065, 58.880499 ], [ 26.414347, 58.879696 ], [ 26.446806, 58.88963 ], [ 26.46256, 58.904251 ], [ 26.460488, 58.920315 ], [ 26.496591, 58.944204 ], [ 26.529892, 58.946768 ], [ 26.559323, 58.933397 ], [ 26.685737, 58.966282 ], [ 26.70862, 58.962642 ], [ 26.734558, 58.94386 ], [ 26.742988, 58.896945 ], [ 26.758047, 58.881657 ], [ 26.845138, 58.894742 ], [ 26.893188, 58.891503 ], [ 26.939957, 58.869248 ], [ 27.35705, 58.787144 ] ] ] } },
{ "type": "Feature", "properties": { "loc": "EE001" }, "geometry": { "type": "MultiPolygon", "coordinates": [ [ [ [ 23.730576, 59.237324 ], [ 23.746231, 59.270188 ], [ 23.806804, 59.284477 ], [ 23.899086, 59.272237 ], [ 24.030786, 59.28623 ], [ 24.094054, 59.280363 ], [ 24.105599, 59.292398 ], [ 24.106043, 59.314213 ], [ 24.050694, 59.355187 ], [ 24.046502, 59.38251 ], [ 24.136368, 59.368029 ], [ 24.196453, 59.344813 ], [ 24.228389, 59.345154 ], [ 24.238886, 59.358381 ], [ 24.213409, 59.394889 ], [ 24.327996, 59.423394 ], [ 24.358198, 59.460615 ], [ 24.375311, 59.469347 ], [ 24.453922, 59.467549 ], [ 24.537561, 59.441345 ], [ 24.58834, 59.454768 ], [ 24.659667, 59.432545 ], [ 24.675026, 59.442174 ], [ 24.667999, 59.462582 ], [ 24.704323, 59.479172 ], [ 24.7158, 59.475106 ], [ 24.729229, 59.454079 ], [ 24.795819, 59.447576 ], [ 24.824469, 59.468298 ], [ 24.830802, 59.484125 ], [ 24.795769, 59.535405 ], [ 24.803958, 59.562705 ], [ 24.88046, 59.547524 ], [ 24.913685, 59.506779 ], [ 24.959838, 59.493877 ], [ 25.012167, 59.505721 ], [ 25.078479, 59.503882 ], [ 25.146746, 59.481089 ], [ 25.170729, 59.500801 ], [ 25.148653, 59.521104 ], [ 25.154589, 59.532764 ], [ 25.210959, 59.506416 ], [ 25.269277, 59.521745 ], [ 25.284847, 59.508349 ], [ 25.326206, 59.4969 ], [ 25.430093, 59.492404 ], [ 25.453545, 59.500012 ], [ 25.470091, 59.51679 ], [ 25.526745, 59.520997 ], [ 25.548851, 59.537057 ], [ 25.546509, 59.55056 ], [ 25.49726, 59.60433 ], [ 25.49566, 59.625193 ], [ 25.50446, 59.64297 ], [ 25.518635, 59.639622 ], [ 25.531663, 59.615272 ], [ 25.568325, 59.609766 ], [ 25.637503, 59.572061 ], [ 25.6742, 59.566084 ], [ 25.698689, 59.575535 ], [ 25.70708, 59.592106 ], [ 25.687104, 59.619306 ], [ 25.678338, 59.654907 ], [ 25.700053, 59.665512 ], [ 25.752616, 59.645168 ], [ 25.775858, 59.621331 ], [ 25.78201, 59.573977 ], [ 25.83016, 59.564064 ], [ 25.831649, 59.551929 ], [ 25.803949, 59.540408 ], [ 25.801837, 59.529532 ], [ 25.830404, 59.498372 ], [ 25.845878, 59.451251 ], [ 25.887136, 59.432241 ], [ 25.889866, 59.404019 ], [ 25.931183, 59.357476 ], [ 25.948999, 59.284485 ], [ 25.94299, 59.276902 ], [ 25.914932, 59.273749 ], [ 25.877042, 59.288659 ], [ 25.782248, 59.296024 ], [ 25.666571, 59.275336 ], [ 25.63892, 59.258373 ], [ 25.580214, 59.272264 ], [ 25.487811, 59.264957 ], [ 25.524988, 59.210986 ], [ 25.50254, 59.180553 ], [ 25.45264, 59.138367 ], [ 25.449813, 59.115411 ], [ 25.478594, 59.093133 ], [ 25.457952, 59.074322 ], [ 25.422759, 59.088301 ], [ 25.400321, 59.081024 ], [ 25.406666, 59.055577 ], [ 25.400892, 59.030579 ], [ 25.381514, 59.01281 ], [ 25.352135, 59.010676 ], [ 25.326974, 58.995215 ], [ 25.300994, 58.998212 ], [ 25.262007, 59.023183 ], [ 25.203944, 59.040517 ], [ 25.18375, 59.085334 ], [ 25.065373, 59.10408 ], [ 25.008294, 59.140236 ], [ 24.934897, 59.154219 ], [ 24.907061, 59.19099 ], [ 24.904874, 59.221502 ], [ 24.896904, 59.225509 ], [ 24.805712, 59.220996 ], [ 24.783002, 59.200679 ], [ 24.724277, 59.219514 ], [ 24.645611, 59.216978 ], [ 24.569422, 59.183797 ], [ 24.565555, 59.144051 ], [ 24.553792, 59.133009 ], [ 24.568443, 59.117549 ], [ 24.564327, 59.097036 ], [ 24.488225, 59.099975 ], [ 24.363403, 59.089735 ], [ 24.363931, 59.058939 ], [ 24.323034, 59.048767 ], [ 24.29437, 59.013785 ], [ 24.190251, 59.030855 ], [ 24.150078, 59.022453 ], [ 24.093649, 58.989357 ], [ 24.090135, 59.014008 ], [ 24.154523, 59.051149 ], [ 24.146251, 59.06601 ], [ 24.112139, 59.085369 ], [ 24.117656, 59.115314 ], [ 24.041816, 59.135424 ], [ 23.95754, 59.139783 ], [ 23.908252, 59.132969 ], [ 23.832237, 59.173657 ], [ 23.787114, 59.175777 ], [ 23.778629, 59.204983 ], [ 23.735569, 59.209104 ], [ 23.730576, 59.237324 ] ] ], [ [ [ 25.385069, 59.509161 ], [ 25.374748, 59.504991 ], [ 25.366311, 59.517435 ], [ 25.376402, 59.523621 ], [ 25.385069, 59.509161 ] ] ], [ [ [ 25.240772, 59.573932 ], [ 25.234632, 59.566836 ], [ 25.21694, 59.574213 ], [ 25.228139, 59.58215 ], [ 25.240772, 59.573932 ] ] ], [ [ [ 25.096031, 59.602323 ], [ 25.086191, 59.592735 ], [ 25.075585, 59.605176 ], [ 25.087052, 59.610376 ], [ 25.096031, 59.602323 ] ] ], [ [ [ 25.009956, 59.637984 ], [ 25.04066, 59.614607 ], [ 25.03415, 59.609694 ], [ 25.002755, 59.618011 ], [ 24.982892, 59.611328 ], [ 24.97941, 59.61693 ], [ 24.994855, 59.630758 ], [ 24.96145, 59.637082 ], [ 24.965897, 59.648479 ], [ 25.009956, 59.637984 ] ] ], [ [ [ 24.776382, 59.579403 ], [ 24.746997, 59.57298 ], [ 24.737793, 59.580097 ], [ 24.764916, 59.589542 ], [ 24.776382, 59.579403 ] ] ], [ [ [ 24.559499, 59.539085 ], [ 24.531325, 59.537135 ], [ 24.501142, 59.547958 ], [ 24.478961, 59.569702 ], [ 24.50978, 59.605662 ], [ 24.532102, 59.586597 ], [ 24.559499, 59.539085 ] ] ], [ [ [ 24.004002, 59.336386 ], [ 24.003291, 59.316018 ], [ 23.968933, 59.321532 ], [ 23.942279, 59.344954 ], [ 23.957403, 59.361762 ], [ 23.97854, 59.357509 ], [ 24.004002, 59.336386 ] ] ], [ [ [ 23.951053, 59.30977 ], [ 23.935417, 59.301559 ], [ 23.866083, 59.345568 ], [ 23.901598, 59.35101 ], [ 23.919916, 59.345804 ], [ 23.919997, 59.336194 ], [ 23.94527, 59.322842 ], [ 23.951053, 59.30977 ] ] ] ] } },
{ "type": "Feature", "properties": { "loc": "EE004" }, "geometry": { "type": "MultiPolygon", "coordinates": [ [ [ [ 23.730576, 59.237324 ], [ 23.735569, 59.209104 ], [ 23.778629, 59.204983 ], [ 23.787114, 59.175777 ], [ 23.832237, 59.173657 ], [ 23.908252, 59.132969 ], [ 23.95754, 59.139783 ], [ 24.041816, 59.135424 ], [ 24.117656, 59.115314 ], [ 24.112139, 59.085369 ], [ 24.146251, 59.06601 ], [ 24.154523, 59.051149 ], [ 24.090135, 59.014008 ], [ 24.093649, 58.989357 ], [ 24.081999, 58.969886 ], [ 24.085739, 58.953495 ], [ 24.122887, 58.920423 ], [ 24.180311, 58.843293 ], [ 24.1442, 58.820492 ], [ 24.144377, 58.786561 ], [ 24.102119, 58.75801 ], [ 24.154208, 58.740886 ], [ 24.14395, 58.702482 ], [ 24.176026, 58.683052 ], [ 24.382058, 58.660729 ], [ 24.450505, 58.681652 ], [ 24.489714, 58.715303 ], [ 24.532352, 58.733806 ], [ 24.564225, 58.727083 ], [ 24.582299, 58.70842 ], [ 24.704323, 58.746432 ], [ 24.805485, 58.734269 ], [ 24.864197, 58.753632 ], [ 24.915764, 58.732967 ], [ 24.909259, 58.691779 ], [ 24.93133, 58.665172 ], [ 24.990194, 58.704847 ], [ 25.041378, 58.710845 ], [ 25.079374, 58.725687 ], [ 25.246289, 58.72129 ], [ 25.300854, 58.706941 ], [ 25.267148, 58.646115 ], [ 25.217771, 58.612236 ], [ 25.228431, 58.572214 ], [ 25.191779, 58.563456 ], [ 25.161031, 58.534451 ], [ 25.029221, 58.494754 ], [ 25.014718, 58.477493 ], [ 25.009195, 58.437366 ], [ 24.984887, 58.410572 ], [ 24.975701, 58.352336 ], [ 24.986783, 58.328215 ], [ 25.134494, 58.316236 ], [ 25.180019, 58.28865 ], [ 25.246991, 58.277308 ], [ 25.260948, 58.264014 ], [ 25.247072, 58.240869 ], [ 25.24413, 58.204095 ], [ 25.164546, 58.190585 ], [ 25.144002, 58.157579 ], [ 25.126511, 58.159016 ], [ 25.115217, 58.150124 ], [ 25.121515, 58.12353 ], [ 25.068498, 58.117579 ], [ 25.027237, 58.086979 ], [ 25.023439, 58.07165 ], [ 25.046307, 58.040146 ], [ 25.018565, 58.017359 ], [ 24.948114, 58.008999 ], [ 24.834083, 57.972779 ], [ 24.799392, 57.989117 ], [ 24.748404, 57.98204 ], [ 24.739618, 57.96623 ], [ 24.69315, 57.94943 ], [ 24.653888, 57.958866 ], [ 24.622919, 57.94349 ], [ 24.583652, 57.95918 ], [ 24.46127, 57.922304 ], [ 24.450084, 57.911036 ], [ 24.456152, 57.884479 ], [ 24.448687, 57.87672 ], [ 24.414988, 57.867089 ], [ 24.352818, 57.876556 ], [ 24.407347, 57.976258 ], [ 24.44229, 58.012118 ], [ 24.471306, 58.059296 ], [ 24.475489, 58.145005 ], [ 24.460006, 58.183719 ], [ 24.476712, 58.238147 ], [ 24.57477, 58.297882 ], [ 24.580811, 58.31315 ], [ 24.571692, 58.331911 ], [ 24.536863, 58.359162 ], [ 24.444989, 58.383756 ], [ 24.317904, 58.378684 ], [ 24.2962, 58.362254 ], [ 24.285774, 58.320935 ], [ 24.260284, 58.280852 ], [ 24.17422, 58.266205 ], [ 24.110604, 58.239105 ], [ 24.072268, 58.256938 ], [ 24.010067, 58.312014 ], [ 23.992443, 58.307026 ], [ 23.946171, 58.324498 ], [ 23.894633, 58.321655 ], [ 23.839038, 58.352495 ], [ 23.7959, 58.343721 ], [ 23.791958, 58.331925 ], [ 23.769812, 58.347395 ], [ 23.751377, 58.345504 ], [ 23.68513, 58.431598 ], [ 23.687442, 58.484584 ], [ 23.679399, 58.519905 ], [ 23.632147, 58.525305 ], [ 23.592605, 58.546356 ], [ 23.570505, 58.570359 ], [ 23.546925, 58.560971 ], [ 23.516914, 58.568796 ], [ 23.527357, 58.601296 ], [ 23.503605, 58.67844 ], [ 23.518482, 58.699414 ], [ 23.55701, 58.710669 ], [ 23.549736, 58.73101 ], [ 23.600109, 58.729093 ], [ 23.679287, 58.74468 ], [ 23.749085, 58.741327 ], [ 23.778387, 58.75215 ], [ 23.730873, 58.781073 ], [ 23.668592, 58.768554 ], [ 23.633237, 58.782682 ], [ 23.549734, 58.771652 ], [ 23.466377, 58.777817 ], [ 23.465753, 58.789834 ], [ 23.47919, 58.803396 ], [ 23.524798, 58.821979 ], [ 23.43956, 58.903548 ], [ 23.438761, 58.933901 ], [ 23.49222, 58.938598 ], [ 23.528841, 58.952234 ], [ 23.562459, 58.951172 ], [ 23.600967, 58.969319 ], [ 23.643084, 58.966852 ], [ 23.653767, 58.974893 ], [ 23.630576, 58.996607 ], [ 23.610162, 58.991861 ], [ 23.583291, 58.998294 ], [ 23.560819, 58.972467 ], [ 23.531527, 58.969682 ], [ 23.459831, 58.98571 ], [ 23.42294, 59.015989 ], [ 23.4357, 59.03307 ], [ 23.443644, 59.070619 ], [ 23.528354, 59.095327 ], [ 23.491995, 59.189677 ], [ 23.506153, 59.214966 ], [ 23.593729, 59.224013 ], [ 23.655111, 59.243311 ], [ 23.695506, 59.231359 ], [ 23.730576, 59.237324 ] ] ], [ [ [ 24.128658, 58.207946 ], [ 24.096742, 58.204557 ], [ 24.101224, 58.212831 ], [ 24.12913, 58.221075 ], [ 24.128658, 58.207946 ] ] ], [ [ [ 23.990286, 58.10169 ], [ 23.973304, 58.098578 ], [ 23.957289, 58.113041 ], [ 23.966358, 58.14815 ], [ 24.003898, 58.155095 ], [ 24.018774, 58.146731 ], [ 23.990286, 58.10169 ] ] ], [ [ [ 23.469366, 58.820107 ], [ 23.468138, 58.814767 ], [ 23.446049, 58.816265 ], [ 23.442668, 58.826797 ], [ 23.469366, 58.820107 ] ] ], [ [ [ 23.44468, 58.631248 ], [ 23.431064, 58.625122 ], [ 23.413452, 58.633328 ], [ 23.425326, 58.639999 ], [ 23.44468, 58.631248 ] ] ], [ [ [ 23.440501, 58.543642 ], [ 23.429066, 58.534808 ], [ 23.421454, 58.540084 ], [ 23.437657, 58.550674 ], [ 23.440501, 58.543642 ] ] ], [ [ [ 23.423092, 59.276999 ], [ 23.409784, 59.274227 ], [ 23.365559, 59.297364 ], [ 23.404121, 59.295402 ], [ 23.423092, 59.276999 ] ] ], [ [ [ 23.4076, 58.838802 ], [ 23.404938, 58.829749 ], [ 23.38862, 58.839314 ], [ 23.39422, 58.842282 ], [ 23.4076, 58.838802 ] ] ], [ [ [ 23.193775, 58.683466 ], [ 23.356546, 58.640495 ], [ 23.361018, 58.632091 ], [ 23.345213, 58.617949 ], [ 23.347844, 58.608897 ], [ 23.399389, 58.549536 ], [ 23.367009, 58.511189 ], [ 23.354666, 58.531811 ], [ 23.328877, 58.546358 ], [ 23.30637, 58.537669 ], [ 23.263364, 58.544804 ], [ 23.263989, 58.527932 ], [ 23.229269, 58.527092 ], [ 23.156097, 58.574206 ], [ 23.080934, 58.591514 ], [ 23.071432, 58.599695 ], [ 23.076502, 58.611613 ], [ 23.069614, 58.618956 ], [ 23.143708, 58.626505 ], [ 23.136268, 58.662941 ], [ 23.140815, 58.671927 ], [ 23.193775, 58.683466 ] ] ], [ [ [ 23.391454, 58.955255 ], [ 23.388301, 58.935821 ], [ 23.379441, 58.937199 ], [ 23.378953, 58.951997 ], [ 23.391454, 58.955255 ] ] ], [ [ [ 23.388283, 58.850409 ], [ 23.387337, 58.838442 ], [ 23.375587, 58.846491 ], [ 23.388283, 58.850409 ] ] ], [ [ [ 23.168902, 59.047757 ], [ 23.269634, 59.023203 ], [ 23.289389, 59.027286 ], [ 23.294494, 59.045139 ], [ 23.358726, 59.017735 ], [ 23.383881, 58.991368 ], [ 23.371539, 58.976497 ], [ 23.331544, 58.979384 ], [ 23.279881, 58.962745 ], [ 23.22739, 58.98156 ], [ 23.212506, 58.964993 ], [ 23.166105, 58.962673 ], [ 23.156025, 58.972044 ], [ 23.160747, 58.982342 ], [ 23.119338, 59.021117 ], [ 23.130976, 59.036004 ], [ 23.168902, 59.047757 ] ] ], [ [ [ 22.635461, 58.584261 ], [ 22.667017, 58.581631 ], [ 22.696554, 58.595411 ], [ 22.747043, 58.57649 ], [ 22.777884, 58.614421 ], [ 22.800344, 58.624013 ], [ 22.944856, 58.615486 ], [ 23.121775, 58.553679 ], [ 23.153453, 58.516594 ], [ 23.283416, 58.482204 ], [ 23.312898, 58.446769 ], [ 23.304155, 58.439745 ], [ 23.284783, 58.449136 ], [ 23.248071, 58.450607 ], [ 23.245889, 58.435817 ], [ 23.236288, 58.432434 ], [ 23.157292, 58.464685 ], [ 23.12809, 58.4261 ], [ 23.077452, 58.416024 ], [ 23.081734, 58.385027 ], [ 23.052276, 58.387185 ], [ 23.01887, 58.362446 ], [ 22.956513, 58.375494 ], [ 22.95714, 58.347591 ], [ 22.914807, 58.305269 ], [ 22.860165, 58.309377 ], [ 22.815337, 58.268346 ], [ 22.715231, 58.27371 ], [ 22.710393, 58.258647 ], [ 22.737135, 58.23035 ], [ 22.72092, 58.216721 ], [ 22.654887, 58.228932 ], [ 22.632454, 58.249662 ], [ 22.591014, 58.22822 ], [ 22.555654, 58.226702 ], [ 22.533838, 58.243242 ], [ 22.501258, 58.223696 ], [ 22.467079, 58.239262 ], [ 22.425641, 58.219962 ], [ 22.359445, 58.217937 ], [ 22.309045, 58.205414 ], [ 22.260953, 58.172831 ], [ 22.257099, 58.118531 ], [ 22.218337, 58.046131 ], [ 22.194128, 58.017863 ], [ 22.189191, 57.979969 ], [ 22.062517, 57.917173 ], [ 22.037885, 57.915038 ], [ 22.016799, 57.923873 ], [ 21.989862, 57.966332 ], [ 22.037671, 58.008115 ], [ 22.079529, 58.068456 ], [ 22.107753, 58.081838 ], [ 22.141918, 58.069192 ], [ 22.162339, 58.072224 ], [ 22.214242, 58.144079 ], [ 22.130693, 58.17286 ], [ 22.068977, 58.182457 ], [ 22.00934, 58.241318 ], [ 21.970281, 58.236923 ], [ 21.875017, 58.26296 ], [ 21.845665, 58.279467 ], [ 21.838138, 58.294449 ], [ 21.843251, 58.303307 ], [ 21.893471, 58.309709 ], [ 21.889761, 58.334889 ], [ 21.943643, 58.318885 ], [ 21.95047, 58.344094 ], [ 21.984762, 58.345345 ], [ 22.000229, 58.373337 ], [ 21.908019, 58.458659 ], [ 21.862729, 58.473256 ], [ 21.855652, 58.484189 ], [ 21.902665, 58.486039 ], [ 21.932562, 58.511151 ], [ 22.005003, 58.501263 ], [ 22.029058, 58.486604 ], [ 22.075836, 58.427786 ], [ 22.098646, 58.420731 ], [ 22.111916, 58.429859 ], [ 22.125616, 58.482216 ], [ 22.190616, 58.51364 ], [ 22.209002, 58.539395 ], [ 22.231659, 58.531607 ], [ 22.249009, 58.494445 ], [ 22.281682, 58.490207 ], [ 22.302577, 58.517565 ], [ 22.290682, 58.545112 ], [ 22.298373, 58.56455 ], [ 22.491395, 58.591889 ], [ 22.541356, 58.63655 ], [ 22.57232, 58.632506 ], [ 22.635461, 58.584261 ] ] ], [ [ [ 23.294203, 58.427146 ], [ 23.281218, 58.418475 ], [ 23.273128, 58.423934 ], [ 23.291879, 58.43304 ], [ 23.294203, 58.427146 ] ] ], [ [ [ 23.293019, 58.942198 ], [ 23.281142, 58.933183 ], [ 23.272516, 58.94312 ], [ 23.279916, 58.950949 ], [ 23.293019, 58.942198 ] ] ], [ [ [ 23.272771, 57.803855 ], [ 23.269301, 57.780926 ], [ 23.216962, 57.78774 ], [ 23.21069, 57.804588 ], [ 23.217768, 57.819394 ], [ 23.233982, 57.822362 ], [ 23.272771, 57.803855 ] ] ], [ [ [ 23.13825, 58.833245 ], [ 23.121675, 58.824799 ], [ 23.111868, 58.835554 ], [ 23.12495, 58.839963 ], [ 23.13825, 58.833245 ] ] ], [ [ [ 22.945394, 58.943169 ], [ 22.974821, 58.918058 ], [ 23.009052, 58.911279 ], [ 23.016953, 58.926326 ], [ 23.04062, 58.915104 ], [ 23.03527, 58.902777 ], [ 23.017179, 58.90033 ], [ 23.02769, 58.878147 ], [ 23.063366, 58.84159 ], [ 23.073349, 58.821875 ], [ 23.067952, 58.811627 ], [ 23.056297, 58.829139 ], [ 23.03088, 58.826922 ], [ 23.015844, 58.841833 ], [ 22.96232, 58.846797 ], [ 22.949203, 58.841941 ], [ 22.951632, 58.829145 ], [ 22.924988, 58.836503 ], [ 22.912082, 58.824051 ], [ 22.885747, 58.821417 ], [ 22.872131, 58.8083 ], [ 22.879472, 58.784963 ], [ 22.856452, 58.788708 ], [ 22.81581, 58.768095 ], [ 22.789873, 58.773894 ], [ 22.761505, 58.797099 ], [ 22.737118, 58.802973 ], [ 22.725583, 58.795866 ], [ 22.717844, 58.763537 ], [ 22.662853, 58.700532 ], [ 22.567201, 58.688223 ], [ 22.507101, 58.698299 ], [ 22.477479, 58.715136 ], [ 22.494363, 58.732841 ], [ 22.473845, 58.751986 ], [ 22.472715, 58.774275 ], [ 22.453194, 58.789313 ], [ 22.450686, 58.841126 ], [ 22.395439, 58.887988 ], [ 22.36079, 58.895422 ], [ 22.205116, 58.881409 ], [ 22.155699, 58.890377 ], [ 22.127679, 58.907671 ], [ 22.057424, 58.92138 ], [ 22.048454, 58.930782 ], [ 22.079174, 58.94407 ], [ 22.213642, 58.936248 ], [ 22.311856, 58.946286 ], [ 22.393706, 58.94081 ], [ 22.423865, 58.962099 ], [ 22.451396, 58.968561 ], [ 22.448965, 58.989081 ], [ 22.48069, 58.999983 ], [ 22.490344, 59.020962 ], [ 22.567469, 59.037165 ], [ 22.585629, 59.080291 ], [ 22.598694, 59.087028 ], [ 22.680935, 59.075197 ], [ 22.703987, 59.020866 ], [ 22.725583, 59.009747 ], [ 22.840763, 59.000407 ], [ 22.882694, 58.981282 ], [ 22.930138, 58.976868 ], [ 22.945394, 58.943169 ] ] ], [ [ [ 23.060966, 58.627299 ], [ 23.061039, 58.616395 ], [ 23.03953, 58.622399 ], [ 23.049945, 58.6308 ], [ 23.060966, 58.627299 ] ] ], [ [ [ 23.056809, 58.782271 ], [ 23.049503, 58.767654 ], [ 23.040635, 58.773296 ], [ 23.039478, 58.784542 ], [ 23.056809, 58.782271 ] ] ], [ [ [ 23.039072, 58.628051 ], [ 23.022061, 58.626293 ], [ 23.008365, 58.63184 ], [ 23.015153, 58.643797 ], [ 23.032135, 58.64419 ], [ 23.039072, 58.628051 ] ] ], [ [ [ 22.989529, 58.819868 ], [ 22.999919, 58.804446 ], [ 23.01305, 58.80648 ], [ 23.014197, 58.791398 ], [ 22.977002, 58.814082 ], [ 22.989529, 58.819868 ] ] ], [ [ [ 22.599428, 58.203085 ], [ 22.591961, 58.195948 ], [ 22.567494, 58.207615 ], [ 22.586166, 58.212012 ], [ 22.599428, 58.203085 ] ] ], [ [ [ 22.524369, 58.152412 ], [ 22.553805, 58.146866 ], [ 22.546756, 58.136343 ], [ 22.531656, 58.135942 ], [ 22.530339, 58.142979 ], [ 22.505448, 58.127021 ], [ 22.483636, 58.144634 ], [ 22.473642, 58.135105 ], [ 22.462815, 58.136614 ], [ 22.478441, 58.156121 ], [ 22.487336, 58.150576 ], [ 22.503725, 58.1769 ], [ 22.525359, 58.160902 ], [ 22.524369, 58.152412 ] ] ], [ [ [ 21.91269, 58.38354 ], [ 21.864793, 58.372136 ], [ 21.823562, 58.374984 ], [ 21.809337, 58.384367 ], [ 21.903471, 58.392651 ], [ 21.91269, 58.38354 ] ] ], [ [ [ 21.796128, 58.3347 ], [ 21.790526, 58.326458 ], [ 21.769832, 58.33653 ], [ 21.778799, 58.341084 ], [ 21.796128, 58.3347 ] ] ] ] } }
]
}
