{
"type": "FeatureCollection",
"name": "border_LS",
"crs": { "type": "name", "properties": { "name": "urn:ogc:def:crs:OGC:1.3:CRS84" } },
"features": [
{ "type": "Feature", "properties": { }, "geometry": { "type": "Polygon", "coordinates": [ [ [ 28.541700066855498, -28.647501722937569 ], [ 29.325166456832591, -29.257386976846256 ], [ 28.848399692507741, -30.070050551068256 ], [ 28.29106937023991, -30.2262167294543 ], [ 28.107204624145425, -30.545732110314951 ], [ 27.749397006956485, -30.645105889612225 ], [ 26.999261915807637, -29.875953871379984 ], [ 27.532511020627478, -29.24271087007536 ], [ 28.074338413207784, -28.851468601193588 ], [ 28.541700066855498, -28.647501722937569 ] ] ] } }
]
}
