{
"type": "FeatureCollection",
"name": "border_AR",
"crs": { "type": "name", "properties": { "name": "urn:ogc:def:crs:OGC:1.3:CRS84" } },
"features": [
{ "type": "Feature", "properties": { }, "geometry": { "type": "Polygon", "coordinates": [ [ [ -68.634010227583232, -52.636370458874488 ], [ -67.75, -53.85 ], [ -66.45, -54.45 ], [ -65.05, -54.7 ], [ -65.5, -55.2 ], [ -66.45, -55.25 ], [ -66.95992, -54.89681 ], [ -68.63335, -54.8695 ], [ -68.634010227583232, -52.636370458874488 ] ] ] } },
{ "type": "Feature", "properties": { }, "geometry": { "type": "Polygon", "coordinates": [ [ [ -57.625133429582959, -30.216294854454262 ], [ -58.142440355040762, -32.044503676076154 ], [ -58.132647671121447, -33.040566908502015 ], [ -58.349611172098875, -33.263188978815407 ], [ -58.495442064026548, -34.431489760070079 ], [ -57.225829637263658, -35.288026625307879 ], [ -57.36235877137878, -35.977390232081476 ], [ -56.737487352105447, -36.413125909166553 ], [ -56.78828528504836, -36.901571547189334 ], [ -57.749156867083457, -38.183870538079887 ], [ -59.231857062401893, -38.720220228837235 ], [ -61.237445237865643, -38.928424574541197 ], [ -62.335956997310127, -38.827707208004334 ], [ -62.125763108962936, -39.424104913084847 ], [ -62.330530971919494, -40.172586358400338 ], [ -62.145994432205214, -40.676896661136723 ], [ -62.745802781816984, -41.028761488612098 ], [ -63.77049475773255, -41.166789239263693 ], [ -64.732089809819726, -40.802677097335149 ], [ -65.118035244391578, -41.064314874028909 ], [ -64.978560553635816, -42.05800099056934 ], [ -64.303407965742494, -42.359016208669509 ], [ -63.755947842042389, -42.043686618824495 ], [ -63.458059048095876, -42.563138116222405 ], [ -64.378803880456331, -42.873558444999688 ], [ -65.181803961839748, -43.495380954767796 ], [ -65.328823411710133, -44.501366062193696 ], [ -65.565268927661606, -45.036785577169795 ], [ -66.509965786389344, -45.039627780945857 ], [ -67.29379391139247, -45.55189625425519 ], [ -67.580546434180079, -46.30177296324257 ], [ -66.597066413017288, -47.033924655953825 ], [ -65.64102657740149, -47.23613453551193 ], [ -65.985088263600787, -48.133289076531135 ], [ -67.166178961847692, -48.697337334996945 ], [ -67.816087612566434, -49.869668877970383 ], [ -68.728745083273211, -50.264218438518832 ], [ -69.138539191347775, -50.732510267947795 ], [ -68.81556148952356, -51.771104011594126 ], [ -68.149994879820383, -52.349983406127677 ], [ -69.49836218939609, -52.142760912637272 ], [ -71.914803839796377, -52.009022305865898 ], [ -72.329403856074066, -51.42595631287243 ], [ -72.309973517532342, -50.677009779666321 ], [ -72.975746832964688, -50.741450290734285 ], [ -73.328050910114527, -50.378785088909915 ], [ -73.415435757120093, -49.318436374712967 ], [ -72.648247443314943, -48.878618259476831 ], [ -72.331160854772008, -48.244238376661798 ], [ -72.447355312780275, -47.738532810253517 ], [ -71.917258470330239, -46.884838148791772 ], [ -71.552009446891276, -45.560732924177103 ], [ -71.659315558545359, -44.973688653341426 ], [ -71.222778896759763, -44.784242852559416 ], [ -71.329800788036223, -44.407521661151655 ], [ -71.793622606071935, -44.207172133156064 ], [ -71.464056159130507, -43.787611179378345 ], [ -71.915423956983886, -43.408564548517447 ], [ -72.14889807807856, -42.254888197601375 ], [ -71.746803758415496, -42.051386407235981 ], [ -71.915734015577627, -40.832339369470688 ], [ -71.413516608349056, -38.916022230791143 ], [ -70.814664272734689, -38.552995293940739 ], [ -71.11862504747549, -37.576827487947241 ], [ -71.12188066270987, -36.658123874662323 ], [ -70.364769253201644, -36.005088799789917 ], [ -70.388049485949125, -35.169687595359491 ], [ -69.817309129501524, -34.1935714657983 ], [ -69.814776984319224, -33.273886000299825 ], [ -70.074399380153594, -33.091209812148051 ], [ -70.53506893581951, -31.365010267870311 ], [ -69.919008348251936, -30.336339206668281 ], [ -70.013550381129917, -29.367922865518572 ], [ -69.656130337183171, -28.459141127233686 ], [ -69.001234910748252, -27.52121388113618 ], [ -68.295541551370434, -26.899339694935779 ], [ -68.594799770772681, -26.506908868111296 ], [ -68.386001146097357, -26.185016371365215 ], [ -68.41765296087614, -24.518554782816881 ], [ -67.328442959244171, -24.02530323659095 ], [ -66.9852339341777, -22.986348565362839 ], [ -67.106673550063604, -22.735924574476417 ], [ -66.273339402924847, -21.83231047942072 ], [ -64.964892137294612, -22.075861504812327 ], [ -64.377021043542257, -22.79809132252354 ], [ -63.986838141522476, -21.99364430103595 ], [ -62.846468471921561, -22.034985446869449 ], [ -60.846564704009914, -23.880712579038292 ], [ -60.02896603050403, -24.032796319273274 ], [ -58.807128465394982, -24.771459242453311 ], [ -57.777217169817938, -25.16233977630904 ], [ -57.633660040911131, -25.603656508081642 ], [ -58.618173590719749, -27.123718763947096 ], [ -57.609759690976141, -27.395898532828387 ], [ -56.486701626192996, -27.548499037386293 ], [ -55.695845506398157, -27.387837009390864 ], [ -54.788794928595053, -26.621785577096134 ], [ -54.625290696823576, -25.739255466415514 ], [ -54.13004960795439, -25.547639255477254 ], [ -53.628348965048744, -26.124865004177472 ], [ -53.648735317587892, -26.92347258881609 ], [ -55.162286342984572, -27.881915378533463 ], [ -56.290899624239081, -28.852760512000895 ], [ -57.625133429582959, -30.216294854454262 ] ] ] } }
]
}
