{
"type": "FeatureCollection",
"name": "border_EL",
"crs": { "type": "name", "properties": { "name": "urn:ogc:def:crs:OGC:1.3:CRS84" } },
"features": [
{ "type": "Feature", "properties": { }, "geometry": { "type": "Polygon", "coordinates": [ [ [ 26.290002882601698, 35.299990342747932 ], [ 26.164997592887659, 35.004995429009767 ], [ 24.724982130642303, 34.919987697889638 ], [ 24.735007358506916, 35.084990546197588 ], [ 23.514978468528081, 35.279991563450977 ], [ 23.699980096133004, 35.70500438083549 ], [ 24.246665073348705, 35.368022365860185 ], [ 25.025015496528908, 35.424995632461972 ], [ 25.769207797964185, 35.35401805270908 ], [ 25.745023227651586, 35.179997666966202 ], [ 26.290002882601698, 35.299990342747932 ] ] ] } },
{ "type": "Feature", "properties": { }, "geometry": { "type": "Polygon", "coordinates": [ [ [ 22.76177, 41.3048 ], [ 23.692073601992348, 41.309080918943856 ], [ 24.492644891057978, 41.58389618587205 ], [ 25.197201368925448, 41.23448598893053 ], [ 26.106138136507127, 41.328898830727837 ], [ 26.1170418637208, 41.826904608724561 ], [ 26.604195590936229, 41.562114569661105 ], [ 26.294602085075667, 40.936261298174131 ], [ 26.056942172965339, 40.824123440100763 ], [ 24.925848422960939, 40.947061672523205 ], [ 23.714811232200759, 40.687129218095095 ], [ 24.40799889496401, 40.124992987624069 ], [ 23.899967889102584, 39.962005520175524 ], [ 23.342999301860743, 39.960997829745793 ], [ 22.813987664488934, 40.476005153966526 ], [ 22.626298862404724, 40.25656118423916 ], [ 22.84974775563478, 39.659310818025745 ], [ 23.35002729665257, 39.190011298167235 ], [ 22.973099399515547, 38.970903225249629 ], [ 23.530016310324925, 38.510001125638439 ], [ 24.025024855248887, 38.219992987616422 ], [ 24.040011020613576, 37.655014553369426 ], [ 23.115002882589124, 37.920011298162194 ], [ 23.409971958111043, 37.409990749657368 ], [ 22.774971958108608, 37.305010077456529 ], [ 23.15422529469862, 36.422505804992056 ], [ 22.490028110451078, 36.410000108377403 ], [ 21.670026482843639, 36.844986477194198 ], [ 21.29501061370155, 37.644989325504639 ], [ 21.120034213961333, 38.310323391262727 ], [ 20.217712029712857, 39.340234686839608 ], [ 20.15001590341052, 39.624997666983973 ], [ 20.615000441172754, 40.110006822259379 ], [ 20.674996779063633, 40.434999904943027 ], [ 20.999989861747224, 40.580003973953978 ], [ 21.020040317476401, 40.84272695572588 ], [ 21.674160597426976, 40.931274522457954 ], [ 22.05537763844427, 41.149865831052693 ], [ 22.597308383889015, 41.130487168943205 ], [ 22.76177, 41.3048 ] ] ] } }
]
}
