{
"type": "FeatureCollection",
"name": "regions_HR",
"crs": { "type": "name", "properties": { "name": "urn:ogc:def:crs:OGC:1.3:CRS84" } },
"features": [
{ "type": "Feature", "properties": { "loc": "HR03" }, "geometry": { "type": "MultiPolygon", "coordinates": [ [ [ [ 18.438104, 42.555705 ], [ 18.362118, 42.615981 ], [ 18.248385, 42.605107 ], [ 18.188004, 42.655503 ], [ 18.157428, 42.656748 ], [ 18.106997, 42.688905 ], [ 18.098896, 42.714739 ], [ 17.948355, 42.798585 ], [ 17.892518, 42.81261 ], [ 17.895522, 42.831906 ], [ 17.833956, 42.906508 ], [ 17.809675, 42.913841 ], [ 17.786887, 42.894053 ], [ 17.689312, 42.92182 ], [ 17.646323, 42.879829 ], [ 17.543649, 42.915023 ], [ 17.477988, 42.916497 ], [ 17.427517, 42.955552 ], [ 17.272827, 43.00818 ], [ 17.021932, 43.034321 ], [ 17.028547, 43.004188 ], [ 17.061935, 42.988372 ], [ 17.218411, 42.977402 ], [ 17.35857, 42.91712 ], [ 17.425333, 42.904829 ], [ 17.462982, 42.865732 ], [ 17.748168, 42.781602 ], [ 17.755846, 42.800777 ], [ 17.838884, 42.800772 ], [ 17.982425, 42.707493 ], [ 18.06971, 42.674907 ], [ 18.076914, 42.651491 ], [ 18.109012, 42.632819 ], [ 18.2064, 42.615442 ], [ 18.226624, 42.571377 ], [ 18.283768, 42.528491 ], [ 18.502064, 42.41254 ], [ 18.525213, 42.420463 ], [ 18.434995, 42.484034 ], [ 18.438104, 42.555705 ] ] ], [ [ [ 18.012315, 42.682781 ], [ 18.000306, 42.675785 ], [ 18.018644, 42.659301 ], [ 18.012315, 42.682781 ] ] ], [ [ [ 17.951765, 42.67449 ], [ 17.960817, 42.687932 ], [ 17.943577, 42.698693 ], [ 17.933683, 42.682828 ], [ 17.951765, 42.67449 ] ] ], [ [ [ 17.915065, 42.705815 ], [ 17.903301, 42.728982 ], [ 17.836902, 42.752247 ], [ 17.863683, 42.7206 ], [ 17.915065, 42.705815 ] ] ], [ [ [ 17.843027, 42.737653 ], [ 17.828826, 42.744245 ], [ 17.822906, 42.734927 ], [ 17.833836, 42.726875 ], [ 17.843027, 42.737653 ] ] ], [ [ [ 17.815489, 42.740196 ], [ 17.809205, 42.751316 ], [ 17.791686, 42.750183 ], [ 17.801942, 42.739107 ], [ 17.815489, 42.740196 ] ] ], [ [ [ 17.776672, 42.769448 ], [ 17.763767, 42.763995 ], [ 17.779633, 42.753699 ], [ 17.776672, 42.769448 ] ] ], [ [ [ 17.36714, 42.801093 ], [ 17.330183, 42.777472 ], [ 17.752599, 42.691847 ], [ 17.743519, 42.708664 ], [ 17.686392, 42.728112 ], [ 17.36714, 42.801093 ] ] ], [ [ [ 15.226438, 45.427088 ], [ 15.159852, 45.426034 ], [ 15.074335, 45.484829 ], [ 14.989338, 45.497761 ], [ 14.929652, 45.525233 ], [ 14.902995, 45.478987 ], [ 14.821691, 45.464934 ], [ 14.785709, 45.505187 ], [ 14.693213, 45.532422 ], [ 14.689792, 45.577112 ], [ 14.607087, 45.62241 ], [ 14.603726, 45.659157 ], [ 14.570013, 45.672944 ], [ 14.541969, 45.621334 ], [ 14.504636, 45.60522 ], [ 14.493737, 45.543197 ], [ 14.326182, 45.473261 ], [ 14.239066, 45.504504 ], [ 14.203566, 45.472116 ], [ 14.07052, 45.486903 ], [ 14.006725, 45.519011 ], [ 13.964897, 45.50546 ], [ 13.993103, 45.476772 ], [ 13.979051, 45.453221 ], [ 13.920381, 45.452174 ], [ 13.881173, 45.426298 ], [ 13.818792, 45.435026 ], [ 13.783013, 45.465997 ], [ 13.676923, 45.44468 ], [ 13.521831, 45.498777 ], [ 13.499534, 45.486628 ], [ 13.546847, 45.332615 ], [ 13.590372, 45.310011 ], [ 13.579465, 45.29603 ], [ 13.594529, 45.239599 ], [ 13.586018, 45.198867 ], [ 13.603339, 45.146532 ], [ 13.627245, 45.131888 ], [ 13.618637, 45.111719 ], [ 13.638581, 45.068856 ], [ 13.768802, 44.969462 ], [ 13.825166, 44.87959 ], [ 13.81455, 44.858113 ], [ 13.904624, 44.794059 ], [ 13.919757, 44.81336 ], [ 13.986804, 44.814501 ], [ 13.996122, 44.888267 ], [ 14.061524, 44.972633 ], [ 14.048752, 45.014392 ], [ 14.078056, 44.990852 ], [ 14.084962, 44.960609 ], [ 14.154549, 44.973816 ], [ 14.155791, 45.063238 ], [ 14.226404, 45.15378 ], [ 14.280868, 45.300128 ], [ 14.325298, 45.3467 ], [ 14.460483, 45.318823 ], [ 14.538227, 45.282264 ], [ 14.56373, 45.292143 ], [ 14.556409, 45.249566 ], [ 14.600321, 45.238026 ], [ 14.736646, 45.142284 ], [ 14.837415, 45.110995 ], [ 14.925615, 44.951423 ], [ 14.884318, 44.849383 ], [ 14.892903, 44.708853 ], [ 14.98971, 44.577818 ], [ 15.289482, 44.363242 ], [ 15.536035, 44.25562 ], [ 15.404312, 44.258305 ], [ 15.27282, 44.329503 ], [ 15.265426, 44.317298 ], [ 15.304166, 44.286481 ], [ 15.285235, 44.277032 ], [ 15.292426, 44.247617 ], [ 15.213848, 44.288046 ], [ 15.200236, 44.27913 ], [ 15.206522, 44.253664 ], [ 15.188778, 44.245777 ], [ 15.128394, 44.273414 ], [ 15.118269, 44.25865 ], [ 15.163516, 44.226229 ], [ 15.160853, 44.17994 ], [ 15.459969, 43.921673 ], [ 15.635418, 43.826224 ], [ 15.613486, 43.806001 ], [ 15.635025, 43.780503 ], [ 15.673777, 43.786059 ], [ 15.880804, 43.729418 ], [ 15.886125, 43.703982 ], [ 15.937251, 43.6682 ], [ 15.923752, 43.611924 ], [ 15.938187, 43.553198 ], [ 15.975174, 43.507729 ], [ 16.091885, 43.474483 ], [ 16.154992, 43.489747 ], [ 16.154705, 43.514623 ], [ 16.23687, 43.511827 ], [ 16.243988, 43.484895 ], [ 16.349631, 43.485523 ], [ 16.30039, 43.524893 ], [ 16.353587, 43.547523 ], [ 16.431185, 43.536947 ], [ 16.416725, 43.508183 ], [ 16.526297, 43.499334 ], [ 16.640344, 43.442994 ], [ 16.894422, 43.391039 ], [ 17.123565, 43.203899 ], [ 17.30823, 43.124396 ], [ 17.42911, 43.028063 ], [ 17.461301, 43.018457 ], [ 17.517771, 42.952507 ], [ 17.581335, 42.938423 ], [ 17.707402, 42.973496 ], [ 17.641756, 43.086942 ], [ 17.430466, 43.183799 ], [ 17.416786, 43.232723 ], [ 17.338832, 43.258259 ], [ 17.25482, 43.402396 ], [ 17.28295, 43.436031 ], [ 17.276549, 43.471818 ], [ 17.221896, 43.497649 ], [ 17.155746, 43.494653 ], [ 17.014031, 43.573016 ], [ 16.807787, 43.757602 ], [ 16.744381, 43.777742 ], [ 16.708167, 43.854604 ], [ 16.553364, 43.954844 ], [ 16.4995, 44.022615 ], [ 16.441466, 44.031443 ], [ 16.426056, 44.078775 ], [ 16.375626, 44.083945 ], [ 16.319182, 44.118143 ], [ 16.228215, 44.206236 ], [ 16.172449, 44.209218 ], [ 16.21765, 44.227582 ], [ 16.189008, 44.300242 ], [ 16.215673, 44.347762 ], [ 16.131254, 44.37958 ], [ 16.132118, 44.392743 ], [ 16.168171, 44.404291 ], [ 16.14399, 44.425229 ], [ 16.116575, 44.518388 ], [ 16.021362, 44.564981 ], [ 16.021568, 44.584224 ], [ 16.055404, 44.614605 ], [ 16.029566, 44.651511 ], [ 15.977318, 44.67181 ], [ 15.899386, 44.741993 ], [ 15.832774, 44.719168 ], [ 15.780596, 44.754703 ], [ 15.736445, 44.818717 ], [ 15.785004, 44.847717 ], [ 15.736722, 44.935631 ], [ 15.708656, 44.921347 ], [ 15.659091, 44.946067 ], [ 15.582093, 44.927303 ], [ 15.536474, 44.937863 ], [ 15.530804, 44.921303 ], [ 15.570434, 44.891946 ], [ 15.559323, 44.885201 ], [ 15.513957, 44.930625 ], [ 15.443328, 44.934913 ], [ 15.374873, 45.010197 ], [ 15.191589, 45.109284 ], [ 15.110694, 45.090558 ], [ 14.980864, 45.149725 ], [ 14.985832, 45.247291 ], [ 14.966792, 45.272419 ], [ 14.989779, 45.308965 ], [ 15.01984, 45.31957 ], [ 15.102835, 45.283645 ], [ 15.169585, 45.31272 ], [ 15.222755, 45.39244 ], [ 15.226438, 45.427088 ] ] ], [ [ [ 16.651101, 42.985906 ], [ 16.689887, 42.963438 ], [ 16.644275, 42.931973 ], [ 16.872694, 42.896 ], [ 16.971679, 42.924899 ], [ 17.117173, 42.9091 ], [ 17.182113, 42.921307 ], [ 17.157295, 42.956512 ], [ 17.044749, 42.977182 ], [ 16.853764, 42.958755 ], [ 16.651101, 42.985906 ] ] ], [ [ [ 16.559577, 43.230968 ], [ 16.53657, 43.221577 ], [ 16.573019, 43.182131 ], [ 16.487461, 43.207519 ], [ 16.391719, 43.187918 ], [ 16.54103, 43.141605 ], [ 16.670323, 43.122072 ], [ 16.962474, 43.11291 ], [ 17.16181, 43.128224 ], [ 16.713821, 43.16067 ], [ 16.658417, 43.212007 ], [ 16.581469, 43.211603 ], [ 16.559577, 43.230968 ] ] ], [ [ [ 16.986595, 42.765882 ], [ 16.996673, 42.778805 ], [ 16.992441, 42.785385 ], [ 16.980039, 42.780137 ], [ 16.986595, 42.765882 ] ] ], [ [ [ 16.968273, 42.769818 ], [ 16.957297, 42.760401 ], [ 16.972212, 42.752264 ], [ 16.968273, 42.769818 ] ] ], [ [ [ 16.940082, 42.763448 ], [ 16.858188, 42.775707 ], [ 16.799256, 42.763448 ], [ 16.8228, 42.763448 ], [ 16.825516, 42.732467 ], [ 16.843352, 42.723446 ], [ 16.871068, 42.736632 ], [ 16.904631, 42.727421 ], [ 16.940082, 42.763448 ] ] ], [ [ [ 16.807552, 43.350542 ], [ 16.440543, 43.387965 ], [ 16.446042, 43.349812 ], [ 16.423156, 43.320578 ], [ 16.535439, 43.270474 ], [ 16.631712, 43.258884 ], [ 16.781065, 43.26266 ], [ 16.877975, 43.285347 ], [ 16.894882, 43.313047 ], [ 16.807552, 43.350542 ] ] ], [ [ [ 16.796108, 42.776738 ], [ 16.785209, 42.777001 ], [ 16.781493, 42.759874 ], [ 16.790225, 42.757941 ], [ 16.796108, 42.776738 ] ] ], [ [ [ 16.740146, 43.083372 ], [ 16.688461, 43.099465 ], [ 16.668915, 43.087581 ], [ 16.684304, 43.082001 ], [ 16.740146, 43.083372 ] ] ], [ [ [ 16.53786, 42.765501 ], [ 16.506911, 42.774729 ], [ 16.498638, 42.764516 ], [ 16.526535, 42.758009 ], [ 16.53786, 42.765501 ] ] ], [ [ [ 16.416054, 43.167597 ], [ 16.407388, 43.152403 ], [ 16.423741, 43.150465 ], [ 16.416054, 43.167597 ] ] ], [ [ [ 16.399263, 43.157509 ], [ 16.349126, 43.175685 ], [ 16.334391, 43.17097 ], [ 16.346871, 43.162426 ], [ 16.399263, 43.157509 ] ] ], [ [ [ 16.293858, 43.403314 ], [ 16.201279, 43.411239 ], [ 16.210969, 43.383348 ], [ 16.391759, 43.330684 ], [ 16.330899, 43.392123 ], [ 16.315132, 43.383567 ], [ 16.293858, 43.403314 ] ] ], [ [ [ 16.19725, 43.073802 ], [ 16.123462, 43.076766 ], [ 16.050997, 43.053554 ], [ 16.092043, 43.037114 ], [ 16.070924, 43.006529 ], [ 16.111831, 43.00735 ], [ 16.212173, 43.018062 ], [ 16.255557, 43.06395 ], [ 16.238746, 43.076106 ], [ 16.185245, 43.062364 ], [ 16.19725, 43.073802 ] ] ], [ [ [ 16.184033, 43.404813 ], [ 16.164416, 43.409958 ], [ 16.167786, 43.398026 ], [ 16.184033, 43.404813 ] ] ], [ [ [ 16.167675, 43.454284 ], [ 16.133838, 43.457647 ], [ 16.110144, 43.430472 ], [ 16.167396, 43.43284 ], [ 16.167675, 43.454284 ] ] ], [ [ [ 16.090303, 43.455085 ], [ 16.064493, 43.448756 ], [ 16.080661, 43.437731 ], [ 16.090303, 43.455085 ] ] ], [ [ [ 16.024579, 42.976191 ], [ 16.005251, 42.993702 ], [ 16.002156, 42.960952 ], [ 16.017431, 42.959565 ], [ 16.024579, 42.976191 ] ] ], [ [ [ 15.869245, 43.677632 ], [ 15.844288, 43.706446 ], [ 15.822166, 43.697886 ], [ 15.86172, 43.665135 ], [ 15.869245, 43.677632 ] ] ], [ [ [ 15.821744, 43.668065 ], [ 15.807084, 43.673764 ], [ 15.800698, 43.667718 ], [ 15.811095, 43.656576 ], [ 15.821744, 43.668065 ] ] ], [ [ [ 15.804322, 43.727483 ], [ 15.78352, 43.743991 ], [ 15.780223, 43.7396 ], [ 15.796794, 43.717922 ], [ 15.804322, 43.727483 ] ] ], [ [ [ 15.780196, 43.691549 ], [ 15.782656, 43.673995 ], [ 15.798989, 43.672342 ], [ 15.780196, 43.691549 ] ] ], [ [ [ 15.736842, 43.700242 ], [ 15.754075, 43.684414 ], [ 15.778401, 43.684796 ], [ 15.736842, 43.700242 ] ] ], [ [ [ 15.777612, 43.716214 ], [ 15.754345, 43.732957 ], [ 15.750344, 43.729352 ], [ 15.765922, 43.71463 ], [ 15.777612, 43.716214 ] ] ], [ [ [ 15.771001, 43.03166 ], [ 15.727741, 43.022429 ], [ 15.740023, 43.01539 ], [ 15.771001, 43.03166 ] ] ], [ [ [ 15.724261, 43.687973 ], [ 15.680638, 43.71424 ], [ 15.69728, 43.682267 ], [ 15.718825, 43.674437 ], [ 15.724261, 43.687973 ] ] ], [ [ [ 15.605284, 43.676118 ], [ 15.654957, 43.641609 ], [ 15.714515, 43.638256 ], [ 15.663091, 43.664708 ], [ 15.605284, 43.676118 ] ] ], [ [ [ 15.687672, 43.683677 ], [ 15.675877, 43.693852 ], [ 15.649632, 43.696555 ], [ 15.677943, 43.679095 ], [ 15.687672, 43.683677 ] ] ], [ [ [ 15.550335, 43.86241 ], [ 15.535444, 43.859207 ], [ 15.5469, 43.846026 ], [ 15.550335, 43.86241 ] ] ], [ [ [ 15.515008, 43.839161 ], [ 15.507906, 43.830465 ], [ 15.515029, 43.822794 ], [ 15.515008, 43.839161 ] ] ], [ [ [ 15.513207, 43.852455 ], [ 15.500303, 43.862031 ], [ 15.487664, 43.856027 ], [ 15.499996, 43.845412 ], [ 15.513207, 43.852455 ] ] ], [ [ [ 15.485324, 43.722855 ], [ 15.472789, 43.736243 ], [ 15.465235, 43.731764 ], [ 15.471391, 43.722855 ], [ 15.485324, 43.722855 ] ] ], [ [ [ 15.450425, 43.729035 ], [ 15.446815, 43.723861 ], [ 15.466229, 43.708865 ], [ 15.450425, 43.729035 ] ] ], [ [ [ 15.381121, 43.961032 ], [ 15.281814, 44.013049 ], [ 15.261426, 44.010607 ], [ 15.363519, 43.910973 ], [ 15.424134, 43.892331 ], [ 15.424467, 43.875361 ], [ 15.429827, 43.89148 ], [ 15.453761, 43.889088 ], [ 15.381121, 43.961032 ] ] ], [ [ [ 15.413617, 43.952613 ], [ 15.405712, 43.963427 ], [ 15.391667, 43.959996 ], [ 15.400145, 43.948757 ], [ 15.413617, 43.952613 ] ] ], [ [ [ 15.381062, 43.754176 ], [ 15.365178, 43.758155 ], [ 15.36187, 43.747811 ], [ 15.374261, 43.74354 ], [ 15.381062, 43.754176 ] ] ], [ [ [ 15.225573, 43.873016 ], [ 15.224858, 43.855551 ], [ 15.259626, 43.823266 ], [ 15.374957, 43.774949 ], [ 15.375668, 43.779915 ], [ 15.225573, 43.873016 ] ] ], [ [ [ 15.340814, 43.769467 ], [ 15.335996, 43.76258 ], [ 15.357823, 43.757408 ], [ 15.340814, 43.769467 ] ] ], [ [ [ 15.343578, 43.844534 ], [ 15.324687, 43.875099 ], [ 15.262244, 43.889337 ], [ 15.263624, 43.878442 ], [ 15.343578, 43.844534 ] ] ], [ [ [ 15.330903, 43.772338 ], [ 15.32189, 43.782271 ], [ 15.307369, 43.773974 ], [ 15.318855, 43.767052 ], [ 15.330903, 43.772338 ] ] ], [ [ [ 15.322339, 43.916264 ], [ 15.2895, 43.936938 ], [ 15.284226, 43.933105 ], [ 15.30976, 43.910579 ], [ 15.322339, 43.916264 ] ] ], [ [ [ 15.262253, 43.899101 ], [ 15.248888, 43.905984 ], [ 15.240813, 43.902639 ], [ 15.249266, 43.892737 ], [ 15.262253, 43.899101 ] ] ], [ [ [ 15.177444, 44.095864 ], [ 15.066162, 44.152341 ], [ 15.070605, 44.130124 ], [ 15.193869, 44.037497 ], [ 15.221579, 44.042653 ], [ 15.249561, 44.015892 ], [ 15.247962, 44.03985 ], [ 15.177444, 44.095864 ] ] ], [ [ [ 15.254675, 43.824814 ], [ 15.235352, 43.833429 ], [ 15.232289, 43.829142 ], [ 15.241421, 43.816034 ], [ 15.254675, 43.824814 ] ] ], [ [ [ 14.915488, 44.538431 ], [ 15.051187, 44.497554 ], [ 14.938294, 44.582538 ], [ 14.858606, 44.600111 ], [ 14.784811, 44.64791 ], [ 14.913923, 44.508972 ], [ 14.913966, 44.481948 ], [ 14.985659, 44.449574 ], [ 15.043417, 44.396501 ], [ 15.103833, 44.383125 ], [ 15.102253, 44.334104 ], [ 15.164556, 44.299962 ], [ 15.15832, 44.32203 ], [ 15.210185, 44.315766 ], [ 15.223346, 44.336831 ], [ 15.245718, 44.337365 ], [ 15.108736, 44.442768 ], [ 15.056971, 44.469166 ], [ 15.035147, 44.453444 ], [ 14.915488, 44.538431 ] ] ], [ [ [ 15.059499, 44.004506 ], [ 15.001367, 44.083206 ], [ 14.872968, 44.158108 ], [ 14.864892, 44.141385 ], [ 15.00469, 44.038737 ], [ 15.11723, 43.917849 ], [ 15.221389, 43.882951 ], [ 15.215866, 43.905794 ], [ 15.152372, 43.948013 ], [ 15.14144, 43.97267 ], [ 15.059499, 44.004506 ] ] ], [ [ [ 15.204131, 43.944209 ], [ 15.194863, 43.944823 ], [ 15.213264, 43.924487 ], [ 15.204131, 43.944209 ] ] ], [ [ [ 15.167717, 43.8949 ], [ 15.157292, 43.889061 ], [ 15.197177, 43.871731 ], [ 15.167717, 43.8949 ] ] ], [ [ [ 15.076813, 44.077395 ], [ 15.076496, 44.058141 ], [ 15.127499, 44.017821 ], [ 15.151454, 44.010662 ], [ 15.076813, 44.077395 ] ] ], [ [ [ 15.018286, 44.322522 ], [ 15.045822, 44.28646 ], [ 15.094657, 44.297572 ], [ 15.134646, 44.285982 ], [ 15.10073, 44.30941 ], [ 15.018286, 44.322522 ] ] ], [ [ [ 15.08718, 44.009465 ], [ 15.073321, 44.028191 ], [ 15.056668, 44.033674 ], [ 15.060292, 44.018739 ], [ 15.08718, 44.009465 ] ] ], [ [ [ 15.023505, 44.169565 ], [ 15.018311, 44.166166 ], [ 15.057481, 44.1407 ], [ 15.023505, 44.169565 ] ] ], [ [ [ 15.031868, 44.134112 ], [ 15.002809, 44.160539 ], [ 14.954031, 44.185993 ], [ 15.002809, 44.136935 ], [ 15.031868, 44.134112 ] ] ], [ [ [ 14.96291, 44.407935 ], [ 14.902467, 44.452615 ], [ 14.889953, 44.450051 ], [ 14.904201, 44.433324 ], [ 14.96291, 44.407935 ] ] ], [ [ [ 14.93449, 44.157813 ], [ 14.913349, 44.169467 ], [ 14.891661, 44.172435 ], [ 14.923691, 44.152059 ], [ 14.93449, 44.157813 ] ] ], [ [ [ 14.914162, 44.192008 ], [ 14.905346, 44.189406 ], [ 14.930544, 44.172166 ], [ 14.914162, 44.192008 ] ] ], [ [ [ 14.792267, 44.25831 ], [ 14.811039, 44.229946 ], [ 14.89529, 44.198757 ], [ 14.90979, 44.212081 ], [ 14.896105, 44.225284 ], [ 14.792267, 44.25831 ] ] ], [ [ [ 14.850535, 44.48934 ], [ 14.844444, 44.486911 ], [ 14.866531, 44.468729 ], [ 14.850535, 44.48934 ] ] ], [ [ [ 14.749237, 44.812565 ], [ 14.749955, 44.842472 ], [ 14.693003, 44.839193 ], [ 14.714276, 44.808003 ], [ 14.667631, 44.794002 ], [ 14.67209, 44.776418 ], [ 14.763994, 44.755872 ], [ 14.837724, 44.688609 ], [ 14.861329, 44.708849 ], [ 14.828394, 44.754324 ], [ 14.749237, 44.812565 ] ] ], [ [ [ 14.839307, 44.204466 ], [ 14.824082, 44.219714 ], [ 14.818336, 44.217645 ], [ 14.828817, 44.199423 ], [ 14.839307, 44.204466 ] ] ], [ [ [ 14.839158, 44.846872 ], [ 14.827011, 44.849718 ], [ 14.801465, 44.849127 ], [ 14.825266, 44.828498 ], [ 14.839158, 44.846872 ] ] ], [ [ [ 14.834378, 44.891145 ], [ 14.812766, 44.917766 ], [ 14.769314, 44.933157 ], [ 14.771214, 44.911468 ], [ 14.834378, 44.891145 ] ] ], [ [ [ 14.834218, 44.145382 ], [ 14.822174, 44.160729 ], [ 14.816319, 44.157399 ], [ 14.822131, 44.144437 ], [ 14.834218, 44.145382 ] ] ], [ [ [ 14.817118, 44.357007 ], [ 14.7974, 44.37958 ], [ 14.805184, 44.405196 ], [ 14.786213, 44.419361 ], [ 14.765171, 44.412459 ], [ 14.775539, 44.37958 ], [ 14.753098, 44.366723 ], [ 14.792102, 44.344133 ], [ 14.817118, 44.357007 ] ] ], [ [ [ 14.624862, 45.174295 ], [ 14.587887, 45.231395 ], [ 14.559978, 45.239312 ], [ 14.536008, 45.214704 ], [ 14.540975, 45.168075 ], [ 14.523369, 45.124044 ], [ 14.475682, 45.125787 ], [ 14.46734, 45.101115 ], [ 14.434068, 45.086768 ], [ 14.436881, 45.069286 ], [ 14.495465, 45.024517 ], [ 14.549021, 45.014359 ], [ 14.614422, 45.016635 ], [ 14.623245, 45.03704 ], [ 14.621753, 44.978649 ], [ 14.736943, 44.938614 ], [ 14.759175, 44.964597 ], [ 14.812043, 44.978737 ], [ 14.734668, 45.061148 ], [ 14.67448, 45.082334 ], [ 14.67285, 45.143131 ], [ 14.603554, 45.153315 ], [ 14.624862, 45.174295 ] ] ], [ [ [ 14.794643, 44.272648 ], [ 14.756522, 44.294204 ], [ 14.757797, 44.279532 ], [ 14.735959, 44.278723 ], [ 14.760821, 44.256707 ], [ 14.76544, 44.271501 ], [ 14.794643, 44.272648 ] ] ], [ [ [ 14.774241, 44.231502 ], [ 14.764063, 44.223953 ], [ 14.78283, 44.21445 ], [ 14.774241, 44.231502 ] ] ], [ [ [ 14.782122, 44.858007 ], [ 14.74762, 44.884619 ], [ 14.735125, 44.874327 ], [ 14.747201, 44.859175 ], [ 14.782122, 44.858007 ] ] ], [ [ [ 14.697408, 44.406132 ], [ 14.666294, 44.40821 ], [ 14.696067, 44.359404 ], [ 14.725697, 44.349557 ], [ 14.697408, 44.406132 ] ] ], [ [ [ 14.710748, 44.289677 ], [ 14.68765, 44.288592 ], [ 14.715197, 44.272067 ], [ 14.710748, 44.289677 ] ] ], [ [ [ 14.658705, 44.311567 ], [ 14.638994, 44.329047 ], [ 14.585781, 44.351035 ], [ 14.641451, 44.310459 ], [ 14.658705, 44.311567 ] ] ], [ [ [ 14.582102, 44.559765 ], [ 14.572616, 44.55061 ], [ 14.581171, 44.540396 ], [ 14.582102, 44.559765 ] ] ], [ [ [ 14.57626, 44.447662 ], [ 14.544705, 44.473697 ], [ 14.529727, 44.455507 ], [ 14.538266, 44.443935 ], [ 14.57626, 44.447662 ] ] ], [ [ [ 14.56373, 44.504212 ], [ 14.54734, 44.505423 ], [ 14.552315, 44.49134 ], [ 14.56373, 44.504212 ] ] ], [ [ [ 14.55493, 44.956716 ], [ 14.521711, 44.987474 ], [ 14.496046, 44.977041 ], [ 14.537641, 44.953435 ], [ 14.55493, 44.956716 ] ] ], [ [ [ 14.536124, 44.482835 ], [ 14.51881, 44.514387 ], [ 14.446357, 44.541623 ], [ 14.514666, 44.479333 ], [ 14.536124, 44.482835 ] ] ], [ [ [ 14.478038, 44.965367 ], [ 14.420453, 44.992614 ], [ 14.381549, 45.05078 ], [ 14.359956, 45.102036 ], [ 14.363736, 45.15324 ], [ 14.320756, 45.170671 ], [ 14.279648, 45.109689 ], [ 14.350775, 45.047068 ], [ 14.356402, 45.005191 ], [ 14.390109, 44.96609 ], [ 14.396224, 44.914893 ], [ 14.384967, 44.905521 ], [ 14.318027, 44.941603 ], [ 14.302655, 44.911422 ], [ 14.334976, 44.826247 ], [ 14.360758, 44.806395 ], [ 14.392115, 44.740176 ], [ 14.38734, 44.698673 ], [ 14.340556, 44.697882 ], [ 14.351388, 44.653397 ], [ 14.386927, 44.609944 ], [ 14.372995, 44.570813 ], [ 14.390349, 44.559711 ], [ 14.431192, 44.568211 ], [ 14.398527, 44.623416 ], [ 14.400156, 44.682381 ], [ 14.487936, 44.609994 ], [ 14.534773, 44.629392 ], [ 14.476846, 44.703365 ], [ 14.45559, 44.783767 ], [ 14.467406, 44.805742 ], [ 14.449446, 44.87475 ], [ 14.478038, 44.965367 ] ] ], [ [ [ 14.431218, 44.560442 ], [ 14.421614, 44.54989 ], [ 14.434436, 44.541864 ], [ 14.431218, 44.560442 ] ] ], [ [ [ 14.347354, 44.559621 ], [ 14.337167, 44.569224 ], [ 14.324445, 44.565444 ], [ 14.331651, 44.554775 ], [ 14.347354, 44.559621 ] ] ], [ [ [ 14.311986, 44.762446 ], [ 14.319823, 44.784753 ], [ 14.318746, 44.790728 ], [ 14.303291, 44.771004 ], [ 14.311986, 44.762446 ] ] ], [ [ [ 14.309234, 44.515826 ], [ 14.287519, 44.514005 ], [ 14.309494, 44.499172 ], [ 14.309234, 44.515826 ] ] ], [ [ [ 14.287129, 44.666007 ], [ 14.278427, 44.687568 ], [ 14.263333, 44.681918 ], [ 14.238834, 44.658553 ], [ 14.236274, 44.619162 ], [ 14.27998, 44.60446 ], [ 14.26011, 44.654657 ], [ 14.287129, 44.666007 ] ] ], [ [ [ 13.956638, 44.77167 ], [ 13.945625, 44.782776 ], [ 13.938553, 44.772164 ], [ 13.943146, 44.762765 ], [ 13.956638, 44.77167 ] ] ], [ [ [ 13.779606, 44.90946 ], [ 13.728794, 44.945289 ], [ 13.754661, 44.916237 ], [ 13.752902, 44.889844 ], [ 13.779606, 44.90946 ] ] ] ] } },
{ "type": "Feature", "properties": { "loc": "HR04" }, "geometry": { "type": "MultiPolygon", "coordinates": [ [ [ [ 16.52971, 46.473007 ], [ 16.481321, 46.509819 ], [ 16.371052, 46.552908 ], [ 16.242149, 46.490075 ], [ 16.274229, 46.417972 ], [ 16.304361, 46.398135 ], [ 16.301549, 46.378288 ], [ 16.193417, 46.380207 ], [ 16.144794, 46.40421 ], [ 16.060171, 46.391846 ], [ 16.070353, 46.342208 ], [ 16.03162, 46.332461 ], [ 16.012055, 46.309867 ], [ 15.791476, 46.259327 ], [ 15.797907, 46.238728 ], [ 15.774443, 46.212059 ], [ 15.679258, 46.225937 ], [ 15.64605, 46.213546 ], [ 15.644181, 46.190031 ], [ 15.599802, 46.145394 ], [ 15.627262, 46.085953 ], [ 15.726697, 46.047852 ], [ 15.703576, 45.999111 ], [ 15.708172, 45.929139 ], [ 15.683257, 45.904435 ], [ 15.680648, 45.870839 ], [ 15.704858, 45.84794 ], [ 15.641985, 45.824145 ], [ 15.579702, 45.850333 ], [ 15.542696, 45.846012 ], [ 15.522804, 45.82357 ], [ 15.482109, 45.827701 ], [ 15.466849, 45.796071 ], [ 15.404425, 45.792717 ], [ 15.274152, 45.73474 ], [ 15.266479, 45.721556 ], [ 15.314417, 45.688842 ], [ 15.353576, 45.707541 ], [ 15.35766, 45.68103 ], [ 15.394631, 45.650835 ], [ 15.317357, 45.631375 ], [ 15.286564, 45.601524 ], [ 15.309729, 45.534514 ], [ 15.371631, 45.486903 ], [ 15.331674, 45.458492 ], [ 15.262636, 45.456034 ], [ 15.226438, 45.427088 ], [ 15.222755, 45.39244 ], [ 15.169585, 45.31272 ], [ 15.102835, 45.283645 ], [ 15.01984, 45.31957 ], [ 14.989779, 45.308965 ], [ 14.966792, 45.272419 ], [ 14.985832, 45.247291 ], [ 14.980864, 45.149725 ], [ 15.110694, 45.090558 ], [ 15.191589, 45.109284 ], [ 15.374873, 45.010197 ], [ 15.443328, 44.934913 ], [ 15.513957, 44.930625 ], [ 15.559323, 44.885201 ], [ 15.570434, 44.891946 ], [ 15.530804, 44.921303 ], [ 15.536474, 44.937863 ], [ 15.582093, 44.927303 ], [ 15.659091, 44.946067 ], [ 15.708656, 44.921347 ], [ 15.736722, 44.935631 ], [ 15.750215, 44.964719 ], [ 15.77774, 44.971714 ], [ 15.744957, 45.062052 ], [ 15.787475, 45.115215 ], [ 15.768199, 45.166113 ], [ 15.840023, 45.224472 ], [ 15.934042, 45.215213 ], [ 15.983415, 45.226168 ], [ 16.01652, 45.210273 ], [ 16.023686, 45.181854 ], [ 16.081734, 45.136334 ], [ 16.090495, 45.105598 ], [ 16.16109, 45.078896 ], [ 16.195174, 45.033367 ], [ 16.294115, 44.997935 ], [ 16.351374, 45.004195 ], [ 16.397349, 45.112495 ], [ 16.463781, 45.144175 ], [ 16.487617, 45.198676 ], [ 16.523252, 45.224045 ], [ 16.600286, 45.229334 ], [ 16.686729, 45.198347 ], [ 16.733397, 45.205759 ], [ 16.823147, 45.186232 ], [ 16.84093, 45.195178 ], [ 16.840084, 45.215903 ], [ 16.859245, 45.21155 ], [ 16.880831, 45.243923 ], [ 16.929893, 45.273654 ], [ 16.94901, 45.256797 ], [ 16.942081, 45.231074 ], [ 16.969733, 45.230531 ], [ 16.975629, 45.247013 ], [ 16.991158, 45.225169 ], [ 17.013395, 45.234073 ], [ 17.015316, 45.21881 ], [ 17.179209, 45.147895 ], [ 17.241378, 45.146787 ], [ 17.273027, 45.185301 ], [ 17.366601, 45.138595 ], [ 17.412977, 45.137496 ], [ 17.445191, 45.154908 ], [ 17.455793, 45.131127 ], [ 17.482621, 45.13146 ], [ 17.501664, 45.111281 ], [ 17.546674, 45.123978 ], [ 17.594986, 45.108659 ], [ 17.671563, 45.128967 ], [ 17.852719, 45.048002 ], [ 17.917672, 45.072129 ], [ 17.940081, 45.107209 ], [ 18.005635, 45.146273 ], [ 18.067981, 45.135127 ], [ 18.084037, 45.10378 ], [ 18.126775, 45.082596 ], [ 18.199734, 45.083974 ], [ 18.220528, 45.12389 ], [ 18.253382, 45.135344 ], [ 18.324831, 45.104545 ], [ 18.419546, 45.105323 ], [ 18.473357, 45.06754 ], [ 18.52354, 45.054671 ], [ 18.541653, 45.069771 ], [ 18.529673, 45.087509 ], [ 18.619764, 45.08563 ], [ 18.620447, 45.067347 ], [ 18.641253, 45.061733 ], [ 18.675293, 45.08539 ], [ 18.678372, 45.05735 ], [ 18.735831, 44.999619 ], [ 18.788769, 44.987111 ], [ 18.797311, 44.946947 ], [ 18.765248, 44.93525 ], [ 18.768289, 44.911124 ], [ 18.841224, 44.861389 ], [ 18.935424, 44.850602 ], [ 19.02207, 44.855354 ], [ 19.006059, 44.909588 ], [ 19.078059, 44.9122 ], [ 19.143628, 44.955605 ], [ 19.132461, 44.974061 ], [ 19.078227, 44.983284 ], [ 19.100258, 45.031614 ], [ 19.083876, 45.115534 ], [ 19.088013, 45.131043 ], [ 19.153015, 45.142878 ], [ 19.181242, 45.171861 ], [ 19.184041, 45.196916 ], [ 19.274652, 45.174969 ], [ 19.308055, 45.203759 ], [ 19.353118, 45.168711 ], [ 19.425168, 45.167692 ], [ 19.443447, 45.197835 ], [ 19.419754, 45.230546 ], [ 19.265606, 45.242542 ], [ 19.265136, 45.277889 ], [ 19.215586, 45.265415 ], [ 19.142518, 45.281247 ], [ 19.109199, 45.297854 ], [ 19.088057, 45.335945 ], [ 18.973537, 45.379635 ], [ 19.026877, 45.410259 ], [ 18.990506, 45.446904 ], [ 18.998648, 45.492039 ], [ 19.075273, 45.492888 ], [ 19.085917, 45.510548 ], [ 19.019906, 45.546835 ], [ 18.945737, 45.542011 ], [ 18.911889, 45.573978 ], [ 18.929664, 45.609363 ], [ 18.916327, 45.619792 ], [ 18.940847, 45.625564 ], [ 18.958855, 45.653214 ], [ 18.942085, 45.692848 ], [ 18.961227, 45.706298 ], [ 18.947871, 45.724524 ], [ 18.963895, 45.747172 ], [ 18.905176, 45.756218 ], [ 18.908646, 45.810491 ], [ 18.85913, 45.822398 ], [ 18.88707, 45.871895 ], [ 18.889734, 45.92118 ], [ 18.830271, 45.905206 ], [ 18.821306, 45.914383 ], [ 18.797813, 45.879263 ], [ 18.703232, 45.916665 ], [ 18.662106, 45.91252 ], [ 18.644605, 45.888114 ], [ 18.650849, 45.87375 ], [ 18.630366, 45.87032 ], [ 18.6187, 45.839856 ], [ 18.572741, 45.802727 ], [ 18.518622, 45.784662 ], [ 18.493122, 45.793138 ], [ 18.479918, 45.769393 ], [ 18.450058, 45.763065 ], [ 18.442148, 45.73928 ], [ 18.405751, 45.741721 ], [ 18.370053, 45.768487 ], [ 18.338053, 45.750176 ], [ 18.190232, 45.78488 ], [ 18.127891, 45.788126 ], [ 18.080887, 45.765832 ], [ 17.997297, 45.793728 ], [ 17.91209, 45.79078 ], [ 17.86317, 45.770739 ], [ 17.824871, 45.806236 ], [ 17.670644, 45.836494 ], [ 17.623752, 45.899798 ], [ 17.571028, 45.933385 ], [ 17.446536, 45.94788 ], [ 17.426675, 45.931145 ], [ 17.348697, 45.948049 ], [ 17.363808, 45.979161 ], [ 17.336496, 45.989198 ], [ 17.318048, 45.971037 ], [ 17.294325, 45.988544 ], [ 17.296495, 46.000885 ], [ 17.269428, 46.013161 ], [ 17.28163, 46.02945 ], [ 17.262178, 46.056493 ], [ 17.213782, 46.105817 ], [ 17.182069, 46.112076 ], [ 17.17959, 46.143182 ], [ 17.159036, 46.164819 ], [ 16.982352, 46.224891 ], [ 16.892273, 46.279758 ], [ 16.875618, 46.336656 ], [ 16.833868, 46.370379 ], [ 16.716105, 46.396089 ], [ 16.659136, 46.460061 ], [ 16.52971, 46.473007 ] ], [ [ 17.194113, 46.080077 ], [ 17.204598, 46.086421 ], [ 17.215759, 46.083682 ], [ 17.206227, 46.072938 ], [ 17.194113, 46.080077 ] ] ], [ [ [ 17.38895, 45.968976 ], [ 17.372553, 45.959753 ], [ 17.384947, 45.953717 ], [ 17.38895, 45.968976 ] ] ] ] } }
]
}
