{
"type": "FeatureCollection",
"name": "regions_AT",
"crs": { "type": "name", "properties": { "name": "urn:ogc:def:crs:OGC:1.3:CRS84" } },
"features": [
{ "type": "Feature", "properties": { "loc": "AT11" }, "geometry": { "type": "Polygon", "coordinates": [ [ [ 17.160798, 48.006656 ], [ 17.098592, 47.971757 ], [ 17.113471, 47.959632 ], [ 17.095582, 47.937218 ], [ 17.108634, 47.923643 ], [ 17.088335, 47.87927 ], [ 17.015625, 47.861053 ], [ 17.067332, 47.812033 ], [ 17.056418, 47.788025 ], [ 17.075774, 47.708001 ], [ 16.886669, 47.689082 ], [ 16.863603, 47.714699 ], [ 16.82158, 47.684582 ], [ 16.761058, 47.682348 ], [ 16.715234, 47.733841 ], [ 16.611362, 47.758992 ], [ 16.55329, 47.749271 ], [ 16.541187, 47.716055 ], [ 16.473647, 47.686544 ], [ 16.450719, 47.691477 ], [ 16.421543, 47.665298 ], [ 16.578165, 47.619443 ], [ 16.651775, 47.620756 ], [ 16.669072, 47.602454 ], [ 16.66705, 47.566515 ], [ 16.710727, 47.539202 ], [ 16.692561, 47.513446 ], [ 16.656143, 47.502403 ], [ 16.667132, 47.473911 ], [ 16.64622, 47.446597 ], [ 16.569427, 47.406765 ], [ 16.518991, 47.40911 ], [ 16.501158, 47.39356 ], [ 16.481152, 47.408116 ], [ 16.447688, 47.402477 ], [ 16.454175, 47.363546 ], [ 16.433762, 47.352918 ], [ 16.465031, 47.326641 ], [ 16.481567, 47.283901 ], [ 16.42648, 47.197449 ], [ 16.453546, 47.176991 ], [ 16.461554, 47.147534 ], [ 16.521353, 47.133251 ], [ 16.47242, 47.092165 ], [ 16.506483, 47.057446 ], [ 16.459789, 47.032854 ], [ 16.489696, 47.002318 ], [ 16.292355, 47.005917 ], [ 16.271695, 46.96654 ], [ 16.199512, 46.936797 ], [ 16.113849, 46.869068 ], [ 16.056475, 46.840257 ], [ 15.996236, 46.835398 ], [ 16.016335, 46.882839 ], [ 16.140846, 46.996935 ], [ 16.091953, 47.072778 ], [ 16.110651, 47.158308 ], [ 16.077037, 47.268683 ], [ 16.026519, 47.363287 ], [ 16.077954, 47.404957 ], [ 16.097352, 47.392646 ], [ 16.106433, 47.412646 ], [ 16.224036, 47.427764 ], [ 16.27984, 47.454832 ], [ 16.336541, 47.512257 ], [ 16.313596, 47.5604 ], [ 16.372544, 47.642135 ], [ 16.353189, 47.678102 ], [ 16.309654, 47.692039 ], [ 16.293254, 47.724993 ], [ 16.298246, 47.784937 ], [ 16.272079, 47.795633 ], [ 16.278329, 47.808082 ], [ 16.308791, 47.805671 ], [ 16.31791, 47.788249 ], [ 16.383574, 47.842255 ], [ 16.361009, 47.866253 ], [ 16.411053, 47.88327 ], [ 16.43775, 47.926582 ], [ 16.487056, 47.941279 ], [ 16.517721, 47.940919 ], [ 16.580631, 47.891851 ], [ 16.634999, 47.944658 ], [ 16.695318, 47.966378 ], [ 16.70437, 48.009812 ], [ 16.828888, 48.029536 ], [ 16.875329, 48.069939 ], [ 16.911694, 48.066803 ], [ 16.978623, 48.026773 ], [ 17.010028, 48.074437 ], [ 16.974699, 48.095797 ], [ 16.991949, 48.109323 ], [ 17.031598, 48.088123 ], [ 17.066741, 48.118681 ], [ 17.088579, 48.096616 ], [ 17.073329, 48.030099 ], [ 17.160798, 48.006656 ] ] ] } },
{ "type": "Feature", "properties": { "loc": "AT12" }, "geometry": { "type": "Polygon", "coordinates": [ [ [ 15.54245, 48.907697 ], [ 15.61357, 48.896096 ], [ 15.689115, 48.857481 ], [ 15.753634, 48.852178 ], [ 15.783363, 48.873513 ], [ 15.840326, 48.873973 ], [ 15.954397, 48.821254 ], [ 15.955014, 48.803673 ], [ 15.994506, 48.780104 ], [ 16.096692, 48.746697 ], [ 16.345195, 48.742084 ], [ 16.368198, 48.72904 ], [ 16.411206, 48.748037 ], [ 16.459381, 48.804777 ], [ 16.541868, 48.811517 ], [ 16.596437, 48.783202 ], [ 16.662476, 48.779948 ], [ 16.683897, 48.730363 ], [ 16.722506, 48.736805 ], [ 16.799697, 48.709666 ], [ 16.900396, 48.71514 ], [ 16.915933, 48.696369 ], [ 16.923185, 48.62362 ], [ 16.940278, 48.617245 ], [ 16.949778, 48.535792 ], [ 16.851106, 48.438635 ], [ 16.858413, 48.415611 ], [ 16.841989, 48.363275 ], [ 16.898799, 48.327492 ], [ 16.909539, 48.288048 ], [ 16.950411, 48.263426 ], [ 16.976203, 48.172244 ], [ 17.056797, 48.141123 ], [ 17.066741, 48.118681 ], [ 17.031598, 48.088123 ], [ 16.991949, 48.109323 ], [ 16.975428, 48.103352 ], [ 17.010028, 48.074437 ], [ 16.978623, 48.026773 ], [ 16.911694, 48.066803 ], [ 16.875329, 48.069939 ], [ 16.828888, 48.029536 ], [ 16.70437, 48.009812 ], [ 16.695318, 47.966378 ], [ 16.634999, 47.944658 ], [ 16.580631, 47.891851 ], [ 16.517721, 47.940919 ], [ 16.487056, 47.941279 ], [ 16.43775, 47.926582 ], [ 16.411053, 47.88327 ], [ 16.361009, 47.866253 ], [ 16.383574, 47.842255 ], [ 16.31791, 47.788249 ], [ 16.308791, 47.805671 ], [ 16.278329, 47.808082 ], [ 16.272079, 47.795633 ], [ 16.298246, 47.784937 ], [ 16.293254, 47.724993 ], [ 16.309654, 47.692039 ], [ 16.353189, 47.678102 ], [ 16.372544, 47.642135 ], [ 16.313596, 47.5604 ], [ 16.336541, 47.512257 ], [ 16.27984, 47.454832 ], [ 16.195101, 47.421962 ], [ 16.171081, 47.421337 ], [ 16.137392, 47.447145 ], [ 16.107643, 47.522399 ], [ 16.055904, 47.4864 ], [ 16.021363, 47.514056 ], [ 15.915763, 47.531852 ], [ 15.89284, 47.568892 ], [ 15.84791, 47.568468 ], [ 15.852032, 47.619212 ], [ 15.818786, 47.635241 ], [ 15.741217, 47.63859 ], [ 15.713332, 47.706746 ], [ 15.647327, 47.714323 ], [ 15.605916, 47.748469 ], [ 15.520657, 47.748966 ], [ 15.415684, 47.788615 ], [ 15.372123, 47.823052 ], [ 15.30285, 47.818971 ], [ 15.283411, 47.791309 ], [ 15.21803, 47.7941 ], [ 15.199586, 47.755872 ], [ 15.141726, 47.758604 ], [ 15.088097, 47.740818 ], [ 15.03232, 47.751116 ], [ 14.973203, 47.741271 ], [ 14.9137, 47.70876 ], [ 14.860049, 47.73899 ], [ 14.768844, 47.728559 ], [ 14.738545, 47.747426 ], [ 14.716879, 47.783517 ], [ 14.727887, 47.800883 ], [ 14.714456, 47.850194 ], [ 14.764803, 47.875268 ], [ 14.758247, 47.90212 ], [ 14.726519, 47.930475 ], [ 14.625193, 47.94433 ], [ 14.498341, 47.997296 ], [ 14.455215, 48.065677 ], [ 14.487521, 48.113937 ], [ 14.470426, 48.150428 ], [ 14.483112, 48.203843 ], [ 14.520808, 48.237351 ], [ 14.584866, 48.220257 ], [ 14.688565, 48.159962 ], [ 14.830627, 48.191206 ], [ 14.878665, 48.229751 ], [ 14.95795, 48.213865 ], [ 14.987281, 48.26649 ], [ 14.980895, 48.315461 ], [ 14.947242, 48.329339 ], [ 14.96027, 48.376482 ], [ 14.93158, 48.394236 ], [ 14.939083, 48.417581 ], [ 14.874369, 48.468051 ], [ 14.908759, 48.512942 ], [ 14.799948, 48.556754 ], [ 14.735391, 48.558535 ], [ 14.691014, 48.584302 ], [ 14.717655, 48.60243 ], [ 14.728731, 48.688085 ], [ 14.804167, 48.733924 ], [ 14.813334, 48.778585 ], [ 14.952597, 48.760342 ], [ 14.97638, 48.772231 ], [ 14.955723, 48.793328 ], [ 14.9807, 48.844971 ], [ 14.973823, 48.867646 ], [ 14.990675, 48.904769 ], [ 14.977166, 48.968209 ], [ 14.997698, 49.013226 ], [ 15.149862, 48.99408 ], [ 15.163729, 48.943679 ], [ 15.264083, 48.956564 ], [ 15.282672, 48.992332 ], [ 15.312166, 48.97764 ], [ 15.363143, 48.981573 ], [ 15.472615, 48.947902 ], [ 15.54245, 48.907697 ] ], [ [ 16.185773, 48.172397 ], [ 16.223046, 48.137194 ], [ 16.309839, 48.122437 ], [ 16.330053, 48.13592 ], [ 16.432379, 48.121766 ], [ 16.488997, 48.156762 ], [ 16.578036, 48.143312 ], [ 16.5411, 48.186111 ], [ 16.542526, 48.259407 ], [ 16.496381, 48.290928 ], [ 16.464272, 48.280836 ], [ 16.412703, 48.319598 ], [ 16.254857, 48.243434 ], [ 16.206899, 48.25537 ], [ 16.185773, 48.172397 ] ] ] } },
{ "type": "Feature", "properties": { "loc": "AT13" }, "geometry": { "type": "Polygon", "coordinates": [ [ [ 16.185773, 48.172397 ], [ 16.206899, 48.25537 ], [ 16.254857, 48.243434 ], [ 16.412703, 48.319598 ], [ 16.464272, 48.280836 ], [ 16.496381, 48.290928 ], [ 16.542526, 48.259407 ], [ 16.5411, 48.186111 ], [ 16.578036, 48.143312 ], [ 16.488997, 48.156762 ], [ 16.432379, 48.121766 ], [ 16.330053, 48.13592 ], [ 16.309839, 48.122437 ], [ 16.223046, 48.137194 ], [ 16.185773, 48.172397 ] ] ] } },
{ "type": "Feature", "properties": { "loc": "AT21" }, "geometry": { "type": "Polygon", "coordinates": [ [ [ 13.354584, 47.097303 ], [ 13.401546, 47.071608 ], [ 13.459093, 47.079074 ], [ 13.687835, 47.038637 ], [ 13.699317, 47.003111 ], [ 13.755025, 46.989352 ], [ 13.78523, 46.938372 ], [ 13.848804, 46.91064 ], [ 13.946626, 46.941619 ], [ 13.955353, 46.9579 ], [ 14.003755, 46.972137 ], [ 14.018854, 47.003986 ], [ 14.066391, 47.010704 ], [ 14.130622, 47.059406 ], [ 14.162249, 47.054828 ], [ 14.199419, 47.073395 ], [ 14.234617, 47.028747 ], [ 14.369734, 47.021416 ], [ 14.391843, 46.981752 ], [ 14.494012, 47.023886 ], [ 14.611838, 46.999569 ], [ 14.842057, 47.048613 ], [ 14.902416, 47.00194 ], [ 14.958844, 46.987555 ], [ 15.022993, 46.913127 ], [ 15.008023, 46.872273 ], [ 15.014499, 46.838807 ], [ 14.977885, 46.789007 ], [ 15.025861, 46.768915 ], [ 15.041542, 46.715249 ], [ 15.026028, 46.67242 ], [ 15.065121, 46.652112 ], [ 15.017543, 46.640353 ], [ 14.981989, 46.604785 ], [ 14.957053, 46.630509 ], [ 14.918934, 46.605279 ], [ 14.874782, 46.608298 ], [ 14.815719, 46.509788 ], [ 14.716407, 46.496291 ], [ 14.674581, 46.450687 ], [ 14.592713, 46.432868 ], [ 14.583996, 46.389154 ], [ 14.565176, 46.372453 ], [ 14.524178, 46.423266 ], [ 14.482283, 46.414619 ], [ 14.4441, 46.425068 ], [ 14.434501, 46.442943 ], [ 14.166409, 46.435243 ], [ 14.115821, 46.476785 ], [ 14.050415, 46.492036 ], [ 14.006729, 46.482527 ], [ 13.916636, 46.519146 ], [ 13.801886, 46.5064 ], [ 13.519442, 46.548469 ], [ 13.50425, 46.566304 ], [ 13.440228, 46.558497 ], [ 13.378439, 46.575566 ], [ 13.321285, 46.556146 ], [ 13.239764, 46.556109 ], [ 13.158762, 46.589008 ], [ 12.850871, 46.607237 ], [ 12.777672, 46.644644 ], [ 12.731393, 46.634288 ], [ 12.690635, 46.656972 ], [ 12.692473, 46.701423 ], [ 12.718932, 46.704062 ], [ 12.712243, 46.73524 ], [ 12.723112, 46.742142 ], [ 12.842528, 46.749838 ], [ 12.899732, 46.776027 ], [ 12.931372, 46.764326 ], [ 12.9647, 46.786885 ], [ 12.84314, 46.861669 ], [ 12.837633, 46.911116 ], [ 12.747143, 46.961221 ], [ 12.724501, 46.994819 ], [ 12.770821, 47.041354 ], [ 12.715798, 47.044673 ], [ 12.700504, 47.07241 ], [ 12.656083, 47.099701 ], [ 12.670385, 47.121258 ], [ 12.727505, 47.129652 ], [ 12.743423, 47.100683 ], [ 12.925005, 47.079756 ], [ 12.964391, 47.040843 ], [ 13.012127, 47.042197 ], [ 13.070113, 47.015743 ], [ 13.240807, 47.049092 ], [ 13.245113, 47.07902 ], [ 13.264733, 47.091842 ], [ 13.354584, 47.097303 ] ] ] } },
{ "type": "Feature", "properties": { "loc": "AT22" }, "geometry": { "type": "Polygon", "coordinates": [ [ [ 15.84791, 47.568468 ], [ 15.89284, 47.568892 ], [ 15.915763, 47.531852 ], [ 16.021363, 47.514056 ], [ 16.055904, 47.4864 ], [ 16.107643, 47.522399 ], [ 16.137392, 47.447145 ], [ 16.171081, 47.421337 ], [ 16.106433, 47.412646 ], [ 16.097352, 47.392646 ], [ 16.077954, 47.404957 ], [ 16.026519, 47.363287 ], [ 16.077037, 47.268683 ], [ 16.110651, 47.158308 ], [ 16.091953, 47.072778 ], [ 16.140846, 46.996935 ], [ 16.016335, 46.882839 ], [ 15.988853, 46.825629 ], [ 15.987954, 46.747265 ], [ 16.039828, 46.687757 ], [ 16.036637, 46.659147 ], [ 15.873849, 46.720083 ], [ 15.830971, 46.721332 ], [ 15.722158, 46.696778 ], [ 15.649988, 46.705757 ], [ 15.631182, 46.682585 ], [ 15.597004, 46.688029 ], [ 15.550899, 46.669773 ], [ 15.545458, 46.634801 ], [ 15.506566, 46.617087 ], [ 15.469403, 46.614891 ], [ 15.450846, 46.639281 ], [ 15.40198, 46.653548 ], [ 15.235313, 46.640443 ], [ 15.149447, 46.657999 ], [ 15.065121, 46.652112 ], [ 15.026028, 46.67242 ], [ 15.041542, 46.715249 ], [ 15.025861, 46.768915 ], [ 14.977885, 46.789007 ], [ 15.014499, 46.838807 ], [ 15.008023, 46.872273 ], [ 15.022993, 46.913127 ], [ 14.958844, 46.987555 ], [ 14.902416, 47.00194 ], [ 14.842057, 47.048613 ], [ 14.611838, 46.999569 ], [ 14.494012, 47.023886 ], [ 14.391843, 46.981752 ], [ 14.369734, 47.021416 ], [ 14.234617, 47.028747 ], [ 14.199419, 47.073395 ], [ 14.162249, 47.054828 ], [ 14.130622, 47.059406 ], [ 14.066391, 47.010704 ], [ 14.018854, 47.003986 ], [ 14.003755, 46.972137 ], [ 13.955353, 46.9579 ], [ 13.946626, 46.941619 ], [ 13.827608, 46.914452 ], [ 13.785133, 46.944048 ], [ 13.863076, 46.997948 ], [ 13.903062, 47.06919 ], [ 13.885581, 47.108737 ], [ 13.935825, 47.134215 ], [ 13.993343, 47.133702 ], [ 13.900857, 47.18505 ], [ 13.854771, 47.228387 ], [ 13.864373, 47.251693 ], [ 13.827215, 47.267887 ], [ 13.815034, 47.293754 ], [ 13.76641, 47.268653 ], [ 13.729834, 47.277276 ], [ 13.703485, 47.260639 ], [ 13.606841, 47.283295 ], [ 13.566961, 47.41537 ], [ 13.585585, 47.473993 ], [ 13.721205, 47.464595 ], [ 13.757178, 47.515722 ], [ 13.736014, 47.573854 ], [ 13.694952, 47.582451 ], [ 13.709865, 47.6641 ], [ 13.776206, 47.714754 ], [ 13.868471, 47.726401 ], [ 14.010663, 47.700511 ], [ 14.052109, 47.668631 ], [ 14.054926, 47.618423 ], [ 14.216575, 47.651516 ], [ 14.260837, 47.613665 ], [ 14.319883, 47.608012 ], [ 14.400262, 47.650843 ], [ 14.513631, 47.680961 ], [ 14.543817, 47.716005 ], [ 14.643198, 47.726828 ], [ 14.699463, 47.762859 ], [ 14.768844, 47.728559 ], [ 14.860049, 47.73899 ], [ 14.9137, 47.70876 ], [ 14.973203, 47.741271 ], [ 15.03232, 47.751116 ], [ 15.088097, 47.740818 ], [ 15.141726, 47.758604 ], [ 15.199586, 47.755872 ], [ 15.21803, 47.7941 ], [ 15.283411, 47.791309 ], [ 15.30285, 47.818971 ], [ 15.372123, 47.823052 ], [ 15.415684, 47.788615 ], [ 15.520657, 47.748966 ], [ 15.605916, 47.748469 ], [ 15.647327, 47.714323 ], [ 15.713332, 47.706746 ], [ 15.741217, 47.63859 ], [ 15.818786, 47.635241 ], [ 15.852032, 47.619212 ], [ 15.84791, 47.568468 ] ] ] } },
{ "type": "Feature", "properties": { "loc": "AT31" }, "geometry": { "type": "Polygon", "coordinates": [ [ [ 14.665379, 48.584386 ], [ 14.735391, 48.558535 ], [ 14.799948, 48.556754 ], [ 14.908759, 48.512942 ], [ 14.874369, 48.468051 ], [ 14.939083, 48.417581 ], [ 14.93158, 48.394236 ], [ 14.96027, 48.376482 ], [ 14.947242, 48.329339 ], [ 14.980895, 48.315461 ], [ 14.987281, 48.26649 ], [ 14.95795, 48.213865 ], [ 14.878665, 48.229751 ], [ 14.830627, 48.191206 ], [ 14.688565, 48.159962 ], [ 14.584866, 48.220257 ], [ 14.520808, 48.237351 ], [ 14.492554, 48.222433 ], [ 14.470426, 48.150428 ], [ 14.487521, 48.113937 ], [ 14.462345, 48.092592 ], [ 14.459643, 48.042363 ], [ 14.498341, 47.997296 ], [ 14.625193, 47.94433 ], [ 14.726519, 47.930475 ], [ 14.758247, 47.90212 ], [ 14.764803, 47.875268 ], [ 14.714456, 47.850194 ], [ 14.727887, 47.800883 ], [ 14.716879, 47.783517 ], [ 14.738545, 47.747426 ], [ 14.699463, 47.762859 ], [ 14.643198, 47.726828 ], [ 14.543817, 47.716005 ], [ 14.513631, 47.680961 ], [ 14.400262, 47.650843 ], [ 14.319883, 47.608012 ], [ 14.260837, 47.613665 ], [ 14.216575, 47.651516 ], [ 14.054926, 47.618423 ], [ 14.052109, 47.668631 ], [ 14.010663, 47.700511 ], [ 13.868471, 47.726401 ], [ 13.776206, 47.714754 ], [ 13.709865, 47.6641 ], [ 13.694808, 47.625357 ], [ 13.694952, 47.582451 ], [ 13.736014, 47.573854 ], [ 13.752622, 47.552769 ], [ 13.757178, 47.515722 ], [ 13.721205, 47.464595 ], [ 13.585585, 47.473993 ], [ 13.516362, 47.496776 ], [ 13.47792, 47.534433 ], [ 13.482014, 47.568079 ], [ 13.518734, 47.616591 ], [ 13.486795, 47.640388 ], [ 13.54801, 47.711675 ], [ 13.437262, 47.742132 ], [ 13.462289, 47.782641 ], [ 13.518791, 47.773846 ], [ 13.534407, 47.786354 ], [ 13.454988, 47.803878 ], [ 13.388152, 47.797632 ], [ 13.291598, 47.82645 ], [ 13.273437, 47.888581 ], [ 13.281444, 47.952498 ], [ 13.3059, 47.962033 ], [ 13.355146, 47.94192 ], [ 13.365376, 47.9763 ], [ 13.303821, 48.007824 ], [ 13.150022, 47.972469 ], [ 13.140103, 47.990586 ], [ 13.079225, 48.005007 ], [ 13.039463, 48.038029 ], [ 12.979055, 48.02504 ], [ 12.939825, 48.034835 ], [ 12.890527, 47.994332 ], [ 12.860182, 47.99664 ], [ 12.760922, 48.07509 ], [ 12.759206, 48.127061 ], [ 12.784728, 48.12353 ], [ 12.875866, 48.20175 ], [ 12.944685, 48.206692 ], [ 13.023394, 48.257618 ], [ 13.177043, 48.29439 ], [ 13.260886, 48.295989 ], [ 13.41025, 48.375597 ], [ 13.454755, 48.509474 ], [ 13.445265, 48.560294 ], [ 13.468697, 48.555721 ], [ 13.51337, 48.590978 ], [ 13.727091, 48.513019 ], [ 13.754468, 48.561043 ], [ 13.801406, 48.576632 ], [ 13.82421, 48.621198 ], [ 13.815896, 48.684903 ], [ 13.834561, 48.697499 ], [ 13.796107, 48.7136 ], [ 13.839507, 48.771605 ], [ 14.056097, 48.673003 ], [ 14.053787, 48.656553 ], [ 14.014923, 48.637995 ], [ 14.103412, 48.591244 ], [ 14.268525, 48.579884 ], [ 14.336333, 48.554671 ], [ 14.38785, 48.573775 ], [ 14.390626, 48.591247 ], [ 14.432341, 48.59292 ], [ 14.447786, 48.641533 ], [ 14.464429, 48.645311 ], [ 14.556217, 48.607988 ], [ 14.609556, 48.626056 ], [ 14.665379, 48.584386 ] ] ] } },
{ "type": "Feature", "properties": { "loc": "AT32" }, "geometry": { "type": "Polygon", "coordinates": [ [ [ 13.303821, 48.007824 ], [ 13.370397, 47.967771 ], [ 13.355146, 47.94192 ], [ 13.3059, 47.962033 ], [ 13.281444, 47.952498 ], [ 13.273437, 47.888581 ], [ 13.291598, 47.82645 ], [ 13.388152, 47.797632 ], [ 13.454988, 47.803878 ], [ 13.534407, 47.786354 ], [ 13.518791, 47.773846 ], [ 13.462289, 47.782641 ], [ 13.437262, 47.742132 ], [ 13.54801, 47.711675 ], [ 13.486795, 47.640388 ], [ 13.518734, 47.616591 ], [ 13.482014, 47.568079 ], [ 13.47792, 47.534433 ], [ 13.516362, 47.496776 ], [ 13.585585, 47.473993 ], [ 13.566961, 47.41537 ], [ 13.606841, 47.283295 ], [ 13.703485, 47.260639 ], [ 13.729834, 47.277276 ], [ 13.76641, 47.268653 ], [ 13.815034, 47.293754 ], [ 13.827215, 47.267887 ], [ 13.864373, 47.251693 ], [ 13.854771, 47.228387 ], [ 13.900857, 47.18505 ], [ 13.993343, 47.133702 ], [ 13.935825, 47.134215 ], [ 13.885581, 47.108737 ], [ 13.903062, 47.06919 ], [ 13.821327, 46.957992 ], [ 13.785133, 46.944048 ], [ 13.755025, 46.989352 ], [ 13.699317, 47.003111 ], [ 13.687835, 47.038637 ], [ 13.459093, 47.079074 ], [ 13.401546, 47.071608 ], [ 13.354584, 47.097303 ], [ 13.264733, 47.091842 ], [ 13.245113, 47.07902 ], [ 13.240807, 47.049092 ], [ 13.070113, 47.015743 ], [ 13.012127, 47.042197 ], [ 12.964391, 47.040843 ], [ 12.925005, 47.079756 ], [ 12.743423, 47.100683 ], [ 12.727505, 47.129652 ], [ 12.670385, 47.121258 ], [ 12.656083, 47.099701 ], [ 12.489891, 47.157509 ], [ 12.371714, 47.141679 ], [ 12.351624, 47.111173 ], [ 12.240746, 47.069168 ], [ 12.191019, 47.090343 ], [ 12.133966, 47.080406 ], [ 12.085057, 47.188881 ], [ 12.105532, 47.242783 ], [ 12.082944, 47.274148 ], [ 12.105823, 47.297244 ], [ 12.263256, 47.306112 ], [ 12.302425, 47.328696 ], [ 12.37383, 47.313578 ], [ 12.472339, 47.32724 ], [ 12.492006, 47.342366 ], [ 12.493195, 47.38157 ], [ 12.586974, 47.400204 ], [ 12.627037, 47.429933 ], [ 12.641197, 47.463092 ], [ 12.688541, 47.479319 ], [ 12.639012, 47.543382 ], [ 12.65226, 47.580944 ], [ 12.585481, 47.60526 ], [ 12.575027, 47.632316 ], [ 12.606527, 47.67228 ], [ 12.695796, 47.682223 ], [ 12.777056, 47.665578 ], [ 12.764179, 47.64937 ], [ 12.812689, 47.616853 ], [ 12.782297, 47.579793 ], [ 12.792065, 47.56125 ], [ 12.963994, 47.476958 ], [ 13.006959, 47.467543 ], [ 13.044206, 47.493406 ], [ 13.03435, 47.533882 ], [ 13.051769, 47.556819 ], [ 13.044635, 47.578747 ], [ 13.095359, 47.632823 ], [ 13.0778, 47.685122 ], [ 13.021465, 47.720632 ], [ 12.973286, 47.707764 ], [ 12.909218, 47.723186 ], [ 12.940249, 47.78317 ], [ 13.001257, 47.850199 ], [ 12.936763, 47.940269 ], [ 12.875786, 47.962609 ], [ 12.860182, 47.99664 ], [ 12.890527, 47.994332 ], [ 12.939825, 48.034835 ], [ 12.979055, 48.02504 ], [ 13.039463, 48.038029 ], [ 13.079225, 48.005007 ], [ 13.140103, 47.990586 ], [ 13.150022, 47.972469 ], [ 13.303821, 48.007824 ] ] ] } },
{ "type": "Feature", "properties": { "loc": "AT33" }, "geometry": { "type": "MultiPolygon", "coordinates": [ [ [ [ 12.489891, 47.157509 ], [ 12.700504, 47.07241 ], [ 12.715798, 47.044673 ], [ 12.770821, 47.041354 ], [ 12.724501, 46.994819 ], [ 12.793096, 46.926337 ], [ 12.837633, 46.911116 ], [ 12.84314, 46.861669 ], [ 12.963968, 46.798642 ], [ 12.931372, 46.764326 ], [ 12.899732, 46.776027 ], [ 12.842528, 46.749838 ], [ 12.723112, 46.742142 ], [ 12.712243, 46.73524 ], [ 12.718932, 46.704062 ], [ 12.692473, 46.701423 ], [ 12.690635, 46.656972 ], [ 12.567411, 46.65322 ], [ 12.386129, 46.716454 ], [ 12.354637, 46.774397 ], [ 12.284845, 46.786467 ], [ 12.3042, 46.837697 ], [ 12.270203, 46.88369 ], [ 12.216797, 46.87661 ], [ 12.189736, 46.904124 ], [ 12.154221, 46.912646 ], [ 12.165463, 46.939083 ], [ 12.140079, 46.959065 ], [ 12.125063, 47.009972 ], [ 12.203522, 47.028442 ], [ 12.219314, 47.057648 ], [ 12.351624, 47.111173 ], [ 12.371714, 47.141679 ], [ 12.39839, 47.150257 ], [ 12.489891, 47.157509 ] ] ], [ [ [ 12.338046, 47.697087 ], [ 12.368738, 47.685314 ], [ 12.436806, 47.693784 ], [ 12.502198, 47.626341 ], [ 12.575027, 47.632316 ], [ 12.585481, 47.60526 ], [ 12.65226, 47.580944 ], [ 12.639012, 47.543382 ], [ 12.688541, 47.479319 ], [ 12.641197, 47.463092 ], [ 12.627037, 47.429933 ], [ 12.586974, 47.400204 ], [ 12.493195, 47.38157 ], [ 12.492006, 47.342366 ], [ 12.472339, 47.32724 ], [ 12.37383, 47.313578 ], [ 12.302425, 47.328696 ], [ 12.263256, 47.306112 ], [ 12.105823, 47.297244 ], [ 12.082944, 47.274148 ], [ 12.105532, 47.242783 ], [ 12.085057, 47.188881 ], [ 12.133966, 47.080406 ], [ 11.923611, 47.034355 ], [ 11.749926, 46.970112 ], [ 11.6272, 47.013299 ], [ 11.5411, 46.986373 ], [ 11.483343, 47.009661 ], [ 11.409212, 46.9661 ], [ 11.321243, 46.990073 ], [ 11.164282, 46.965722 ], [ 11.156772, 46.939672 ], [ 11.102469, 46.913964 ], [ 11.075709, 46.821597 ], [ 11.016495, 46.76939 ], [ 10.879994, 46.765684 ], [ 10.785319, 46.792872 ], [ 10.737906, 46.789661 ], [ 10.755142, 46.827843 ], [ 10.668577, 46.871368 ], [ 10.563711, 46.842609 ], [ 10.469652, 46.854909 ], [ 10.487056, 46.935983 ], [ 10.427662, 46.958357 ], [ 10.389989, 46.99867 ], [ 10.347354, 46.987214 ], [ 10.310745, 46.94701 ], [ 10.311968, 46.925442 ], [ 10.244074, 46.929442 ], [ 10.22887, 46.868293 ], [ 10.144975, 46.851009 ], [ 10.100894, 46.924537 ], [ 10.157182, 46.985547 ], [ 10.128526, 47.021404 ], [ 10.154125, 47.047103 ], [ 10.137153, 47.084584 ], [ 10.216835, 47.149714 ], [ 10.198923, 47.188928 ], [ 10.213653, 47.252782 ], [ 10.178353, 47.270114 ], [ 10.328498, 47.306304 ], [ 10.472359, 47.436769 ], [ 10.465031, 47.478104 ], [ 10.434826, 47.500347 ], [ 10.450368, 47.551342 ], [ 10.433443, 47.577595 ], [ 10.47264, 47.58695 ], [ 10.461497, 47.55561 ], [ 10.518548, 47.536123 ], [ 10.571511, 47.536374 ], [ 10.60338, 47.568473 ], [ 10.687014, 47.557279 ], [ 10.776119, 47.516323 ], [ 10.886199, 47.536848 ], [ 10.91376, 47.51545 ], [ 10.875563, 47.500951 ], [ 10.872265, 47.485371 ], [ 10.930965, 47.481233 ], [ 10.980343, 47.43144 ], [ 10.971503, 47.405247 ], [ 10.991203, 47.396131 ], [ 11.106177, 47.396096 ], [ 11.209055, 47.432171 ], [ 11.249016, 47.429309 ], [ 11.226878, 47.398128 ], [ 11.266362, 47.398021 ], [ 11.339228, 47.447306 ], [ 11.421428, 47.444852 ], [ 11.384371, 47.47249 ], [ 11.437512, 47.514085 ], [ 11.572632, 47.516034 ], [ 11.605293, 47.576472 ], [ 11.632883, 47.592446 ], [ 11.838749, 47.582779 ], [ 11.857385, 47.6008 ], [ 12.003297, 47.623066 ], [ 12.198279, 47.609174 ], [ 12.168274, 47.69728 ], [ 12.248248, 47.736859 ], [ 12.257755, 47.683125 ], [ 12.338046, 47.697087 ] ] ] ] } },
{ "type": "Feature", "properties": { "loc": "AT34" }, "geometry": { "type": "Polygon", "coordinates": [ [ [ 9.967814, 47.54624 ], [ 9.96719, 47.522695 ], [ 9.999526, 47.483017 ], [ 10.039236, 47.485531 ], [ 10.090142, 47.451938 ], [ 10.09906, 47.428379 ], [ 10.076921, 47.40624 ], [ 10.100714, 47.361603 ], [ 10.183916, 47.388048 ], [ 10.230075, 47.38136 ], [ 10.205252, 47.332323 ], [ 10.209452, 47.310285 ], [ 10.181318, 47.291558 ], [ 10.178353, 47.270114 ], [ 10.213653, 47.252782 ], [ 10.198923, 47.188928 ], [ 10.216835, 47.149714 ], [ 10.137153, 47.084584 ], [ 10.154125, 47.047103 ], [ 10.128526, 47.021404 ], [ 10.157182, 46.985547 ], [ 10.100894, 46.924537 ], [ 10.144975, 46.851009 ], [ 10.104815, 46.84361 ], [ 10.018694, 46.898909 ], [ 9.881376, 46.933935 ], [ 9.874642, 46.965975 ], [ 9.889809, 46.993301 ], [ 9.87131, 47.020742 ], [ 9.835245, 47.014537 ], [ 9.681128, 47.060449 ], [ 9.607078, 47.060774 ], [ 9.633024, 47.092263 ], [ 9.620581, 47.151645 ], [ 9.573028, 47.172634 ], [ 9.581182, 47.206768 ], [ 9.530749, 47.270581 ], [ 9.615059, 47.356336 ], [ 9.669473, 47.389238 ], [ 9.651692, 47.409591 ], [ 9.655783, 47.451158 ], [ 9.592899, 47.467558 ], [ 9.56442, 47.497668 ], [ 9.558721, 47.541893 ], [ 9.677136, 47.52418 ], [ 9.721026, 47.53242 ], [ 9.765973, 47.586899 ], [ 9.794082, 47.595003 ], [ 9.823787, 47.583822 ], [ 9.820161, 47.54903 ], [ 9.866847, 47.531563 ], [ 9.885646, 47.546299 ], [ 9.921347, 47.531433 ], [ 9.967814, 47.54624 ] ] ] } }
]
}
