{
"type": "FeatureCollection",
"name": "regions_BE",
"crs": { "type": "name", "properties": { "name": "urn:ogc:def:crs:OGC:1.3:CRS84" } },
"features": [
{ "type": "Feature", "properties": { "loc": "BE24" }, "geometry": { "type": "Polygon", "coordinates": [ [ [ 5.103481, 50.709064 ], [ 5.069223, 50.709757 ], [ 5.047853, 50.72378 ], [ 5.042083, 50.740679 ], [ 4.982027, 50.768453 ], [ 4.920449, 50.745267 ], [ 4.907509, 50.752683 ], [ 4.901473, 50.768785 ], [ 4.838595, 50.765351 ], [ 4.790052, 50.797614 ], [ 4.755492, 50.806226 ], [ 4.717002, 50.792397 ], [ 4.649414, 50.794648 ], [ 4.639342, 50.773032 ], [ 4.651448, 50.754624 ], [ 4.6355, 50.744231 ], [ 4.604282, 50.743649 ], [ 4.597269, 50.763534 ], [ 4.568654, 50.747269 ], [ 4.533647, 50.740347 ], [ 4.523042, 50.729381 ], [ 4.496486, 50.743974 ], [ 4.495829, 50.752659 ], [ 4.472062, 50.754052 ], [ 4.379947, 50.730678 ], [ 4.365794, 50.717061 ], [ 4.333522, 50.731454 ], [ 4.329506, 50.719121 ], [ 4.315945, 50.717515 ], [ 4.293488, 50.696123 ], [ 4.267587, 50.69952 ], [ 4.242512, 50.692006 ], [ 4.184145, 50.708687 ], [ 4.152696, 50.727923 ], [ 4.10013, 50.706022 ], [ 4.077933, 50.7114 ], [ 4.058261, 50.698086 ], [ 3.937631, 50.690093 ], [ 3.913104, 50.694223 ], [ 3.89233, 50.713322 ], [ 3.895737, 50.732944 ], [ 3.947533, 50.732896 ], [ 3.949136, 50.742859 ], [ 3.933196, 50.756641 ], [ 3.952721, 50.776507 ], [ 3.981017, 50.767205 ], [ 4.05832, 50.790308 ], [ 4.072508, 50.820277 ], [ 4.066807, 50.831795 ], [ 4.045513, 50.838279 ], [ 4.08486, 50.880137 ], [ 4.0786, 50.900009 ], [ 4.095516, 50.907388 ], [ 4.096678, 50.929581 ], [ 4.137331, 50.921378 ], [ 4.157672, 50.92889 ], [ 4.158442, 50.94772 ], [ 4.147153, 50.969398 ], [ 4.162374, 50.987341 ], [ 4.193354, 50.983902 ], [ 4.220157, 50.992655 ], [ 4.240999, 51.036869 ], [ 4.281795, 51.040822 ], [ 4.348846, 51.018111 ], [ 4.370391, 51.021524 ], [ 4.399484, 50.997883 ], [ 4.450122, 51.003568 ], [ 4.477646, 50.992757 ], [ 4.496369, 51.0061 ], [ 4.528663, 50.992264 ], [ 4.551976, 51.001787 ], [ 4.592264, 50.99309 ], [ 4.609888, 51.009653 ], [ 4.679649, 51.0224 ], [ 4.713001, 51.01391 ], [ 4.789319, 51.038929 ], [ 4.817494, 51.011411 ], [ 4.962952, 51.043518 ], [ 5.061798, 51.019599 ], [ 5.096575, 51.046733 ], [ 5.127983, 51.041689 ], [ 5.142873, 51.02818 ], [ 5.12338, 51.01714 ], [ 5.117491, 50.998567 ], [ 5.087683, 50.984537 ], [ 5.048495, 50.936001 ], [ 5.058382, 50.921597 ], [ 5.08193, 50.914096 ], [ 5.132623, 50.918739 ], [ 5.182185, 50.903236 ], [ 5.17965, 50.885276 ], [ 5.156344, 50.872719 ], [ 5.142162, 50.848148 ], [ 5.135361, 50.822393 ], [ 5.140291, 50.803162 ], [ 5.112557, 50.781561 ], [ 5.106588, 50.746449 ], [ 5.114565, 50.730781 ], [ 5.103481, 50.709064 ] ], [ [ 4.480477, 50.794258 ], [ 4.452995, 50.809491 ], [ 4.476784, 50.820377 ], [ 4.459209, 50.849258 ], [ 4.427949, 50.866818 ], [ 4.429361, 50.886509 ], [ 4.400055, 50.911889 ], [ 4.301976, 50.889139 ], [ 4.284823, 50.867179 ], [ 4.281406, 50.844249 ], [ 4.255531, 50.821727 ], [ 4.271811, 50.810641 ], [ 4.302692, 50.808345 ], [ 4.333627, 50.777575 ], [ 4.380799, 50.767434 ], [ 4.480477, 50.794258 ] ] ] } },
{ "type": "Feature", "properties": { "loc": "BE25" }, "geometry": { "type": "Polygon", "coordinates": [ [ [ 3.365788, 51.369835 ], [ 3.381907, 51.336074 ], [ 3.362843, 51.314634 ], [ 3.396974, 51.241453 ], [ 3.371798, 51.227186 ], [ 3.382107, 51.204674 ], [ 3.364641, 51.192073 ], [ 3.385321, 51.185586 ], [ 3.41093, 51.159889 ], [ 3.374021, 51.116611 ], [ 3.331306, 51.098873 ], [ 3.437477, 51.047803 ], [ 3.430345, 51.033255 ], [ 3.447074, 51.000367 ], [ 3.433176, 50.984736 ], [ 3.427302, 50.95578 ], [ 3.449622, 50.936813 ], [ 3.430085, 50.927427 ], [ 3.419824, 50.910935 ], [ 3.433573, 50.901264 ], [ 3.466747, 50.902096 ], [ 3.47398, 50.886919 ], [ 3.456375, 50.865158 ], [ 3.508854, 50.833924 ], [ 3.50811, 50.820425 ], [ 3.520479, 50.804399 ], [ 3.358765, 50.712477 ], [ 3.324118, 50.722309 ], [ 3.325122, 50.734072 ], [ 3.304837, 50.751994 ], [ 3.264611, 50.751276 ], [ 3.224263, 50.763711 ], [ 3.176996, 50.756164 ], [ 3.146566, 50.788268 ], [ 3.11406, 50.791052 ], [ 3.098481, 50.779019 ], [ 3.018709, 50.773533 ], [ 3.010706, 50.80365 ], [ 2.996636, 50.808652 ], [ 2.952628, 50.795628 ], [ 2.956623, 50.7757 ], [ 2.915398, 50.756682 ], [ 2.850045, 50.7532 ], [ 2.846719, 50.733537 ], [ 2.863276, 50.708343 ], [ 2.846408, 50.71934 ], [ 2.818283, 50.718314 ], [ 2.794311, 50.726818 ], [ 2.714885, 50.811572 ], [ 2.63351, 50.818161 ], [ 2.604263, 50.850736 ], [ 2.607036, 50.912689 ], [ 2.593965, 50.920061 ], [ 2.62854, 50.950621 ], [ 2.604196, 50.988626 ], [ 2.57826, 51.003547 ], [ 2.546011, 51.089382 ], [ 2.749052, 51.16177 ], [ 3.110689, 51.312259 ], [ 3.179541, 51.331075 ], [ 3.169849, 51.350006 ], [ 3.185943, 51.361176 ], [ 3.22264, 51.358604 ], [ 3.227534, 51.340065 ], [ 3.365788, 51.369835 ] ] ] } },
{ "type": "Feature", "properties": { "loc": "BE31" }, "geometry": { "type": "Polygon", "coordinates": [ [ [ 4.10013, 50.706022 ], [ 4.152696, 50.727923 ], [ 4.184145, 50.708687 ], [ 4.242512, 50.692006 ], [ 4.267587, 50.69952 ], [ 4.293488, 50.696123 ], [ 4.315945, 50.717515 ], [ 4.329506, 50.719121 ], [ 4.333522, 50.731454 ], [ 4.365794, 50.717061 ], [ 4.379947, 50.730678 ], [ 4.472062, 50.754052 ], [ 4.495829, 50.752659 ], [ 4.496486, 50.743974 ], [ 4.523042, 50.729381 ], [ 4.533647, 50.740347 ], [ 4.568654, 50.747269 ], [ 4.597269, 50.763534 ], [ 4.604282, 50.743649 ], [ 4.6355, 50.744231 ], [ 4.651448, 50.754624 ], [ 4.639342, 50.773032 ], [ 4.649414, 50.794648 ], [ 4.717002, 50.792397 ], [ 4.755492, 50.806226 ], [ 4.790052, 50.797614 ], [ 4.838595, 50.765351 ], [ 4.901473, 50.768785 ], [ 4.907509, 50.752683 ], [ 4.920449, 50.745267 ], [ 4.982027, 50.768453 ], [ 5.019567, 50.750762 ], [ 5.014696, 50.734481 ], [ 4.997609, 50.723941 ], [ 5.013957, 50.70324 ], [ 4.983341, 50.642242 ], [ 4.956477, 50.647241 ], [ 4.925456, 50.628182 ], [ 4.751311, 50.593407 ], [ 4.730419, 50.609984 ], [ 4.701897, 50.597082 ], [ 4.667808, 50.60515 ], [ 4.657724, 50.594811 ], [ 4.666126, 50.566646 ], [ 4.587361, 50.564043 ], [ 4.576794, 50.558161 ], [ 4.577538, 50.542286 ], [ 4.514936, 50.527156 ], [ 4.498291, 50.53725 ], [ 4.469022, 50.53231 ], [ 4.470328, 50.55649 ], [ 4.406937, 50.564302 ], [ 4.361328, 50.560692 ], [ 4.331307, 50.546594 ], [ 4.331237, 50.56694 ], [ 4.306626, 50.568687 ], [ 4.277025, 50.592347 ], [ 4.24722, 50.596119 ], [ 4.249398, 50.61653 ], [ 4.202186, 50.627653 ], [ 4.200486, 50.649275 ], [ 4.181606, 50.660568 ], [ 4.138025, 50.631895 ], [ 4.104616, 50.636782 ], [ 4.093854, 50.671047 ], [ 4.10013, 50.706022 ] ] ] } },
{ "type": "Feature", "properties": { "loc": "BE32" }, "geometry": { "type": "MultiPolygon", "coordinates": [ [ [ [ 3.775677, 50.747892 ], [ 3.815391, 50.750725 ], [ 3.83532, 50.743003 ], [ 3.880349, 50.749757 ], [ 3.895737, 50.732944 ], [ 3.89233, 50.713322 ], [ 3.913104, 50.694223 ], [ 3.937631, 50.690093 ], [ 4.058261, 50.698086 ], [ 4.077933, 50.7114 ], [ 4.10013, 50.706022 ], [ 4.093854, 50.671047 ], [ 4.104616, 50.636782 ], [ 4.138025, 50.631895 ], [ 4.181606, 50.660568 ], [ 4.200486, 50.649275 ], [ 4.202186, 50.627653 ], [ 4.249398, 50.61653 ], [ 4.24722, 50.596119 ], [ 4.277025, 50.592347 ], [ 4.306626, 50.568687 ], [ 4.331237, 50.56694 ], [ 4.331307, 50.546594 ], [ 4.361328, 50.560692 ], [ 4.406937, 50.564302 ], [ 4.470328, 50.55649 ], [ 4.469022, 50.53231 ], [ 4.498291, 50.53725 ], [ 4.514936, 50.527156 ], [ 4.577538, 50.542286 ], [ 4.561188, 50.500637 ], [ 4.594112, 50.483527 ], [ 4.596651, 50.473435 ], [ 4.579314, 50.450759 ], [ 4.586508, 50.43276 ], [ 4.610502, 50.424307 ], [ 4.59229, 50.395866 ], [ 4.601908, 50.386049 ], [ 4.586326, 50.362556 ], [ 4.588663, 50.321316 ], [ 4.520383, 50.315759 ], [ 4.499574, 50.328141 ], [ 4.474987, 50.32761 ], [ 4.458866, 50.307493 ], [ 4.405999, 50.308774 ], [ 4.390747, 50.292867 ], [ 4.329379, 50.275816 ], [ 4.289474, 50.25388 ], [ 4.338281, 50.229647 ], [ 4.37127, 50.241035 ], [ 4.397504, 50.231223 ], [ 4.39269, 50.185118 ], [ 4.364268, 50.164296 ], [ 4.397662, 50.123666 ], [ 4.387868, 50.107117 ], [ 4.393227, 50.053822 ], [ 4.406147, 50.044335 ], [ 4.416288, 49.995576 ], [ 4.441564, 49.959608 ], [ 4.432494, 49.941616 ], [ 4.350543, 49.95346 ], [ 4.312685, 49.967293 ], [ 4.197322, 49.954494 ], [ 4.196499, 49.967295 ], [ 4.140853, 49.97876 ], [ 4.159568, 49.994162 ], [ 4.137487, 50.016883 ], [ 4.153089, 50.039038 ], [ 4.227928, 50.071379 ], [ 4.205671, 50.099914 ], [ 4.194753, 50.132902 ], [ 4.130041, 50.136741 ], [ 4.152743, 50.163838 ], [ 4.154711, 50.213024 ], [ 4.218107, 50.257433 ], [ 4.204732, 50.272096 ], [ 4.165829, 50.286201 ], [ 4.153368, 50.276684 ], [ 4.163547, 50.26038 ], [ 4.143412, 50.258459 ], [ 4.125862, 50.276228 ], [ 4.117576, 50.300243 ], [ 4.081304, 50.311336 ], [ 4.027775, 50.35833 ], [ 3.896869, 50.327563 ], [ 3.845351, 50.351653 ], [ 3.748665, 50.349221 ], [ 3.735121, 50.339707 ], [ 3.728673, 50.315717 ], [ 3.708769, 50.305671 ], [ 3.66701, 50.350223 ], [ 3.660615, 50.371148 ], [ 3.672889, 50.410598 ], [ 3.65551, 50.461735 ], [ 3.615082, 50.490399 ], [ 3.565277, 50.499086 ], [ 3.503395, 50.490141 ], [ 3.500038, 50.499385 ], [ 3.516413, 50.520625 ], [ 3.499982, 50.528756 ], [ 3.47058, 50.530759 ], [ 3.448109, 50.509304 ], [ 3.379276, 50.493177 ], [ 3.290003, 50.526699 ], [ 3.281254, 50.538705 ], [ 3.276353, 50.597605 ], [ 3.24274, 50.65871 ], [ 3.260948, 50.678201 ], [ 3.258739, 50.69993 ], [ 3.245294, 50.713009 ], [ 3.209403, 50.714075 ], [ 3.176996, 50.756164 ], [ 3.224263, 50.763711 ], [ 3.264611, 50.751276 ], [ 3.304837, 50.751994 ], [ 3.325122, 50.734072 ], [ 3.324118, 50.722309 ], [ 3.358765, 50.712477 ], [ 3.408273, 50.745117 ], [ 3.460306, 50.765899 ], [ 3.485656, 50.759232 ], [ 3.531013, 50.762413 ], [ 3.544416, 50.748177 ], [ 3.541273, 50.7337 ], [ 3.635217, 50.722923 ], [ 3.678541, 50.769959 ], [ 3.707291, 50.778998 ], [ 3.722738, 50.769631 ], [ 3.75359, 50.775301 ], [ 3.775677, 50.747892 ] ] ], [ [ [ 2.863276, 50.708343 ], [ 2.846719, 50.733537 ], [ 2.850045, 50.7532 ], [ 2.915398, 50.756682 ], [ 2.956623, 50.7757 ], [ 2.952628, 50.795628 ], [ 2.996636, 50.808652 ], [ 3.010706, 50.80365 ], [ 3.018709, 50.773533 ], [ 2.945437, 50.747285 ], [ 2.927159, 50.70931 ], [ 2.905895, 50.695239 ], [ 2.863276, 50.708343 ] ] ] ] } },
{ "type": "Feature", "properties": { "loc": "BE33" }, "geometry": { "type": "Polygon", "coordinates": [ [ [ 5.682001, 50.757446 ], [ 5.715471, 50.746992 ], [ 5.778458, 50.747867 ], [ 5.819052, 50.714557 ], [ 5.885805, 50.71383 ], [ 5.907074, 50.734752 ], [ 5.892073, 50.755237 ], [ 5.917619, 50.750964 ], [ 5.960132, 50.762024 ], [ 5.98356, 50.75309 ], [ 6.020999, 50.754295 ], [ 6.03654, 50.745225 ], [ 6.038158, 50.723206 ], [ 6.115915, 50.718751 ], [ 6.177843, 50.653061 ], [ 6.184152, 50.628095 ], [ 6.203118, 50.632828 ], [ 6.265564, 50.62468 ], [ 6.241527, 50.591434 ], [ 6.189313, 50.566094 ], [ 6.177047, 50.551694 ], [ 6.193873, 50.535227 ], [ 6.192201, 50.521055 ], [ 6.206559, 50.517993 ], [ 6.226624, 50.497614 ], [ 6.315556, 50.497042 ], [ 6.340089, 50.487413 ], [ 6.34409, 50.461605 ], [ 6.374415, 50.44776 ], [ 6.367037, 50.407168 ], [ 6.346816, 50.380147 ], [ 6.400672, 50.341919 ], [ 6.405029, 50.323308 ], [ 6.358116, 50.310706 ], [ 6.313107, 50.320706 ], [ 6.289262, 50.294631 ], [ 6.281067, 50.269833 ], [ 6.217401, 50.255698 ], [ 6.180311, 50.23434 ], [ 6.170741, 50.220853 ], [ 6.1849, 50.20686 ], [ 6.186511, 50.184053 ], [ 6.144673, 50.172265 ], [ 6.14066, 50.152709 ], [ 6.152019, 50.143463 ], [ 6.137663, 50.129951 ], [ 6.115963, 50.136852 ], [ 6.120461, 50.150533 ], [ 6.11096, 50.166561 ], [ 6.085489, 50.170037 ], [ 6.074383, 50.157106 ], [ 6.055715, 50.155865 ], [ 6.032995, 50.16492 ], [ 6.0249, 50.182779 ], [ 6.030105, 50.204822 ], [ 6.014471, 50.209111 ], [ 6.010572, 50.233099 ], [ 6.014352, 50.301765 ], [ 5.980198, 50.329853 ], [ 5.862839, 50.34531 ], [ 5.852212, 50.330604 ], [ 5.865772, 50.313111 ], [ 5.849519, 50.28446 ], [ 5.874841, 50.279497 ], [ 5.867348, 50.26969 ], [ 5.807273, 50.260697 ], [ 5.72155, 50.261989 ], [ 5.744782, 50.299182 ], [ 5.720707, 50.305134 ], [ 5.708337, 50.319335 ], [ 5.716078, 50.357886 ], [ 5.675185, 50.357527 ], [ 5.675839, 50.368515 ], [ 5.640599, 50.368651 ], [ 5.589982, 50.397371 ], [ 5.540234, 50.391859 ], [ 5.507898, 50.42348 ], [ 5.463594, 50.40967 ], [ 5.42705, 50.428314 ], [ 5.407831, 50.420377 ], [ 5.424138, 50.400728 ], [ 5.393235, 50.379364 ], [ 5.350265, 50.386382 ], [ 5.297616, 50.367756 ], [ 5.283112, 50.378886 ], [ 5.279164, 50.394916 ], [ 5.238059, 50.404388 ], [ 5.22126, 50.417297 ], [ 5.234463, 50.435875 ], [ 5.197771, 50.476171 ], [ 5.162623, 50.470722 ], [ 5.15219, 50.48637 ], [ 5.136652, 50.491038 ], [ 5.130651, 50.50712 ], [ 5.105266, 50.509506 ], [ 5.087215, 50.528703 ], [ 5.043057, 50.533054 ], [ 5.050068, 50.545861 ], [ 5.028495, 50.588821 ], [ 4.983666, 50.61797 ], [ 4.983341, 50.642242 ], [ 5.013957, 50.70324 ], [ 4.997609, 50.723941 ], [ 5.014696, 50.734481 ], [ 5.019567, 50.750762 ], [ 5.042083, 50.740679 ], [ 5.047853, 50.72378 ], [ 5.069223, 50.709757 ], [ 5.161474, 50.695997 ], [ 5.175888, 50.703351 ], [ 5.175634, 50.719209 ], [ 5.225079, 50.71878 ], [ 5.236913, 50.727273 ], [ 5.253753, 50.716609 ], [ 5.279164, 50.727873 ], [ 5.306592, 50.720347 ], [ 5.350443, 50.744915 ], [ 5.387011, 50.745486 ], [ 5.411468, 50.72451 ], [ 5.431687, 50.719803 ], [ 5.450806, 50.72248 ], [ 5.46593, 50.736102 ], [ 5.485577, 50.726919 ], [ 5.514293, 50.740517 ], [ 5.52649, 50.757256 ], [ 5.630211, 50.784926 ], [ 5.656277, 50.804382 ], [ 5.687622, 50.811924 ], [ 5.69828, 50.781659 ], [ 5.682001, 50.757446 ] ] ] } },
{ "type": "Feature", "properties": { "loc": "BE34" }, "geometry": { "type": "Polygon", "coordinates": [ [ [ 5.675839, 50.368515 ], [ 5.675185, 50.357527 ], [ 5.716078, 50.357886 ], [ 5.708337, 50.319335 ], [ 5.720707, 50.305134 ], [ 5.744782, 50.299182 ], [ 5.72155, 50.261989 ], [ 5.807273, 50.260697 ], [ 5.867348, 50.26969 ], [ 5.874841, 50.279497 ], [ 5.849519, 50.28446 ], [ 5.865772, 50.313111 ], [ 5.852212, 50.330604 ], [ 5.862839, 50.34531 ], [ 5.980198, 50.329853 ], [ 6.014352, 50.301765 ], [ 6.010572, 50.233099 ], [ 6.014471, 50.209111 ], [ 6.030105, 50.204822 ], [ 6.0249, 50.182779 ], [ 5.97197, 50.17189 ], [ 5.954893, 50.133147 ], [ 5.898151, 50.109885 ], [ 5.883949, 50.081665 ], [ 5.862947, 50.064603 ], [ 5.857176, 50.031105 ], [ 5.825529, 50.010964 ], [ 5.83174, 49.982599 ], [ 5.779931, 49.958751 ], [ 5.76241, 49.920342 ], [ 5.745485, 49.90362 ], [ 5.772173, 49.878041 ], [ 5.746319, 49.853595 ], [ 5.752513, 49.847861 ], [ 5.743104, 49.833753 ], [ 5.756461, 49.794191 ], [ 5.789156, 49.792094 ], [ 5.827045, 49.747831 ], [ 5.829912, 49.724328 ], [ 5.863425, 49.724727 ], [ 5.882016, 49.713229 ], [ 5.864868, 49.680575 ], [ 5.906198, 49.661604 ], [ 5.904065, 49.6401 ], [ 5.850886, 49.595015 ], [ 5.868141, 49.585306 ], [ 5.868309, 49.574179 ], [ 5.818117, 49.54631 ], [ 5.771255, 49.562978 ], [ 5.758997, 49.560282 ], [ 5.757128, 49.542587 ], [ 5.740038, 49.539031 ], [ 5.734556, 49.54569 ], [ 5.706503, 49.539955 ], [ 5.65203, 49.551401 ], [ 5.622595, 49.532769 ], [ 5.611183, 49.509314 ], [ 5.559477, 49.527271 ], [ 5.470883, 49.497238 ], [ 5.4511, 49.51743 ], [ 5.464972, 49.531827 ], [ 5.446007, 49.550099 ], [ 5.453145, 49.565679 ], [ 5.393511, 49.617111 ], [ 5.350342, 49.628232 ], [ 5.314955, 49.615534 ], [ 5.309077, 49.624957 ], [ 5.325453, 49.656145 ], [ 5.285521, 49.684736 ], [ 5.175874, 49.694152 ], [ 5.153739, 49.717926 ], [ 5.129736, 49.713445 ], [ 5.117244, 49.738742 ], [ 5.089363, 49.76335 ], [ 5.020449, 49.778071 ], [ 4.993945, 49.799237 ], [ 4.969431, 49.801826 ], [ 4.985768, 49.823897 ], [ 4.988585, 49.849436 ], [ 5.049079, 49.880033 ], [ 5.048264, 49.893696 ], [ 5.074179, 49.911918 ], [ 5.109051, 49.924044 ], [ 5.097584, 49.960106 ], [ 5.057624, 49.983643 ], [ 5.015006, 49.981976 ], [ 4.982698, 50.027145 ], [ 4.998392, 50.041796 ], [ 5.015103, 50.040789 ], [ 5.042767, 50.056555 ], [ 5.060568, 50.100369 ], [ 5.149738, 50.09556 ], [ 5.263064, 50.10849 ], [ 5.253492, 50.132071 ], [ 5.275899, 50.155268 ], [ 5.229994, 50.218776 ], [ 5.277567, 50.243266 ], [ 5.319601, 50.250421 ], [ 5.384843, 50.286922 ], [ 5.385047, 50.305331 ], [ 5.364297, 50.316894 ], [ 5.387934, 50.338739 ], [ 5.393235, 50.379364 ], [ 5.424138, 50.400728 ], [ 5.407831, 50.420377 ], [ 5.42705, 50.428314 ], [ 5.463594, 50.40967 ], [ 5.507898, 50.42348 ], [ 5.540234, 50.391859 ], [ 5.589982, 50.397371 ], [ 5.640599, 50.368651 ], [ 5.675839, 50.368515 ] ] ] } },
{ "type": "Feature", "properties": { "loc": "BE35" }, "geometry": { "type": "Polygon", "coordinates": [ [ [ 5.028495, 50.588821 ], [ 5.050068, 50.545861 ], [ 5.043057, 50.533054 ], [ 5.087215, 50.528703 ], [ 5.105266, 50.509506 ], [ 5.130651, 50.50712 ], [ 5.136652, 50.491038 ], [ 5.15219, 50.48637 ], [ 5.162623, 50.470722 ], [ 5.197771, 50.476171 ], [ 5.234463, 50.435875 ], [ 5.22126, 50.417297 ], [ 5.238059, 50.404388 ], [ 5.279164, 50.394916 ], [ 5.283112, 50.378886 ], [ 5.297616, 50.367756 ], [ 5.350265, 50.386382 ], [ 5.393235, 50.379364 ], [ 5.387934, 50.338739 ], [ 5.364297, 50.316894 ], [ 5.385047, 50.305331 ], [ 5.384843, 50.286922 ], [ 5.319601, 50.250421 ], [ 5.277567, 50.243266 ], [ 5.229994, 50.218776 ], [ 5.275899, 50.155268 ], [ 5.253492, 50.132071 ], [ 5.263064, 50.10849 ], [ 5.149738, 50.09556 ], [ 5.060568, 50.100369 ], [ 5.042767, 50.056555 ], [ 5.015103, 50.040789 ], [ 4.998392, 50.041796 ], [ 4.982698, 50.027145 ], [ 5.015006, 49.981976 ], [ 5.057624, 49.983643 ], [ 5.097584, 49.960106 ], [ 5.109051, 49.924044 ], [ 5.074179, 49.911918 ], [ 5.048264, 49.893696 ], [ 5.049079, 49.880033 ], [ 4.988585, 49.849436 ], [ 4.985768, 49.823897 ], [ 4.969431, 49.801826 ], [ 4.924615, 49.786551 ], [ 4.856525, 49.79357 ], [ 4.872622, 49.819534 ], [ 4.853907, 49.861524 ], [ 4.886685, 49.911223 ], [ 4.84701, 49.946442 ], [ 4.797384, 49.957276 ], [ 4.792314, 49.968232 ], [ 4.81546, 49.993662 ], [ 4.821409, 50.024077 ], [ 4.83795, 50.039632 ], [ 4.823662, 50.063425 ], [ 4.839961, 50.073396 ], [ 4.844663, 50.096514 ], [ 4.869515, 50.091437 ], [ 4.870902, 50.120915 ], [ 4.891011, 50.135925 ], [ 4.874132, 50.152179 ], [ 4.839189, 50.15385 ], [ 4.822714, 50.163921 ], [ 4.766433, 50.136864 ], [ 4.747454, 50.111523 ], [ 4.704843, 50.095168 ], [ 4.689283, 50.078543 ], [ 4.683472, 50.065669 ], [ 4.697742, 50.052016 ], [ 4.683182, 49.997766 ], [ 4.58002, 49.981501 ], [ 4.512658, 49.947916 ], [ 4.432494, 49.941616 ], [ 4.441564, 49.959608 ], [ 4.416288, 49.995576 ], [ 4.406147, 50.044335 ], [ 4.393227, 50.053822 ], [ 4.387868, 50.107117 ], [ 4.397662, 50.123666 ], [ 4.364268, 50.164296 ], [ 4.39269, 50.185118 ], [ 4.397504, 50.231223 ], [ 4.37127, 50.241035 ], [ 4.338281, 50.229647 ], [ 4.289474, 50.25388 ], [ 4.329379, 50.275816 ], [ 4.390747, 50.292867 ], [ 4.405999, 50.308774 ], [ 4.458866, 50.307493 ], [ 4.474987, 50.32761 ], [ 4.499574, 50.328141 ], [ 4.520383, 50.315759 ], [ 4.588663, 50.321316 ], [ 4.586326, 50.362556 ], [ 4.601908, 50.386049 ], [ 4.59229, 50.395866 ], [ 4.610502, 50.424307 ], [ 4.586508, 50.43276 ], [ 4.579314, 50.450759 ], [ 4.596651, 50.473435 ], [ 4.594112, 50.483527 ], [ 4.561188, 50.500637 ], [ 4.576794, 50.558161 ], [ 4.666126, 50.566646 ], [ 4.657724, 50.594811 ], [ 4.667808, 50.60515 ], [ 4.701897, 50.597082 ], [ 4.730419, 50.609984 ], [ 4.751311, 50.593407 ], [ 4.925456, 50.628182 ], [ 4.956477, 50.647241 ], [ 4.983341, 50.642242 ], [ 4.983666, 50.61797 ], [ 5.028495, 50.588821 ] ] ] } },
{ "type": "Feature", "properties": { "loc": "BE10" }, "geometry": { "type": "Polygon", "coordinates": [ [ [ 4.476784, 50.820377 ], [ 4.452995, 50.809491 ], [ 4.480477, 50.794258 ], [ 4.380799, 50.767434 ], [ 4.333627, 50.777575 ], [ 4.302692, 50.808345 ], [ 4.271811, 50.810641 ], [ 4.255531, 50.821727 ], [ 4.281406, 50.844249 ], [ 4.284823, 50.867179 ], [ 4.301976, 50.889139 ], [ 4.400055, 50.911889 ], [ 4.429361, 50.886509 ], [ 4.427949, 50.866818 ], [ 4.459209, 50.849258 ], [ 4.476784, 50.820377 ] ] ] } },
{ "type": "Feature", "properties": { "loc": "BE21" }, "geometry": { "type": "MultiPolygon", "coordinates": [ [ [ [ 5.10218, 51.429005 ], [ 5.071045, 51.393421 ], [ 5.131386, 51.347105 ], [ 5.134465, 51.31549 ], [ 5.162362, 51.310742 ], [ 5.200245, 51.322619 ], [ 5.241098, 51.305663 ], [ 5.226578, 51.269201 ], [ 5.237717, 51.2616 ], [ 5.217572, 51.245781 ], [ 5.215412, 51.219902 ], [ 5.258186, 51.183677 ], [ 5.261074, 51.146965 ], [ 5.237328, 51.135551 ], [ 5.210289, 51.138733 ], [ 5.185301, 51.120121 ], [ 5.134057, 51.116423 ], [ 5.08969, 51.084993 ], [ 5.014703, 51.072674 ], [ 4.981575, 51.034885 ], [ 4.962952, 51.043518 ], [ 4.817494, 51.011411 ], [ 4.789319, 51.038929 ], [ 4.713001, 51.01391 ], [ 4.679649, 51.0224 ], [ 4.609888, 51.009653 ], [ 4.592264, 50.99309 ], [ 4.551976, 51.001787 ], [ 4.528663, 50.992264 ], [ 4.496369, 51.0061 ], [ 4.477646, 50.992757 ], [ 4.450122, 51.003568 ], [ 4.399484, 50.997883 ], [ 4.370391, 51.021524 ], [ 4.348846, 51.018111 ], [ 4.281795, 51.040822 ], [ 4.19209, 51.040704 ], [ 4.194395, 51.057384 ], [ 4.175792, 51.101211 ], [ 4.213946, 51.119813 ], [ 4.307829, 51.125034 ], [ 4.326676, 51.140152 ], [ 4.329441, 51.17711 ], [ 4.308757, 51.208018 ], [ 4.294228, 51.256628 ], [ 4.318663, 51.284823 ], [ 4.276987, 51.302963 ], [ 4.268068, 51.340835 ], [ 4.226164, 51.360486 ], [ 4.218264, 51.373026 ], [ 4.32898, 51.376562 ], [ 4.344422, 51.359063 ], [ 4.375975, 51.355481 ], [ 4.427162, 51.365743 ], [ 4.427319, 51.377158 ], [ 4.387892, 51.415014 ], [ 4.396215, 51.432564 ], [ 4.392661, 51.450081 ], [ 4.478998, 51.477104 ], [ 4.542871, 51.476821 ], [ 4.531711, 51.445505 ], [ 4.53833, 51.424937 ], [ 4.577543, 51.431913 ], [ 4.669544, 51.426384 ], [ 4.667286, 51.444439 ], [ 4.692802, 51.452317 ], [ 4.759926, 51.502464 ], [ 4.806476, 51.49684 ], [ 4.83904, 51.478104 ], [ 4.825754, 51.446873 ], [ 4.826744, 51.425198 ], [ 4.772836, 51.428643 ], [ 4.773403, 51.416937 ], [ 4.785251, 51.411103 ], [ 4.884981, 51.414596 ], [ 4.92708, 51.396821 ], [ 5.000885, 51.44337 ], [ 5.014763, 51.474288 ], [ 5.03382, 51.484649 ], [ 5.049276, 51.472331 ], [ 5.081105, 51.466647 ], [ 5.10218, 51.429005 ] ] ], [ [ [ 4.940002, 51.430601 ], [ 4.92879, 51.430285 ], [ 4.916859, 51.435386 ], [ 4.935002, 51.441787 ], [ 4.940002, 51.430601 ] ] ] ] } },
{ "type": "Feature", "properties": { "loc": "BE22" }, "geometry": { "type": "MultiPolygon", "coordinates": [ [ [ [ 5.886291, 50.769484 ], [ 5.907074, 50.734752 ], [ 5.885805, 50.71383 ], [ 5.819052, 50.714557 ], [ 5.778458, 50.747867 ], [ 5.715471, 50.746992 ], [ 5.682001, 50.757446 ], [ 5.719764, 50.762765 ], [ 5.737277, 50.757787 ], [ 5.770756, 50.782695 ], [ 5.808213, 50.756372 ], [ 5.844917, 50.765385 ], [ 5.849627, 50.755369 ], [ 5.886291, 50.769484 ] ] ], [ [ [ 5.566284, 51.220836 ], [ 5.644885, 51.199628 ], [ 5.662353, 51.185415 ], [ 5.753334, 51.186567 ], [ 5.77063, 51.179368 ], [ 5.781677, 51.154983 ], [ 5.829353, 51.162505 ], [ 5.850795, 51.142683 ], [ 5.81235, 51.11732 ], [ 5.830268, 51.099678 ], [ 5.80048, 51.089617 ], [ 5.798274, 51.059853 ], [ 5.77275, 51.056973 ], [ 5.761677, 51.035022 ], [ 5.772618, 51.021927 ], [ 5.760226, 50.993031 ], [ 5.724508, 50.964109 ], [ 5.753773, 50.951061 ], [ 5.722378, 50.912748 ], [ 5.698645, 50.907388 ], [ 5.681774, 50.885218 ], [ 5.648376, 50.871182 ], [ 5.641507, 50.851945 ], [ 5.657657, 50.820858 ], [ 5.687622, 50.811924 ], [ 5.656277, 50.804382 ], [ 5.630211, 50.784926 ], [ 5.52649, 50.757256 ], [ 5.514293, 50.740517 ], [ 5.485577, 50.726919 ], [ 5.46593, 50.736102 ], [ 5.450806, 50.72248 ], [ 5.431687, 50.719803 ], [ 5.411468, 50.72451 ], [ 5.387011, 50.745486 ], [ 5.350443, 50.744915 ], [ 5.306592, 50.720347 ], [ 5.279164, 50.727873 ], [ 5.253753, 50.716609 ], [ 5.236913, 50.727273 ], [ 5.225079, 50.71878 ], [ 5.175634, 50.719209 ], [ 5.175888, 50.703351 ], [ 5.161474, 50.695997 ], [ 5.103481, 50.709064 ], [ 5.114565, 50.730781 ], [ 5.106588, 50.746449 ], [ 5.112557, 50.781561 ], [ 5.140291, 50.803162 ], [ 5.135361, 50.822393 ], [ 5.142162, 50.848148 ], [ 5.156344, 50.872719 ], [ 5.17965, 50.885276 ], [ 5.182185, 50.903236 ], [ 5.132623, 50.918739 ], [ 5.08193, 50.914096 ], [ 5.058382, 50.921597 ], [ 5.048495, 50.936001 ], [ 5.087683, 50.984537 ], [ 5.117491, 50.998567 ], [ 5.12338, 51.01714 ], [ 5.142873, 51.02818 ], [ 5.127983, 51.041689 ], [ 5.096575, 51.046733 ], [ 5.061798, 51.019599 ], [ 4.981575, 51.034885 ], [ 5.014703, 51.072674 ], [ 5.08969, 51.084993 ], [ 5.134057, 51.116423 ], [ 5.185301, 51.120121 ], [ 5.210289, 51.138733 ], [ 5.237328, 51.135551 ], [ 5.261074, 51.146965 ], [ 5.258186, 51.183677 ], [ 5.215412, 51.219902 ], [ 5.217572, 51.245781 ], [ 5.237717, 51.2616 ], [ 5.329681, 51.263407 ], [ 5.351861, 51.27394 ], [ 5.414989, 51.263611 ], [ 5.494726, 51.298495 ], [ 5.515184, 51.293845 ], [ 5.553517, 51.266147 ], [ 5.566284, 51.220836 ] ] ] ] } },
{ "type": "Feature", "properties": { "loc": "BE23" }, "geometry": { "type": "Polygon", "coordinates": [ [ [ 4.307829, 51.125034 ], [ 4.213946, 51.119813 ], [ 4.175792, 51.101211 ], [ 4.194395, 51.057384 ], [ 4.19209, 51.040704 ], [ 4.240999, 51.036869 ], [ 4.220157, 50.992655 ], [ 4.193354, 50.983902 ], [ 4.162374, 50.987341 ], [ 4.147153, 50.969398 ], [ 4.158442, 50.94772 ], [ 4.157672, 50.92889 ], [ 4.137331, 50.921378 ], [ 4.096678, 50.929581 ], [ 4.095516, 50.907388 ], [ 4.0786, 50.900009 ], [ 4.08486, 50.880137 ], [ 4.045513, 50.838279 ], [ 4.066807, 50.831795 ], [ 4.072508, 50.820277 ], [ 4.05832, 50.790308 ], [ 3.981017, 50.767205 ], [ 3.952721, 50.776507 ], [ 3.933196, 50.756641 ], [ 3.949136, 50.742859 ], [ 3.947533, 50.732896 ], [ 3.895737, 50.732944 ], [ 3.880349, 50.749757 ], [ 3.83532, 50.743003 ], [ 3.815391, 50.750725 ], [ 3.775677, 50.747892 ], [ 3.75359, 50.775301 ], [ 3.722738, 50.769631 ], [ 3.707291, 50.778998 ], [ 3.678541, 50.769959 ], [ 3.635217, 50.722923 ], [ 3.541273, 50.7337 ], [ 3.544416, 50.748177 ], [ 3.531013, 50.762413 ], [ 3.485656, 50.759232 ], [ 3.460306, 50.765899 ], [ 3.520479, 50.804399 ], [ 3.50811, 50.820425 ], [ 3.508854, 50.833924 ], [ 3.456375, 50.865158 ], [ 3.47398, 50.886919 ], [ 3.466747, 50.902096 ], [ 3.433573, 50.901264 ], [ 3.419824, 50.910935 ], [ 3.430085, 50.927427 ], [ 3.449622, 50.936813 ], [ 3.427302, 50.95578 ], [ 3.433176, 50.984736 ], [ 3.447074, 51.000367 ], [ 3.430345, 51.033255 ], [ 3.437477, 51.047803 ], [ 3.331306, 51.098873 ], [ 3.374021, 51.116611 ], [ 3.41093, 51.159889 ], [ 3.385321, 51.185586 ], [ 3.364641, 51.192073 ], [ 3.382107, 51.204674 ], [ 3.371798, 51.227186 ], [ 3.396974, 51.241453 ], [ 3.380661, 51.274299 ], [ 3.437184, 51.243748 ], [ 3.519237, 51.246263 ], [ 3.524928, 51.251993 ], [ 3.519479, 51.28564 ], [ 3.579156, 51.290221 ], [ 3.593884, 51.303257 ], [ 3.783784, 51.259938 ], [ 3.791648, 51.253843 ], [ 3.793982, 51.215133 ], [ 3.85634, 51.211056 ], [ 3.886016, 51.22019 ], [ 3.882508, 51.206033 ], [ 3.893161, 51.202758 ], [ 3.925269, 51.21713 ], [ 3.945685, 51.214098 ], [ 4.006679, 51.24173 ], [ 4.061566, 51.245616 ], [ 4.159673, 51.290062 ], [ 4.242049, 51.353967 ], [ 4.268068, 51.340835 ], [ 4.276987, 51.302963 ], [ 4.318663, 51.284823 ], [ 4.294228, 51.256628 ], [ 4.308757, 51.208018 ], [ 4.329441, 51.17711 ], [ 4.326676, 51.140152 ], [ 4.307829, 51.125034 ] ] ] } }
]
}
