{
"type": "FeatureCollection",
"name": "regions_NL",
"crs": { "type": "name", "properties": { "name": "urn:ogc:def:crs:OGC:1.3:CRS84" } },
"features": [
{ "type": "Feature", "properties": { "loc": "NL11" }, "geometry": { "type": "MultiPolygon", "coordinates": [ [ [ [ 6.874905, 53.408013 ], [ 6.901237, 53.353245 ], [ 6.937366, 53.326586 ], [ 7.085845, 53.301676 ], [ 7.092713, 53.257017 ], [ 7.208935, 53.243064 ], [ 7.216179, 53.182589 ], [ 7.181195, 53.135526 ], [ 7.202795, 53.113281 ], [ 7.213542, 53.005804 ], [ 7.180638, 52.941324 ], [ 7.091835, 52.853011 ], [ 7.092692, 52.838201 ], [ 7.018609, 52.87439 ], [ 7.042162, 52.914667 ], [ 6.81381, 53.071048 ], [ 6.73586, 53.118468 ], [ 6.638109, 53.109965 ], [ 6.526531, 53.194996 ], [ 6.483767, 53.202408 ], [ 6.410035, 53.177221 ], [ 6.346568, 53.092152 ], [ 6.205481, 53.115774 ], [ 6.175689, 53.135093 ], [ 6.19731, 53.193681 ], [ 6.226056, 53.215391 ], [ 6.21872, 53.239113 ], [ 6.285171, 53.307571 ], [ 6.282692, 53.341381 ], [ 6.175024, 53.369826 ], [ 6.16993, 53.390296 ], [ 6.191302, 53.410938 ], [ 6.255158, 53.414569 ], [ 6.309488, 53.398229 ], [ 6.749851, 53.465237 ], [ 6.866449, 53.449263 ], [ 6.880497, 53.437664 ], [ 6.874905, 53.408013 ] ] ], [ [ [ 6.587398, 53.530026 ], [ 6.59851, 53.516608 ], [ 6.572527, 53.539709 ], [ 6.592532, 53.544075 ], [ 6.587398, 53.530026 ] ] ], [ [ [ 6.512791, 53.537312 ], [ 6.474804, 53.517775 ], [ 6.4582, 53.539945 ], [ 6.48733, 53.555864 ], [ 6.512791, 53.537312 ] ] ] ] } },
{ "type": "Feature", "properties": { "loc": "NL12" }, "geometry": { "type": "MultiPolygon", "coordinates": [ [ [ [ 6.315237, 53.094051 ], [ 6.310045, 53.08086 ], [ 6.364764, 53.06629 ], [ 6.365637, 53.0322 ], [ 6.42424, 52.973507 ], [ 6.396035, 52.936123 ], [ 6.332446, 52.909108 ], [ 6.254799, 52.925641 ], [ 6.203833, 52.890013 ], [ 6.029972, 52.818019 ], [ 5.967759, 52.839576 ], [ 5.880141, 52.802521 ], [ 5.819827, 52.817317 ], [ 5.789703, 52.804546 ], [ 5.726278, 52.843651 ], [ 5.660803, 52.831011 ], [ 5.631353, 52.803055 ], [ 5.377262, 52.764805 ], [ 5.238683, 52.874061 ], [ 5.164384, 53.00091 ], [ 5.371063, 53.093123 ], [ 5.403816, 53.122012 ], [ 5.412607, 53.174446 ], [ 5.44554, 53.217696 ], [ 5.589813, 53.301415 ], [ 5.891018, 53.387663 ], [ 6.029325, 53.404537 ], [ 6.191302, 53.410938 ], [ 6.16993, 53.390296 ], [ 6.175024, 53.369826 ], [ 6.282692, 53.341381 ], [ 6.285171, 53.307571 ], [ 6.21872, 53.239113 ], [ 6.226056, 53.215391 ], [ 6.19731, 53.193681 ], [ 6.175689, 53.135093 ], [ 6.205481, 53.115774 ], [ 6.315237, 53.094051 ] ] ], [ [ [ 6.252131, 53.478482 ], [ 6.132959, 53.47219 ], [ 6.137333, 53.487333 ], [ 6.16146, 53.501004 ], [ 6.361982, 53.513057 ], [ 6.252131, 53.478482 ] ] ], [ [ [ 5.65819, 53.471315 ], [ 5.934186, 53.468355 ], [ 5.962102, 53.461154 ], [ 5.806221, 53.437913 ], [ 5.727112, 53.442173 ], [ 5.681283, 53.424968 ], [ 5.647296, 53.425168 ], [ 5.613031, 53.448114 ], [ 5.65819, 53.471315 ] ] ], [ [ [ 5.464998, 53.405998 ], [ 5.191711, 53.349818 ], [ 5.15679, 53.35744 ], [ 5.204487, 53.39624 ], [ 5.543961, 53.44105 ], [ 5.464998, 53.405998 ] ] ], [ [ [ 5.249813, 53.258901 ], [ 5.263726, 53.248191 ], [ 5.240486, 53.251763 ], [ 5.249813, 53.258901 ] ] ], [ [ [ 4.922477, 53.217454 ], [ 4.849613, 53.211049 ], [ 5.030254, 53.300044 ], [ 5.081871, 53.304473 ], [ 4.982021, 53.268209 ], [ 4.922477, 53.217454 ] ] ] ] } },
{ "type": "Feature", "properties": { "loc": "NL13" }, "geometry": { "type": "Polygon", "coordinates": [ [ [ 6.73586, 53.118468 ], [ 7.042162, 52.914667 ], [ 7.018609, 52.87439 ], [ 7.092692, 52.838201 ], [ 7.072045, 52.810874 ], [ 7.054921, 52.643612 ], [ 7.040483, 52.632918 ], [ 6.786786, 52.651798 ], [ 6.709733, 52.627823 ], [ 6.701838, 52.649415 ], [ 6.62943, 52.669658 ], [ 6.546988, 52.662537 ], [ 6.516741, 52.645129 ], [ 6.512765, 52.615816 ], [ 6.428781, 52.625081 ], [ 6.386751, 52.614509 ], [ 6.3217, 52.668233 ], [ 6.170795, 52.678648 ], [ 6.123394, 52.750978 ], [ 6.197398, 52.7946 ], [ 6.119814, 52.854267 ], [ 6.254799, 52.925641 ], [ 6.332446, 52.909108 ], [ 6.369053, 52.921973 ], [ 6.42424, 52.973507 ], [ 6.365637, 53.0322 ], [ 6.364764, 53.06629 ], [ 6.310045, 53.08086 ], [ 6.315237, 53.094051 ], [ 6.346568, 53.092152 ], [ 6.410035, 53.177221 ], [ 6.483767, 53.202408 ], [ 6.526531, 53.194996 ], [ 6.638109, 53.109965 ], [ 6.73586, 53.118468 ] ] ] } },
{ "type": "Feature", "properties": { "loc": "NL21" }, "geometry": { "type": "Polygon", "coordinates": [ [ [ 6.62943, 52.669658 ], [ 6.701838, 52.649415 ], [ 6.725059, 52.588746 ], [ 6.750733, 52.566962 ], [ 6.692281, 52.54862 ], [ 6.697866, 52.486286 ], [ 6.761609, 52.462307 ], [ 6.937032, 52.4368 ], [ 6.992838, 52.463205 ], [ 7.070613, 52.375315 ], [ 7.027644, 52.285998 ], [ 7.065685, 52.241373 ], [ 6.986713, 52.223819 ], [ 6.950728, 52.183101 ], [ 6.885196, 52.157959 ], [ 6.85734, 52.122368 ], [ 6.760465, 52.118569 ], [ 6.669318, 52.129348 ], [ 6.671636, 52.161184 ], [ 6.650888, 52.171696 ], [ 6.489783, 52.179793 ], [ 6.416266, 52.240196 ], [ 6.149598, 52.229071 ], [ 6.148357, 52.245889 ], [ 6.070065, 52.320911 ], [ 6.089772, 52.357036 ], [ 6.081553, 52.368511 ], [ 6.127065, 52.390715 ], [ 6.096361, 52.471274 ], [ 6.038116, 52.506566 ], [ 5.928612, 52.476755 ], [ 5.8859, 52.516857 ], [ 5.864311, 52.518169 ], [ 5.848622, 52.554726 ], [ 5.780718, 52.58329 ], [ 5.780381, 52.60559 ], [ 5.929515, 52.614969 ], [ 6.013685, 52.644151 ], [ 5.93726, 52.671574 ], [ 5.961661, 52.696632 ], [ 5.91653, 52.754261 ], [ 5.795149, 52.806499 ], [ 5.819827, 52.817317 ], [ 5.880141, 52.802521 ], [ 5.967759, 52.839576 ], [ 6.029972, 52.818019 ], [ 6.119814, 52.854267 ], [ 6.197398, 52.7946 ], [ 6.123394, 52.750978 ], [ 6.170795, 52.678648 ], [ 6.3217, 52.668233 ], [ 6.386751, 52.614509 ], [ 6.428781, 52.625081 ], [ 6.512765, 52.615816 ], [ 6.516741, 52.645129 ], [ 6.546988, 52.662537 ], [ 6.62943, 52.669658 ] ] ] } },
{ "type": "Feature", "properties": { "loc": "NL22" }, "geometry": { "type": "Polygon", "coordinates": [ [ [ 6.096361, 52.471274 ], [ 6.127065, 52.390715 ], [ 6.081553, 52.368511 ], [ 6.089772, 52.357036 ], [ 6.070065, 52.320911 ], [ 6.148357, 52.245889 ], [ 6.149598, 52.229071 ], [ 6.326416, 52.227023 ], [ 6.381998, 52.246086 ], [ 6.416266, 52.240196 ], [ 6.489783, 52.179793 ], [ 6.650888, 52.171696 ], [ 6.671636, 52.161184 ], [ 6.669318, 52.129348 ], [ 6.760465, 52.118569 ], [ 6.744485, 52.081267 ], [ 6.697735, 52.068833 ], [ 6.692593, 52.040517 ], [ 6.82676, 51.98966 ], [ 6.828212, 51.967533 ], [ 6.722748, 51.898226 ], [ 6.676138, 51.915138 ], [ 6.471419, 51.85668 ], [ 6.394737, 51.87127 ], [ 6.40778, 51.828092 ], [ 6.308917, 51.851588 ], [ 6.280804, 51.872393 ], [ 6.207381, 51.870649 ], [ 6.167766, 51.900804 ], [ 6.129437, 51.891285 ], [ 6.156159, 51.846326 ], [ 6.065897, 51.860078 ], [ 5.961122, 51.828724 ], [ 5.980768, 51.773607 ], [ 5.939406, 51.743768 ], [ 5.889702, 51.776692 ], [ 5.865159, 51.757408 ], [ 5.755501, 51.75661 ], [ 5.637053, 51.81776 ], [ 5.491272, 51.829434 ], [ 5.447101, 51.810191 ], [ 5.404117, 51.820324 ], [ 5.353843, 51.75774 ], [ 5.300226, 51.73854 ], [ 5.128058, 51.73761 ], [ 5.134166, 51.772217 ], [ 5.067946, 51.781962 ], [ 5.000534, 51.820938 ], [ 5.024211, 51.820574 ], [ 5.029276, 51.834876 ], [ 4.998458, 51.858663 ], [ 5.051759, 51.859982 ], [ 5.113942, 51.891815 ], [ 5.178336, 51.964363 ], [ 5.236508, 51.976552 ], [ 5.323719, 51.956113 ], [ 5.487885, 51.98244 ], [ 5.606012, 51.943248 ], [ 5.621714, 51.972495 ], [ 5.562032, 52.052147 ], [ 5.551422, 52.097125 ], [ 5.503597, 52.074802 ], [ 5.472199, 52.080167 ], [ 5.506278, 52.136269 ], [ 5.400544, 52.220071 ], [ 5.404633, 52.24963 ], [ 5.531136, 52.273354 ], [ 5.58638, 52.359133 ], [ 5.657323, 52.368643 ], [ 5.798394, 52.429081 ], [ 5.864311, 52.518169 ], [ 5.8859, 52.516857 ], [ 5.928612, 52.476755 ], [ 6.038116, 52.506566 ], [ 6.096361, 52.471274 ] ] ] } },
{ "type": "Feature", "properties": { "loc": "NL23" }, "geometry": { "type": "Polygon", "coordinates": [ [ [ 5.726278, 52.843651 ], [ 5.91653, 52.754261 ], [ 5.961661, 52.696632 ], [ 5.93726, 52.671574 ], [ 6.013685, 52.644151 ], [ 5.929515, 52.614969 ], [ 5.780381, 52.60559 ], [ 5.780718, 52.58329 ], [ 5.848622, 52.554726 ], [ 5.864311, 52.518169 ], [ 5.798394, 52.429081 ], [ 5.657323, 52.368643 ], [ 5.58638, 52.359133 ], [ 5.531136, 52.273354 ], [ 5.404633, 52.24963 ], [ 5.269332, 52.318645 ], [ 5.14675, 52.320605 ], [ 5.083748, 52.367513 ], [ 5.079161, 52.388653 ], [ 5.13733, 52.415554 ], [ 5.184658, 52.41644 ], [ 5.10072, 52.508041 ], [ 5.060427, 52.578937 ], [ 5.257186, 52.64447 ], [ 5.262266, 52.67683 ], [ 5.28848, 52.691512 ], [ 5.361148, 52.675728 ], [ 5.377262, 52.764805 ], [ 5.631353, 52.803055 ], [ 5.660803, 52.831011 ], [ 5.726278, 52.843651 ] ] ] } },
{ "type": "Feature", "properties": { "loc": "NL31" }, "geometry": { "type": "Polygon", "coordinates": [ [ [ 5.021538, 52.302498 ], [ 5.050415, 52.238027 ], [ 5.036818, 52.19007 ], [ 5.05772, 52.169883 ], [ 5.188893, 52.180927 ], [ 5.263379, 52.275744 ], [ 5.335462, 52.290218 ], [ 5.404633, 52.24963 ], [ 5.400544, 52.220071 ], [ 5.506278, 52.136269 ], [ 5.472199, 52.080167 ], [ 5.503597, 52.074802 ], [ 5.551422, 52.097125 ], [ 5.562032, 52.052147 ], [ 5.622195, 51.956016 ], [ 5.606012, 51.943248 ], [ 5.487885, 51.98244 ], [ 5.323719, 51.956113 ], [ 5.236508, 51.976552 ], [ 5.178336, 51.964363 ], [ 5.149456, 51.933452 ], [ 5.06149, 51.954566 ], [ 5.044611, 51.976635 ], [ 4.995948, 51.975724 ], [ 4.8779, 51.937835 ], [ 4.829538, 51.993139 ], [ 4.8492, 52.010726 ], [ 4.80561, 52.020093 ], [ 4.854539, 52.064382 ], [ 4.832167, 52.073234 ], [ 4.80415, 52.122641 ], [ 4.823218, 52.140262 ], [ 4.868364, 52.14162 ], [ 4.879743, 52.162648 ], [ 4.808577, 52.202476 ], [ 4.794524, 52.226726 ], [ 4.907466, 52.253252 ], [ 4.930578, 52.278153 ], [ 5.021538, 52.302498 ] ] ] } },
{ "type": "Feature", "properties": { "loc": "NL32" }, "geometry": { "type": "MultiPolygon", "coordinates": [ [ [ [ 5.377262, 52.764805 ], [ 5.361148, 52.675728 ], [ 5.28848, 52.691512 ], [ 5.262266, 52.67683 ], [ 5.257186, 52.64447 ], [ 5.060427, 52.578937 ], [ 5.10072, 52.508041 ], [ 5.184658, 52.41644 ], [ 5.13733, 52.415554 ], [ 5.079161, 52.388653 ], [ 5.083748, 52.367513 ], [ 5.14675, 52.320605 ], [ 5.269332, 52.318645 ], [ 5.335462, 52.290218 ], [ 5.263379, 52.275744 ], [ 5.188893, 52.180927 ], [ 5.05772, 52.169883 ], [ 5.036818, 52.19007 ], [ 5.050415, 52.238027 ], [ 5.021538, 52.302498 ], [ 4.930578, 52.278153 ], [ 4.907466, 52.253252 ], [ 4.734974, 52.207399 ], [ 4.712263, 52.232751 ], [ 4.623797, 52.215714 ], [ 4.556053, 52.222188 ], [ 4.571046, 52.268271 ], [ 4.611684, 52.313587 ], [ 4.493848, 52.32826 ], [ 4.560516, 52.456789 ], [ 4.584387, 52.468569 ], [ 4.576871, 52.482449 ], [ 4.649071, 52.756177 ], [ 4.732815, 52.960612 ], [ 4.799668, 52.959885 ], [ 4.794332, 52.935375 ], [ 4.808696, 52.916284 ], [ 4.881797, 52.891085 ], [ 4.972089, 52.930482 ], [ 5.041971, 52.936113 ], [ 5.164384, 53.00091 ], [ 5.238683, 52.874061 ], [ 5.377262, 52.764805 ] ] ], [ [ [ 4.861246, 53.042488 ], [ 4.784567, 53.00172 ], [ 4.720933, 52.984513 ], [ 4.708824, 53.022462 ], [ 4.751487, 53.098894 ], [ 4.84113, 53.182889 ], [ 4.860853, 53.182885 ], [ 4.908284, 53.134767 ], [ 4.900873, 53.087988 ], [ 4.861246, 53.042488 ] ] ] ] } },
{ "type": "Feature", "properties": { "loc": "NL33" }, "geometry": { "type": "Polygon", "coordinates": [ [ [ 4.493848, 52.32826 ], [ 4.611684, 52.313587 ], [ 4.571046, 52.268271 ], [ 4.556053, 52.222188 ], [ 4.623797, 52.215714 ], [ 4.712263, 52.232751 ], [ 4.734974, 52.207399 ], [ 4.794524, 52.226726 ], [ 4.808577, 52.202476 ], [ 4.879743, 52.162648 ], [ 4.868364, 52.14162 ], [ 4.823218, 52.140262 ], [ 4.80415, 52.122641 ], [ 4.832167, 52.073234 ], [ 4.854539, 52.064382 ], [ 4.80561, 52.020093 ], [ 4.8492, 52.010726 ], [ 4.829538, 51.993139 ], [ 4.8779, 51.937835 ], [ 4.995948, 51.975724 ], [ 5.044611, 51.976635 ], [ 5.06149, 51.954566 ], [ 5.149456, 51.933452 ], [ 5.113942, 51.891815 ], [ 5.051759, 51.859982 ], [ 4.998458, 51.858663 ], [ 5.029276, 51.834876 ], [ 5.024211, 51.820574 ], [ 4.918484, 51.826612 ], [ 4.784593, 51.796094 ], [ 4.676295, 51.724918 ], [ 4.522453, 51.693325 ], [ 4.423817, 51.708016 ], [ 4.350051, 51.659035 ], [ 4.28152, 51.645057 ], [ 4.15137, 51.684374 ], [ 4.050341, 51.695195 ], [ 4.007532, 51.75935 ], [ 3.941962, 51.7733 ], [ 3.880431, 51.748833 ], [ 3.839083, 51.758297 ], [ 3.862049, 51.776277 ], [ 3.870908, 51.817999 ], [ 4.001444, 51.848623 ], [ 4.035512, 51.82813 ], [ 4.064058, 51.845103 ], [ 4.034836, 51.885358 ], [ 4.050523, 51.916507 ], [ 3.984899, 51.924055 ], [ 3.963304, 51.957999 ], [ 3.973592, 51.975805 ], [ 4.002605, 51.987311 ], [ 4.072429, 51.978255 ], [ 4.127789, 52.000542 ], [ 4.374233, 52.18709 ], [ 4.493848, 52.32826 ] ] ] } },
{ "type": "Feature", "properties": { "loc": "NL34" }, "geometry": { "type": "MultiPolygon", "coordinates": [ [ [ [ 4.242536, 51.647121 ], [ 4.192316, 51.602476 ], [ 4.234069, 51.551934 ], [ 4.220722, 51.504699 ], [ 4.271536, 51.42973 ], [ 4.279565, 51.376017 ], [ 4.080802, 51.409594 ], [ 3.970067, 51.455373 ], [ 3.929719, 51.443243 ], [ 3.890144, 51.398391 ], [ 3.812241, 51.390436 ], [ 3.727322, 51.419276 ], [ 3.678845, 51.454762 ], [ 3.566544, 51.446941 ], [ 3.447391, 51.524946 ], [ 3.460724, 51.549486 ], [ 3.571673, 51.590509 ], [ 3.835291, 51.601773 ], [ 3.879063, 51.579161 ], [ 3.889717, 51.54548 ], [ 4.02495, 51.511023 ], [ 4.108193, 51.443668 ], [ 4.146425, 51.435334 ], [ 4.213333, 51.446441 ], [ 4.210379, 51.484975 ], [ 4.177905, 51.509295 ], [ 4.074991, 51.531625 ], [ 3.996395, 51.581744 ], [ 4.058168, 51.608059 ], [ 4.132125, 51.608034 ], [ 4.112385, 51.635747 ], [ 4.15646, 51.651002 ], [ 4.146037, 51.668218 ], [ 3.976411, 51.61808 ], [ 3.901612, 51.635655 ], [ 3.820878, 51.688679 ], [ 3.701125, 51.675684 ], [ 3.68959, 51.710903 ], [ 3.711118, 51.728601 ], [ 3.839083, 51.758297 ], [ 3.880431, 51.748833 ], [ 3.941962, 51.7733 ], [ 4.007532, 51.75935 ], [ 4.050341, 51.695195 ], [ 4.15137, 51.684374 ], [ 4.242536, 51.647121 ] ] ], [ [ [ 4.234818, 51.348254 ], [ 4.159673, 51.290062 ], [ 4.061566, 51.245616 ], [ 3.893161, 51.202758 ], [ 3.886016, 51.22019 ], [ 3.793982, 51.215133 ], [ 3.783784, 51.259938 ], [ 3.593884, 51.303257 ], [ 3.519479, 51.28564 ], [ 3.519237, 51.246263 ], [ 3.437184, 51.243748 ], [ 3.380661, 51.274299 ], [ 3.362843, 51.314634 ], [ 3.381907, 51.336074 ], [ 3.365788, 51.369835 ], [ 3.523211, 51.406846 ], [ 3.813602, 51.335998 ], [ 3.954164, 51.369217 ], [ 3.987094, 51.4044 ], [ 4.123592, 51.347104 ], [ 4.124291, 51.360427 ], [ 4.160598, 51.348576 ], [ 4.158713, 51.366764 ], [ 4.194693, 51.373678 ], [ 4.234818, 51.348254 ] ] ], [ [ [ 3.702971, 51.627242 ], [ 3.679493, 51.622971 ], [ 3.714595, 51.636685 ], [ 3.702971, 51.627242 ] ] ] ] } },
{ "type": "Feature", "properties": { "loc": "NL41" }, "geometry": { "type": "Polygon", "coordinates": [ [ [ 5.59788, 51.828083 ], [ 5.755501, 51.75661 ], [ 5.865159, 51.757408 ], [ 5.892461, 51.723679 ], [ 5.954635, 51.707136 ], [ 5.966732, 51.652746 ], [ 6.020483, 51.619856 ], [ 6.04006, 51.563247 ], [ 5.913213, 51.552757 ], [ 5.838077, 51.566467 ], [ 5.871917, 51.451963 ], [ 5.92795, 51.38535 ], [ 5.876206, 51.354721 ], [ 5.673023, 51.314181 ], [ 5.628199, 51.273682 ], [ 5.61605, 51.230989 ], [ 5.566284, 51.220836 ], [ 5.553517, 51.266147 ], [ 5.494726, 51.298495 ], [ 5.414989, 51.263611 ], [ 5.351861, 51.27394 ], [ 5.237717, 51.2616 ], [ 5.226578, 51.269201 ], [ 5.241098, 51.305663 ], [ 5.200245, 51.322619 ], [ 5.134465, 51.31549 ], [ 5.131386, 51.347105 ], [ 5.071045, 51.393421 ], [ 5.10218, 51.429005 ], [ 5.081105, 51.466647 ], [ 5.03382, 51.484649 ], [ 5.000885, 51.44337 ], [ 4.92708, 51.396821 ], [ 4.884981, 51.414596 ], [ 4.773403, 51.416937 ], [ 4.772836, 51.428643 ], [ 4.826744, 51.425198 ], [ 4.83904, 51.478104 ], [ 4.759926, 51.502464 ], [ 4.667286, 51.444439 ], [ 4.669544, 51.426384 ], [ 4.53833, 51.424937 ], [ 4.542871, 51.476821 ], [ 4.478998, 51.477104 ], [ 4.392661, 51.450081 ], [ 4.387892, 51.415014 ], [ 4.427162, 51.365743 ], [ 4.375975, 51.355481 ], [ 4.32898, 51.376562 ], [ 4.279565, 51.376017 ], [ 4.271536, 51.42973 ], [ 4.220722, 51.504699 ], [ 4.234069, 51.551934 ], [ 4.192316, 51.602476 ], [ 4.242536, 51.647121 ], [ 4.350051, 51.659035 ], [ 4.423817, 51.708016 ], [ 4.522453, 51.693325 ], [ 4.676295, 51.724918 ], [ 4.784593, 51.796094 ], [ 4.918484, 51.826612 ], [ 5.000534, 51.820938 ], [ 5.067946, 51.781962 ], [ 5.134166, 51.772217 ], [ 5.128058, 51.73761 ], [ 5.300226, 51.73854 ], [ 5.353843, 51.75774 ], [ 5.404117, 51.820324 ], [ 5.447101, 51.810191 ], [ 5.491272, 51.829434 ], [ 5.534782, 51.817324 ], [ 5.59788, 51.828083 ] ], [ [ 4.92879, 51.430285 ], [ 4.935002, 51.441787 ], [ 4.916859, 51.435386 ], [ 4.92879, 51.430285 ] ] ] } },
{ "type": "Feature", "properties": { "loc": "NL42" }, "geometry": { "type": "Polygon", "coordinates": [ [ [ 5.889702, 51.776692 ], [ 6.032316, 51.722144 ], [ 6.038061, 51.67356 ], [ 6.113807, 51.654741 ], [ 6.094877, 51.606416 ], [ 6.210784, 51.512535 ], [ 6.222367, 51.46706 ], [ 6.207672, 51.404707 ], [ 6.222021, 51.398098 ], [ 6.224405, 51.364979 ], [ 6.072657, 51.242587 ], [ 6.082563, 51.173954 ], [ 6.160168, 51.191814 ], [ 6.174812, 51.184513 ], [ 6.149059, 51.17371 ], [ 6.169738, 51.159679 ], [ 6.001255, 51.085515 ], [ 5.957202, 51.03762 ], [ 5.912751, 51.063418 ], [ 5.87142, 51.049468 ], [ 5.903205, 51.000735 ], [ 5.898454, 50.976921 ], [ 6.020508, 50.982268 ], [ 6.009803, 50.957504 ], [ 6.019974, 50.93632 ], [ 6.086948, 50.913135 ], [ 6.075154, 50.855363 ], [ 6.02892, 50.847599 ], [ 6.017541, 50.813337 ], [ 5.987287, 50.802089 ], [ 6.019436, 50.775623 ], [ 6.020999, 50.754295 ], [ 5.901262, 50.752076 ], [ 5.886291, 50.769484 ], [ 5.808213, 50.756372 ], [ 5.770756, 50.782695 ], [ 5.737277, 50.757787 ], [ 5.682001, 50.757446 ], [ 5.69828, 50.781659 ], [ 5.687622, 50.811924 ], [ 5.657657, 50.820858 ], [ 5.641507, 50.851945 ], [ 5.648376, 50.871182 ], [ 5.722378, 50.912748 ], [ 5.753773, 50.951061 ], [ 5.724508, 50.964109 ], [ 5.760226, 50.993031 ], [ 5.77275, 51.056973 ], [ 5.798274, 51.059853 ], [ 5.80048, 51.089617 ], [ 5.830268, 51.099678 ], [ 5.81235, 51.11732 ], [ 5.850795, 51.142683 ], [ 5.829353, 51.162505 ], [ 5.781677, 51.154983 ], [ 5.753334, 51.186567 ], [ 5.662353, 51.185415 ], [ 5.566284, 51.220836 ], [ 5.61605, 51.230989 ], [ 5.628199, 51.273682 ], [ 5.673023, 51.314181 ], [ 5.876206, 51.354721 ], [ 5.92795, 51.38535 ], [ 5.871917, 51.451963 ], [ 5.838077, 51.566467 ], [ 5.913213, 51.552757 ], [ 6.04006, 51.563247 ], [ 6.020483, 51.619856 ], [ 5.966732, 51.652746 ], [ 5.954635, 51.707136 ], [ 5.892461, 51.723679 ], [ 5.865159, 51.757408 ], [ 5.889702, 51.776692 ] ] ] } }
]
}
