{
"type": "FeatureCollection",
"name": "border_IE",
"crs": { "type": "name", "properties": { "name": "urn:ogc:def:crs:OGC:1.3:CRS84" } },
"features": [
{ "type": "Feature", "properties": { }, "geometry": { "type": "Polygon", "coordinates": [ [ [ -6.197884894220991, 53.867565009163364 ], [ -6.032985398777611, 53.153164170944351 ], [ -6.788856573910849, 52.260117906292336 ], [ -8.561616583683559, 51.669301255899356 ], [ -9.977085740590269, 51.820454820353078 ], [ -9.166282517930782, 52.864628811242682 ], [ -9.688524542672454, 53.881362616585299 ], [ -7.572167934591064, 55.131622219454869 ], [ -7.366030646178785, 54.595840969452723 ], [ -7.572167934591064, 54.059956366586 ], [ -6.953730231138067, 54.073702297575636 ], [ -6.197884894220991, 53.867565009163364 ] ] ] } }
]
}
