{
"type": "FeatureCollection",
"name": "border_IT",
"crs": { "type": "name", "properties": { "name": "urn:ogc:def:crs:OGC:1.3:CRS84" } },
"features": [
{ "type": "Feature", "properties": { }, "geometry": { "type": "Polygon", "coordinates": [ [ [ 10.442701450246631, 46.893546250997431 ], [ 11.048555942436536, 46.751358547546339 ], [ 11.164827915093269, 46.941579494812729 ], [ 12.153088006243054, 47.115393174826451 ], [ 12.376485223040817, 46.76755910906985 ], [ 13.806475457421527, 46.509306138691215 ], [ 13.698109978905478, 46.016778062517353 ], [ 13.937630242578308, 45.591015936864622 ], [ 13.141606479554296, 45.736691799495418 ], [ 12.328581170306251, 45.381778062514826 ], [ 12.383874952858548, 44.885374253919096 ], [ 12.261453484759102, 44.600482082693986 ], [ 12.589237094786455, 44.091365871754462 ], [ 13.526905958722494, 43.587727362637864 ], [ 14.029820997787029, 42.761007798832466 ], [ 15.142569614327925, 41.955139675456849 ], [ 15.926191033601896, 41.961315009115715 ], [ 16.169897088290384, 41.740294908203389 ], [ 15.889345737377797, 41.541082261718216 ], [ 17.51916873543118, 40.877143459632222 ], [ 18.376687452882521, 40.35562490494263 ], [ 18.480247023195432, 40.168866278639811 ], [ 18.293385044028042, 39.810774441073264 ], [ 17.738380161213314, 40.277671006830346 ], [ 16.869595981522338, 40.44223460546381 ], [ 16.448743116937322, 39.795400702466438 ], [ 17.17148969897147, 39.424699815420681 ], [ 17.052840610429314, 38.902871202137348 ], [ 16.635088331781816, 38.843572496082416 ], [ 16.100960727613, 37.985898749334197 ], [ 15.684086948314473, 37.908849188787016 ], [ 15.687962680736348, 38.214592800441878 ], [ 15.89198123542468, 38.75094249119924 ], [ 16.109332309644287, 38.964547024077703 ], [ 15.413612501698793, 40.048356838535156 ], [ 14.99849572109818, 40.17294871679087 ], [ 14.703268263414714, 40.604550279292596 ], [ 14.060671827865264, 40.786347968095399 ], [ 13.627985060285397, 41.1882872584616 ], [ 12.888081902730365, 41.253089504555604 ], [ 11.191906365614216, 42.355425319989699 ], [ 10.511947869517741, 42.93146251074721 ], [ 10.200028924203991, 43.920006822274601 ], [ 9.702488234097842, 44.03627879493132 ], [ 8.888946160526871, 44.366336167979512 ], [ 8.428560825238577, 44.231228135752417 ], [ 7.850766635783144, 43.767147935555244 ], [ 7.435184767291872, 43.693844916349221 ], [ 7.549596388386107, 44.127901109384808 ], [ 7.007562290076635, 44.254766750661361 ], [ 6.749955275101655, 45.028517971367577 ], [ 7.096652459347837, 45.333098863295888 ], [ 6.802355177445605, 45.708579820328637 ], [ 6.843592970414505, 45.991146552100609 ], [ 7.273850945676656, 45.776947740250776 ], [ 7.755992058959833, 45.824490057959309 ], [ 8.316629672894379, 46.163642483090861 ], [ 8.489952426801324, 46.005150865251686 ], [ 8.966305779667806, 46.036931871111193 ], [ 9.182881707403055, 46.440214748716983 ], [ 9.922836541390382, 46.314899400409189 ], [ 10.363378126678612, 46.483571275409858 ], [ 10.442701450246631, 46.893546250997431 ] ] ] } },
{ "type": "Feature", "properties": { }, "geometry": { "type": "Polygon", "coordinates": [ [ [ 13.741156447004613, 38.034965521795328 ], [ 15.520376010813806, 38.231155096991429 ], [ 15.160242954171736, 37.444045518537763 ], [ 15.309897902089006, 37.134219468731828 ], [ 15.099988234119422, 36.619987290995397 ], [ 14.335228712631988, 36.996630967754726 ], [ 13.826732618879959, 37.104531358380157 ], [ 12.431003859108756, 37.612949937483748 ], [ 12.570943637755136, 38.126381130519661 ], [ 13.741156447004613, 38.034965521795328 ] ] ] } },
{ "type": "Feature", "properties": { }, "geometry": { "type": "Polygon", "coordinates": [ [ [ 8.709990675500109, 40.899984442705225 ], [ 9.210011834356266, 41.209991360024176 ], [ 9.80997521326492, 40.500008856766129 ], [ 9.669518670295616, 39.17737641047178 ], [ 9.214817742559433, 39.240473334300148 ], [ 8.806935662479674, 38.906617743478506 ], [ 8.428302443077115, 39.171847032216547 ], [ 8.388253208050912, 40.378310858718763 ], [ 8.159998406617689, 40.950007229163759 ], [ 8.709990675500109, 40.899984442705225 ] ] ] } }
]
}
