{
"type": "FeatureCollection",
"name": "border_AT",
"crs": { "type": "name", "properties": { "name": "urn:ogc:def:crs:OGC:1.3:CRS84" } },
"features": [
{ "type": "Feature", "properties": { }, "geometry": { "type": "Polygon", "coordinates": [ [ [ 16.979666782304037, 48.123497015976305 ], [ 16.903754103267261, 47.714865627628328 ], [ 16.340584344150415, 47.71290192320123 ], [ 16.534267612380376, 47.496170966169117 ], [ 16.202298211337364, 46.852385972676963 ], [ 16.011663852612656, 46.683610744811702 ], [ 15.137091912504985, 46.65870270444703 ], [ 14.632471551174829, 46.431817328469549 ], [ 12.376485223040817, 46.76755910906985 ], [ 12.153088006243054, 47.115393174826451 ], [ 11.164827915093269, 46.941579494812729 ], [ 11.048555942436536, 46.751358547546339 ], [ 9.932448357796659, 46.920728054382963 ], [ 9.479969516649021, 47.102809963563374 ], [ 9.632931756232978, 47.347601223329988 ], [ 9.59422610844635, 47.52505809182027 ], [ 9.89606814946319, 47.580196845075704 ], [ 10.402083774465211, 47.302487697939164 ], [ 10.544504021861599, 47.566399237653798 ], [ 11.426414015354737, 47.523766181012974 ], [ 12.141357456112788, 47.703083401065776 ], [ 12.620759718484493, 47.672387600284409 ], [ 12.932626987365948, 47.467645575543997 ], [ 13.025851271220491, 47.637583523135831 ], [ 12.884102817443875, 48.28914581968786 ], [ 13.243357374737, 48.416114813829054 ], [ 13.595945672264437, 48.877171942737149 ], [ 14.338897739324722, 48.555305284207208 ], [ 14.901447381254057, 48.964401760445824 ], [ 15.253415561593982, 49.039074205107582 ], [ 16.029647251050221, 48.73389903420793 ], [ 16.499282667718774, 48.785808010445109 ], [ 16.960288120194576, 48.5969823268506 ], [ 16.879982944413001, 48.47001333270947 ], [ 16.979666782304037, 48.123497015976305 ] ] ] } }
]
}
