{
"type": "FeatureCollection",
"name": "border_LV",
"crs": { "type": "name", "properties": { "name": "urn:ogc:def:crs:OGC:1.3:CRS84" } },
"features": [
{ "type": "Feature", "properties": { }, "geometry": { "type": "Polygon", "coordinates": [ [ [ 27.288184848751513, 57.474528306703832 ], [ 27.770015903440932, 57.244258124411232 ], [ 27.855282016722526, 56.759326483784292 ], [ 28.17670942557794, 56.169129950578792 ], [ 26.494331495883756, 55.615106919977634 ], [ 25.533046502390334, 56.100296942766036 ], [ 25.000934279080894, 56.164530748104838 ], [ 24.86068444184076, 56.37252838807963 ], [ 23.878263787539964, 56.273671373105273 ], [ 22.201156853939494, 56.33780182557949 ], [ 21.055800408622417, 56.031076361711065 ], [ 21.090423618257972, 56.783872789122938 ], [ 21.581866489353672, 57.411870632549935 ], [ 22.524341261492879, 57.753374335350763 ], [ 23.318452996522097, 57.006236477274868 ], [ 24.120729607853431, 57.025692654032767 ], [ 24.312862583114622, 57.793423570376973 ], [ 25.164593540149269, 57.970156968815189 ], [ 26.463532342237787, 57.47638865826633 ], [ 27.288184848751513, 57.474528306703832 ] ] ] } }
]
}
