{
"type": "FeatureCollection",
"name": "regions_LV",
"crs": { "type": "name", "properties": { "name": "urn:ogc:def:crs:OGC:1.3:CRS84" } },
"features": [
{ "type": "Feature", "properties": { "loc": "LV003" }, "geometry": { "type": "Polygon", "coordinates": [ [ [ 21.978209, 56.385143 ], [ 22.018872, 56.422102 ], [ 22.143014, 56.42793 ], [ 22.205569, 56.422891 ], [ 22.247151, 56.400978 ], [ 22.426474, 56.408915 ], [ 22.579354, 56.388666 ], [ 22.684469, 56.352703 ], [ 22.734589, 56.372042 ], [ 22.915459, 56.378831 ], [ 22.920517, 56.399143 ], [ 22.878218, 56.39355 ], [ 22.731528, 56.426665 ], [ 22.751755, 56.473466 ], [ 22.712988, 56.491567 ], [ 22.730656, 56.506178 ], [ 22.739226, 56.563596 ], [ 22.800594, 56.570865 ], [ 22.779968, 56.607222 ], [ 22.835515, 56.60735 ], [ 22.861755, 56.643682 ], [ 22.834435, 56.677396 ], [ 22.802926, 56.681008 ], [ 22.831238, 56.722755 ], [ 22.825047, 56.764206 ], [ 22.786945, 56.803075 ], [ 22.705632, 56.800014 ], [ 22.593937, 56.839285 ], [ 22.524345, 56.843722 ], [ 22.501671, 56.861043 ], [ 22.524047, 56.914462 ], [ 22.449013, 56.937451 ], [ 22.508337, 57.014979 ], [ 22.55473, 57.006562 ], [ 22.590657, 57.024285 ], [ 22.644438, 57.023421 ], [ 22.64767, 57.095859 ], [ 22.762817, 57.11303 ], [ 22.832046, 57.14202 ], [ 22.927364, 57.135062 ], [ 22.952169, 57.174067 ], [ 23.043647, 57.204952 ], [ 23.114688, 57.253863 ], [ 23.108006, 57.300752 ], [ 23.146891, 57.316258 ], [ 23.125207, 57.363512 ], [ 22.941582, 57.416934 ], [ 22.811015, 57.508907 ], [ 22.684242, 57.556213 ], [ 22.609975, 57.609064 ], [ 22.574593, 57.681895 ], [ 22.599479, 57.757482 ], [ 21.991909, 57.603866 ], [ 21.846696, 57.597813 ], [ 21.69073, 57.557848 ], [ 21.57847, 57.420063 ], [ 21.529137, 57.404425 ], [ 21.419882, 57.290383 ], [ 21.407325, 57.174179 ], [ 21.416271, 57.078034 ], [ 21.373904, 57.003104 ], [ 21.245809, 56.919611 ], [ 21.119689, 56.868778 ], [ 21.054579, 56.825574 ], [ 21.05681, 56.697498 ], [ 20.987118, 56.517956 ], [ 20.998725, 56.459631 ], [ 20.971687, 56.349017 ], [ 20.985997, 56.214543 ], [ 21.064238, 56.069137 ], [ 21.199569, 56.077831 ], [ 21.235121, 56.122586 ], [ 21.231268, 56.15985 ], [ 21.330661, 56.21795 ], [ 21.449532, 56.248416 ], [ 21.498474, 56.291972 ], [ 21.596413, 56.322943 ], [ 21.718218, 56.313955 ], [ 21.835755, 56.369652 ], [ 21.880361, 56.363111 ], [ 21.978209, 56.385143 ] ] ] } },
{ "type": "Feature", "properties": { "loc": "LV005" }, "geometry": { "type": "Polygon", "coordinates": [ [ [ 26.046155, 55.944106 ], [ 26.116863, 55.88301 ], [ 26.204442, 55.857462 ], [ 26.270345, 55.767773 ], [ 26.352509, 55.73864 ], [ 26.381588, 55.707752 ], [ 26.444494, 55.708081 ], [ 26.530019, 55.67782 ], [ 26.630365, 55.680667 ], [ 26.668084, 55.705867 ], [ 26.780327, 55.681535 ], [ 26.867182, 55.715125 ], [ 26.917973, 55.781559 ], [ 26.977958, 55.813802 ], [ 27.088632, 55.829216 ], [ 27.127757, 55.849049 ], [ 27.169945, 55.84438 ], [ 27.278646, 55.788436 ], [ 27.36452, 55.811662 ], [ 27.607554, 55.788676 ], [ 27.636013, 55.843999 ], [ 27.629852, 55.892314 ], [ 27.659937, 55.931633 ], [ 27.79662, 55.983451 ], [ 27.825055, 56.020124 ], [ 27.819521, 56.035976 ], [ 27.904039, 56.052797 ], [ 27.976306, 56.119063 ], [ 28.037997, 56.120991 ], [ 28.172911, 56.180373 ], [ 28.194023, 56.234644 ], [ 28.236132, 56.274714 ], [ 28.169908, 56.376484 ], [ 28.189875, 56.442377 ], [ 28.10015, 56.519203 ], [ 28.13633, 56.554768 ], [ 28.135287, 56.573012 ], [ 28.046315, 56.59212 ], [ 28.005247, 56.676037 ], [ 27.908562, 56.747796 ], [ 27.90957, 56.764556 ], [ 27.968969, 56.812413 ], [ 27.966066, 56.828205 ], [ 27.905791, 56.826431 ], [ 27.854422, 56.87778 ], [ 27.661117, 56.842744 ], [ 27.680042, 56.904307 ], [ 27.735762, 56.925321 ], [ 27.762096, 56.99132 ], [ 27.721683, 57.010408 ], [ 27.757942, 57.083002 ], [ 27.733463, 57.09511 ], [ 27.741613, 57.116483 ], [ 27.817987, 57.148392 ], [ 27.831422, 57.204907 ], [ 27.865481, 57.253731 ], [ 27.855465, 57.303412 ], [ 27.690777, 57.370561 ], [ 27.687037, 57.328381 ], [ 27.598323, 57.30671 ], [ 27.589052, 57.282036 ], [ 27.55319, 57.263186 ], [ 27.51104, 57.259979 ], [ 27.468249, 57.282098 ], [ 27.456727, 57.265633 ], [ 27.40853, 57.254632 ], [ 27.3535, 57.284674 ], [ 27.324678, 57.277793 ], [ 27.285904, 57.250437 ], [ 27.161582, 57.224779 ], [ 27.062559, 57.159851 ], [ 26.948133, 57.052371 ], [ 26.862824, 57.019452 ], [ 26.865854, 56.978289 ], [ 26.916061, 56.974228 ], [ 26.907193, 56.939385 ], [ 26.961221, 56.919956 ], [ 26.987358, 56.866431 ], [ 26.783482, 56.716306 ], [ 26.773999, 56.630224 ], [ 26.78812, 56.609149 ], [ 26.734117, 56.590527 ], [ 26.738735, 56.539967 ], [ 26.624916, 56.540224 ], [ 26.600355, 56.504977 ], [ 26.604712, 56.487656 ], [ 26.479163, 56.494805 ], [ 26.377845, 56.455478 ], [ 26.310453, 56.512981 ], [ 26.270913, 56.519007 ], [ 26.224552, 56.4972 ], [ 26.15611, 56.431417 ], [ 26.102978, 56.410218 ], [ 26.154873, 56.370023 ], [ 26.197296, 56.271357 ], [ 26.184612, 56.234025 ], [ 26.312116, 56.169508 ], [ 26.333489, 56.141685 ], [ 26.329295, 56.101902 ], [ 26.311792, 56.151965 ], [ 26.260872, 56.15158 ], [ 26.221136, 56.170603 ], [ 26.14611, 56.134084 ], [ 26.14036, 56.103015 ], [ 26.105302, 56.106258 ], [ 26.056674, 56.070343 ], [ 26.002883, 56.087215 ], [ 25.939204, 56.063878 ], [ 25.851982, 56.111302 ], [ 25.863854, 56.082414 ], [ 25.821387, 56.052179 ], [ 25.860286, 56.002459 ], [ 25.971785, 55.981349 ], [ 26.046155, 55.944106 ] ] ] } },
{ "type": "Feature", "properties": { "loc": "LV006" }, "geometry": { "type": "Polygon", "coordinates": [ [ [ 23.934533, 57.00637 ], [ 23.991408, 56.97978 ], [ 23.968881, 56.942082 ], [ 24.055621, 56.912336 ], [ 24.080264, 56.886094 ], [ 24.161666, 56.901518 ], [ 24.246717, 56.876452 ], [ 24.241825, 56.933843 ], [ 24.302951, 56.979796 ], [ 24.119203, 57.08629 ], [ 24.021841, 57.064823 ], [ 23.934533, 57.00637 ] ] ] } },
{ "type": "Feature", "properties": { "loc": "LV007" }, "geometry": { "type": "Polygon", "coordinates": [ [ [ 23.146891, 57.316258 ], [ 23.108006, 57.300752 ], [ 23.114688, 57.253863 ], [ 23.043647, 57.204952 ], [ 22.952169, 57.174067 ], [ 22.927364, 57.135062 ], [ 22.832046, 57.14202 ], [ 22.762817, 57.11303 ], [ 22.64767, 57.095859 ], [ 22.644438, 57.023421 ], [ 22.590657, 57.024285 ], [ 22.55473, 57.006562 ], [ 22.508337, 57.014979 ], [ 22.469689, 56.976909 ], [ 22.454853, 56.925479 ], [ 22.524047, 56.914462 ], [ 22.501671, 56.861043 ], [ 22.524345, 56.843722 ], [ 22.593937, 56.839285 ], [ 22.705632, 56.800014 ], [ 22.786945, 56.803075 ], [ 22.825047, 56.764206 ], [ 22.820532, 56.693411 ], [ 22.981553, 56.715894 ], [ 23.082852, 56.691313 ], [ 23.17526, 56.695571 ], [ 23.211183, 56.718872 ], [ 23.28219, 56.713406 ], [ 23.330966, 56.744876 ], [ 23.323043, 56.770481 ], [ 23.338273, 56.78797 ], [ 23.473704, 56.810868 ], [ 23.48279, 56.882537 ], [ 23.603297, 56.890185 ], [ 23.711381, 56.850335 ], [ 23.763651, 56.799388 ], [ 23.765551, 56.746046 ], [ 23.796592, 56.730743 ], [ 23.911733, 56.745345 ], [ 24.135057, 56.67203 ], [ 24.246252, 56.698582 ], [ 24.358506, 56.664819 ], [ 24.500203, 56.713138 ], [ 24.616075, 56.71127 ], [ 24.629017, 56.682566 ], [ 24.588071, 56.659914 ], [ 24.606576, 56.620342 ], [ 24.681664, 56.587008 ], [ 24.66233, 56.563843 ], [ 24.674162, 56.547902 ], [ 24.735988, 56.545417 ], [ 25.037295, 56.596677 ], [ 25.01796, 56.659608 ], [ 25.052044, 56.727133 ], [ 25.267002, 56.699455 ], [ 25.284214, 56.714538 ], [ 25.27061, 56.735165 ], [ 25.285332, 56.74983 ], [ 25.432595, 56.773892 ], [ 25.506033, 56.815156 ], [ 25.491505, 56.858023 ], [ 25.527244, 56.876203 ], [ 25.518596, 56.899266 ], [ 25.53202, 56.928511 ], [ 25.49541, 56.98695 ], [ 25.454027, 56.986855 ], [ 25.451237, 56.965996 ], [ 25.404461, 56.937897 ], [ 25.329858, 56.979356 ], [ 25.276419, 56.962007 ], [ 25.244281, 56.931323 ], [ 25.160045, 56.945683 ], [ 25.116659, 57.059153 ], [ 25.135938, 57.089675 ], [ 25.082989, 57.124597 ], [ 24.989087, 57.133054 ], [ 24.968103, 57.192258 ], [ 24.908674, 57.221795 ], [ 24.941847, 57.277164 ], [ 24.845835, 57.393599 ], [ 24.802083, 57.420279 ], [ 24.87294, 57.418013 ], [ 25.064404, 57.497797 ], [ 25.009684, 57.563048 ], [ 24.926875, 57.561108 ], [ 24.898223, 57.589152 ], [ 24.908145, 57.610016 ], [ 24.987694, 57.637501 ], [ 25.06008, 57.631158 ], [ 25.088664, 57.681105 ], [ 25.075533, 57.712597 ], [ 25.090821, 57.741407 ], [ 25.064687, 57.775555 ], [ 24.904293, 57.831603 ], [ 24.882602, 57.889118 ], [ 24.85064, 57.916104 ], [ 24.834083, 57.972779 ], [ 24.799392, 57.989117 ], [ 24.748404, 57.98204 ], [ 24.69315, 57.94943 ], [ 24.653888, 57.958866 ], [ 24.622919, 57.94349 ], [ 24.583652, 57.95918 ], [ 24.46127, 57.922304 ], [ 24.456152, 57.884479 ], [ 24.414988, 57.867089 ], [ 24.352818, 57.876556 ], [ 24.335032, 57.81988 ], [ 24.34444, 57.703921 ], [ 24.384387, 57.61977 ], [ 24.364941, 57.54415 ], [ 24.411504, 57.28228 ], [ 24.399683, 57.24759 ], [ 24.337064, 57.194659 ], [ 24.119203, 57.08629 ], [ 24.302951, 56.979796 ], [ 24.241825, 56.933843 ], [ 24.246717, 56.876452 ], [ 24.161666, 56.901518 ], [ 24.080264, 56.886094 ], [ 24.055621, 56.912336 ], [ 23.968881, 56.942082 ], [ 23.991408, 56.97978 ], [ 23.934533, 57.00637 ], [ 23.752856, 56.96967 ], [ 23.625389, 56.964455 ], [ 23.530833, 56.992285 ], [ 23.487035, 57.032942 ], [ 23.343601, 57.051848 ], [ 23.237527, 57.112992 ], [ 23.234417, 57.164664 ], [ 23.180041, 57.233325 ], [ 23.146891, 57.316258 ] ] ] } },
{ "type": "Feature", "properties": { "loc": "LV008" }, "geometry": { "type": "Polygon", "coordinates": [ [ [ 27.690777, 57.370561 ], [ 27.666566, 57.394974 ], [ 27.522169, 57.427425 ], [ 27.563203, 57.509743 ], [ 27.549934, 57.537203 ], [ 27.377704, 57.53298 ], [ 27.351579, 57.518237 ], [ 27.259632, 57.548962 ], [ 27.106321, 57.5656 ], [ 27.046124, 57.5831 ], [ 27.028346, 57.603736 ], [ 26.948725, 57.604415 ], [ 26.916729, 57.632867 ], [ 26.868732, 57.616177 ], [ 26.854805, 57.590412 ], [ 26.774215, 57.561904 ], [ 26.738928, 57.584484 ], [ 26.678398, 57.565024 ], [ 26.62302, 57.535195 ], [ 26.612963, 57.511438 ], [ 26.582021, 57.536454 ], [ 26.557449, 57.515903 ], [ 26.52392, 57.517105 ], [ 26.466526, 57.573974 ], [ 26.275692, 57.597903 ], [ 26.235934, 57.656904 ], [ 26.183434, 57.687647 ], [ 26.198415, 57.718651 ], [ 26.126464, 57.753034 ], [ 26.029243, 57.772357 ], [ 26.051066, 57.848361 ], [ 25.829606, 57.863456 ], [ 25.78057, 57.908102 ], [ 25.740374, 57.922369 ], [ 25.683461, 57.905293 ], [ 25.586352, 57.943883 ], [ 25.581422, 57.969223 ], [ 25.485555, 57.976867 ], [ 25.448945, 57.994796 ], [ 25.461092, 58.005807 ], [ 25.452045, 58.014056 ], [ 25.367152, 58.031585 ], [ 25.295084, 58.08005 ], [ 25.267517, 58.062663 ], [ 25.30058, 58.036218 ], [ 25.289575, 57.991775 ], [ 25.239235, 58.009449 ], [ 25.203342, 58.082657 ], [ 25.113612, 58.077507 ], [ 25.018565, 58.017359 ], [ 24.834083, 57.972779 ], [ 24.85064, 57.916104 ], [ 24.882602, 57.889118 ], [ 24.904293, 57.831603 ], [ 25.064687, 57.775555 ], [ 25.090821, 57.741407 ], [ 25.075533, 57.712597 ], [ 25.088664, 57.681105 ], [ 25.06008, 57.631158 ], [ 24.987694, 57.637501 ], [ 24.908145, 57.610016 ], [ 24.898223, 57.589152 ], [ 24.926875, 57.561108 ], [ 25.009684, 57.563048 ], [ 25.064404, 57.497797 ], [ 24.87294, 57.418013 ], [ 24.802083, 57.420279 ], [ 24.845835, 57.393599 ], [ 24.941847, 57.277164 ], [ 24.908674, 57.221795 ], [ 24.968103, 57.192258 ], [ 24.989087, 57.133054 ], [ 25.082989, 57.124597 ], [ 25.135938, 57.089675 ], [ 25.116659, 57.059153 ], [ 25.160045, 56.945683 ], [ 25.244281, 56.931323 ], [ 25.276419, 56.962007 ], [ 25.329858, 56.979356 ], [ 25.404461, 56.937897 ], [ 25.451237, 56.965996 ], [ 25.454027, 56.986855 ], [ 25.49541, 56.98695 ], [ 25.53202, 56.928511 ], [ 25.518596, 56.899266 ], [ 25.527244, 56.876203 ], [ 25.491505, 56.858023 ], [ 25.506033, 56.815156 ], [ 25.612418, 56.806331 ], [ 25.701301, 56.769819 ], [ 25.736021, 56.778102 ], [ 25.744273, 56.821269 ], [ 25.763888, 56.826254 ], [ 25.841184, 56.785175 ], [ 25.847838, 56.765441 ], [ 25.821315, 56.744414 ], [ 25.83584, 56.710974 ], [ 25.941577, 56.683483 ], [ 25.913059, 56.662349 ], [ 25.936533, 56.643133 ], [ 25.979364, 56.663368 ], [ 26.029512, 56.620752 ], [ 26.134895, 56.654849 ], [ 26.199555, 56.643259 ], [ 26.218303, 56.607345 ], [ 26.272427, 56.616051 ], [ 26.289083, 56.587835 ], [ 26.34276, 56.603754 ], [ 26.386513, 56.640658 ], [ 26.487589, 56.600743 ], [ 26.587101, 56.594353 ], [ 26.583441, 56.552337 ], [ 26.624916, 56.540224 ], [ 26.738735, 56.539967 ], [ 26.734117, 56.590527 ], [ 26.78812, 56.609149 ], [ 26.773999, 56.630224 ], [ 26.783482, 56.716306 ], [ 26.987358, 56.866431 ], [ 26.961221, 56.919956 ], [ 26.907193, 56.939385 ], [ 26.916061, 56.974228 ], [ 26.865854, 56.978289 ], [ 26.862824, 57.019452 ], [ 26.948133, 57.052371 ], [ 27.062559, 57.159851 ], [ 27.161582, 57.224779 ], [ 27.285904, 57.250437 ], [ 27.3535, 57.284674 ], [ 27.40853, 57.254632 ], [ 27.456727, 57.265633 ], [ 27.468249, 57.282098 ], [ 27.51104, 57.259979 ], [ 27.55319, 57.263186 ], [ 27.589052, 57.282036 ], [ 27.598323, 57.30671 ], [ 27.687037, 57.328381 ], [ 27.690777, 57.370561 ] ] ] } },
{ "type": "Feature", "properties": { "loc": "LV009" }, "geometry": { "type": "Polygon", "coordinates": [ [ [ 24.1518, 56.253348 ], [ 24.298693, 56.298909 ], [ 24.445564, 56.260519 ], [ 24.564366, 56.287204 ], [ 24.635605, 56.373721 ], [ 24.686296, 56.379259 ], [ 24.711177, 56.401772 ], [ 24.850487, 56.416336 ], [ 24.859697, 56.438584 ], [ 24.885291, 56.446567 ], [ 24.914976, 56.439596 ], [ 24.907219, 56.415298 ], [ 24.966657, 56.362544 ], [ 24.977892, 56.311291 ], [ 25.052659, 56.263437 ], [ 25.074716, 56.203671 ], [ 25.09551, 56.18794 ], [ 25.169541, 56.175322 ], [ 25.233779, 56.188367 ], [ 25.316953, 56.148002 ], [ 25.488338, 56.144882 ], [ 25.534417, 56.161902 ], [ 25.593018, 56.136267 ], [ 25.673048, 56.14444 ], [ 25.693829, 56.120244 ], [ 25.696722, 56.086346 ], [ 25.821387, 56.052179 ], [ 25.863854, 56.082414 ], [ 25.851982, 56.111302 ], [ 25.939204, 56.063878 ], [ 26.002883, 56.087215 ], [ 26.056674, 56.070343 ], [ 26.105302, 56.106258 ], [ 26.14036, 56.103015 ], [ 26.14611, 56.134084 ], [ 26.221136, 56.170603 ], [ 26.260872, 56.15158 ], [ 26.311792, 56.151965 ], [ 26.329295, 56.101902 ], [ 26.333489, 56.141685 ], [ 26.312116, 56.169508 ], [ 26.184612, 56.234025 ], [ 26.197296, 56.271357 ], [ 26.154873, 56.370023 ], [ 26.102978, 56.410218 ], [ 26.15611, 56.431417 ], [ 26.224552, 56.4972 ], [ 26.270913, 56.519007 ], [ 26.310453, 56.512981 ], [ 26.377845, 56.455478 ], [ 26.479163, 56.494805 ], [ 26.604712, 56.487656 ], [ 26.600355, 56.504977 ], [ 26.624916, 56.540224 ], [ 26.583441, 56.552337 ], [ 26.587101, 56.594353 ], [ 26.487589, 56.600743 ], [ 26.386513, 56.640658 ], [ 26.34276, 56.603754 ], [ 26.289083, 56.587835 ], [ 26.272427, 56.616051 ], [ 26.218303, 56.607345 ], [ 26.199555, 56.643259 ], [ 26.134895, 56.654849 ], [ 26.029512, 56.620752 ], [ 25.979364, 56.663368 ], [ 25.936533, 56.643133 ], [ 25.913059, 56.662349 ], [ 25.941577, 56.683483 ], [ 25.83584, 56.710974 ], [ 25.821315, 56.744414 ], [ 25.847838, 56.765441 ], [ 25.841184, 56.785175 ], [ 25.763888, 56.826254 ], [ 25.744273, 56.821269 ], [ 25.736021, 56.778102 ], [ 25.701301, 56.769819 ], [ 25.612418, 56.806331 ], [ 25.506033, 56.815156 ], [ 25.432595, 56.773892 ], [ 25.285332, 56.74983 ], [ 25.27061, 56.735165 ], [ 25.284214, 56.714538 ], [ 25.267002, 56.699455 ], [ 25.052044, 56.727133 ], [ 25.01796, 56.659608 ], [ 25.037295, 56.596677 ], [ 24.735988, 56.545417 ], [ 24.674162, 56.547902 ], [ 24.66233, 56.563843 ], [ 24.681664, 56.587008 ], [ 24.606576, 56.620342 ], [ 24.588071, 56.659914 ], [ 24.629017, 56.682566 ], [ 24.616075, 56.71127 ], [ 24.500203, 56.713138 ], [ 24.358506, 56.664819 ], [ 24.246252, 56.698582 ], [ 24.135057, 56.67203 ], [ 23.911733, 56.745345 ], [ 23.796592, 56.730743 ], [ 23.765551, 56.746046 ], [ 23.763651, 56.799388 ], [ 23.711381, 56.850335 ], [ 23.603297, 56.890185 ], [ 23.48279, 56.882537 ], [ 23.473704, 56.810868 ], [ 23.338273, 56.78797 ], [ 23.323043, 56.770481 ], [ 23.330966, 56.744876 ], [ 23.28219, 56.713406 ], [ 23.211183, 56.718872 ], [ 23.17526, 56.695571 ], [ 23.082852, 56.691313 ], [ 22.981553, 56.715894 ], [ 22.80614, 56.692455 ], [ 22.802926, 56.681008 ], [ 22.834435, 56.677396 ], [ 22.861755, 56.643682 ], [ 22.835515, 56.60735 ], [ 22.779968, 56.607222 ], [ 22.800594, 56.570865 ], [ 22.739226, 56.563596 ], [ 22.730656, 56.506178 ], [ 22.712988, 56.491567 ], [ 22.751755, 56.473466 ], [ 22.731528, 56.426665 ], [ 22.878218, 56.39355 ], [ 22.950437, 56.414202 ], [ 23.000729, 56.4034 ], [ 23.026484, 56.334004 ], [ 23.098306, 56.305967 ], [ 23.177555, 56.336356 ], [ 23.177463, 56.36752 ], [ 23.311177, 56.382062 ], [ 23.388121, 56.378101 ], [ 23.443569, 56.351966 ], [ 23.546772, 56.334029 ], [ 23.637261, 56.360486 ], [ 23.765431, 56.37174 ], [ 23.776908, 56.365834 ], [ 23.772556, 56.322901 ], [ 23.811413, 56.341135 ], [ 24.013568, 56.329322 ], [ 24.050206, 56.28111 ], [ 24.1518, 56.253348 ] ] ] } }
]
}
