{
"type": "FeatureCollection",
"name": "border_HU",
"crs": { "type": "name", "properties": { "name": "urn:ogc:def:crs:OGC:1.3:CRS84" } },
"features": [
{ "type": "Feature", "properties": { }, "geometry": { "type": "Polygon", "coordinates": [ [ [ 22.085608351334855, 48.422264309271789 ], [ 22.640819939878725, 48.150239569687415 ], [ 22.710531447040495, 47.882193915389408 ], [ 22.099767693782837, 47.672439276716702 ], [ 21.626514926853872, 46.994237779318162 ], [ 21.021952345471249, 46.316087958351901 ], [ 20.220192498462836, 46.127468980486555 ], [ 19.596044549241583, 46.17172984474454 ], [ 18.456062452882861, 45.75948110613615 ], [ 17.630066359129557, 45.951769110694187 ], [ 16.564808383864857, 46.50375092221983 ], [ 16.370504998447416, 46.841327216166505 ], [ 16.202298211337364, 46.852385972676963 ], [ 16.534267612380376, 47.496170966169117 ], [ 16.340584344150415, 47.71290192320123 ], [ 16.903754103267261, 47.714865627628328 ], [ 16.979666782304037, 48.123497015976305 ], [ 17.857132602620027, 47.758428860050373 ], [ 18.696512892336926, 47.880953681014404 ], [ 18.777024773847671, 48.081768296900634 ], [ 20.239054396249347, 48.327567247096923 ], [ 20.473562045989866, 48.562850043321816 ], [ 20.801293979584926, 48.623854071642384 ], [ 21.872236362401736, 48.319970811550021 ], [ 22.085608351334855, 48.422264309271789 ] ] ] } }
]
}
