{
"type": "FeatureCollection",
"name": "border_AU",
"crs": { "type": "name", "properties": { "name": "urn:ogc:def:crs:OGC:1.3:CRS84" } },
"features": [
{ "type": "Feature", "properties": { }, "geometry": { "type": "Polygon", "coordinates": [ [ [ 147.689259474884182, -40.808258152022674 ], [ 148.289067824495987, -40.875437514002108 ], [ 148.35986453673587, -42.062445163746439 ], [ 148.017301467073025, -42.407023614268653 ], [ 147.914051955353841, -43.211522312188535 ], [ 147.564564243763925, -42.937688897473905 ], [ 146.870343052354883, -43.634597263362103 ], [ 146.048377720320332, -43.549744561538844 ], [ 145.431929559510593, -42.693776137056254 ], [ 145.29509036680173, -42.033609714527564 ], [ 144.718071323830657, -41.162551771815757 ], [ 144.743754510679707, -40.70397511165767 ], [ 145.397978143494811, -40.79254851660594 ], [ 146.364120721623692, -41.137695407883363 ], [ 147.689259474884182, -40.808258152022674 ] ] ] } },
{ "type": "Feature", "properties": { }, "geometry": { "type": "Polygon", "coordinates": [ [ [ 126.148713820501143, -32.215966078420593 ], [ 125.088623488465657, -32.72875131605285 ], [ 124.221647983904916, -32.959486586236068 ], [ 124.028946567888511, -33.483847344701701 ], [ 123.659666782730767, -33.890179131812708 ], [ 122.183064406422801, -34.003402194964202 ], [ 121.299190708502593, -33.821036065406176 ], [ 119.893695103028222, -33.976065362281801 ], [ 119.298899367348753, -34.509366143533938 ], [ 119.00734093635802, -34.464149265278543 ], [ 118.024971958489488, -35.0647327613747 ], [ 116.625109084134948, -35.025096937806829 ], [ 115.564346958479661, -34.386427911111568 ], [ 115.026808709779573, -34.196517022438933 ], [ 115.048616164206763, -33.623425388322055 ], [ 115.545123325667078, -33.487257989232972 ], [ 115.714673700016704, -33.259571628554973 ], [ 115.679378696761347, -32.900368747694166 ], [ 115.801645135563945, -32.205062351207005 ], [ 115.689610630355162, -31.612437025683807 ], [ 115.160909051576994, -30.601594333622465 ], [ 114.997043084779477, -30.03072478609414 ], [ 115.040037876446291, -29.461095472940819 ], [ 114.641974318502008, -28.81023080822467 ], [ 114.616497837382099, -28.516398614213081 ], [ 114.173579136208474, -28.118076674107321 ], [ 114.048883905088161, -27.334765313427106 ], [ 113.477497593236919, -26.543134047147902 ], [ 113.338953078262421, -26.116545098578484 ], [ 113.778357782040217, -26.549025160429174 ], [ 113.440962355606558, -25.621278171493167 ], [ 113.936901076311671, -25.91123463308287 ], [ 114.232852004047231, -26.298446140245879 ], [ 114.216160516416977, -25.786281019801123 ], [ 113.393523390762638, -24.384764499613226 ], [ 113.502043898575593, -23.806350192970285 ], [ 113.706992629045146, -23.560215345964089 ], [ 113.843418410295669, -23.059987481378755 ], [ 113.736551548316086, -22.475475355725379 ], [ 114.149756300921894, -21.755881036061041 ], [ 114.225307244932623, -22.517488295178673 ], [ 114.647762078918703, -21.829519952076954 ], [ 115.460167270979241, -21.495173435148537 ], [ 115.947372674627019, -21.068687839443704 ], [ 116.711615431791529, -20.701681817306824 ], [ 117.166316359527713, -20.623598728113805 ], [ 117.441545037914238, -20.746898695562209 ], [ 118.229558953932994, -20.374208265873222 ], [ 118.836085239742744, -20.263310642174858 ], [ 118.987807244951682, -20.044202569257315 ], [ 119.252493931150667, -19.952941989829867 ], [ 119.805225050944514, -19.976506442954964 ], [ 120.856220330896676, -19.683707777589206 ], [ 121.39985639860717, -19.239755547769725 ], [ 121.655137974129019, -18.705317885007169 ], [ 122.241665480641785, -18.197648614171804 ], [ 122.312772251475394, -17.254967136303449 ], [ 123.012574497571933, -16.405199883695886 ], [ 123.433789097183038, -17.268558037996215 ], [ 123.859344517106592, -17.069035332917288 ], [ 123.503242222183289, -16.596506036040402 ], [ 123.817073195491844, -16.111316013252001 ], [ 124.258286574399847, -16.327943617419535 ], [ 124.379726190285751, -15.56705982835399 ], [ 124.926152785340037, -15.075100192935359 ], [ 125.167275018413875, -14.680395603090028 ], [ 125.670086704613809, -14.510070082256014 ], [ 125.685796340030549, -14.23065561285385 ], [ 126.125149367376082, -14.347340996968903 ], [ 126.142822707219864, -14.095986830301227 ], [ 127.065867140817318, -13.817967624570954 ], [ 127.804633416861961, -14.27690601975508 ], [ 128.359689976108939, -14.869169610252243 ], [ 129.621473423379655, -14.969783623924522 ], [ 129.409600050982931, -14.42066985439107 ], [ 129.888640578328591, -13.618703301653492 ], [ 130.339465773642928, -13.357375583553484 ], [ 130.183506300986039, -13.107520033422276 ], [ 130.617795037966971, -12.536392103732489 ], [ 131.223494500859999, -12.183648776908166 ], [ 131.735091180549546, -12.302452894747184 ], [ 132.575298293183096, -12.114040622611007 ], [ 132.557211541880974, -11.603012383676678 ], [ 131.824698114143644, -11.273781833545151 ], [ 132.357223748911395, -11.128519382372696 ], [ 133.019560581596352, -11.376411228076812 ], [ 133.550845981989085, -11.786515394745116 ], [ 134.393068475482039, -12.042365411022182 ], [ 134.678632440326965, -11.941182956594693 ], [ 135.298491245667947, -12.248606052299046 ], [ 135.882693312727611, -11.962266940969776 ], [ 136.258380975489501, -12.049341729381588 ], [ 136.492475213771684, -11.857208754120398 ], [ 136.951620314684988, -12.351958916882793 ], [ 136.685124953355796, -12.887223402562022 ], [ 136.305406528875096, -13.291229750219884 ], [ 135.961758254134168, -13.324509372615852 ], [ 136.077616815332533, -13.724278252825783 ], [ 135.4286641786112, -14.715432224183912 ], [ 135.500184360903177, -14.997740573794424 ], [ 136.29517459528131, -15.55026498785913 ], [ 137.06536014215942, -15.870762220933329 ], [ 138.303217401278971, -16.807604261952704 ], [ 138.585164015863427, -16.806622409739155 ], [ 139.108542922115475, -17.062679131745391 ], [ 139.260574985918197, -17.371600843986208 ], [ 140.215245396078274, -17.710804945550066 ], [ 140.875463495039241, -17.369068698803908 ], [ 141.274095493738741, -16.38887013109165 ], [ 141.702183058844639, -15.044921156476901 ], [ 141.563380161708665, -14.561333103089552 ], [ 141.635520461188094, -14.270394789286307 ], [ 141.519868605718898, -13.698078301653808 ], [ 141.650920038011066, -12.944687595270585 ], [ 141.842691278246207, -12.741547539931231 ], [ 141.686990187750837, -12.407614434461145 ], [ 142.118488397387978, -11.328042087451612 ], [ 142.143706496346397, -11.042736504768186 ], [ 142.51526004452495, -10.668185723516686 ], [ 142.797310011973991, -11.157354831591562 ], [ 142.866763136974271, -11.784706719614903 ], [ 143.115946893485727, -11.905629571177885 ], [ 143.158631626558758, -12.325655612846232 ], [ 143.522123651299808, -12.834358412327433 ], [ 143.597157830987612, -13.400422051652612 ], [ 143.561811151299992, -13.763655694232192 ], [ 143.922099237238911, -14.548310642151996 ], [ 144.563713820574833, -14.171176039285903 ], [ 144.894908075133458, -14.594457696188641 ], [ 145.374723748963504, -14.98497649501833 ], [ 145.271991001567244, -15.428205254785732 ], [ 145.485259637635806, -16.28567229580478 ], [ 145.637033319277009, -16.784918308176572 ], [ 145.888904250267615, -16.906926364817686 ], [ 146.16030887266453, -17.761654554925272 ], [ 146.063673944278719, -18.28007252367734 ], [ 146.387478469019641, -18.958274021075887 ], [ 147.471081577747896, -19.480722751546729 ], [ 148.848413527623222, -20.391209812097244 ], [ 148.717465448195583, -20.633468926681552 ], [ 149.289420200802056, -21.260510756111135 ], [ 149.678337030230693, -22.342511895438385 ], [ 150.077382440388533, -22.122783705333337 ], [ 150.482939081015161, -22.556142266532994 ], [ 150.727265252891129, -22.402404880464665 ], [ 150.899554478152254, -23.462236830338696 ], [ 152.07353966695905, -24.457886651306225 ], [ 152.855197381805908, -25.267501316023001 ], [ 153.136162144176808, -26.071173191026215 ], [ 153.092908970348503, -27.260299574494514 ], [ 153.569469028944184, -28.110066827102081 ], [ 153.512108189100218, -28.995077406532712 ], [ 153.069241164358857, -30.350240166954794 ], [ 153.089601678681845, -30.923641859665423 ], [ 152.891577590139377, -31.640445651985999 ], [ 152.450002476205327, -32.550002536755265 ], [ 151.709117466436737, -33.041342054986394 ], [ 151.343971795862387, -33.816023451473868 ], [ 151.010555454715188, -34.310360202777929 ], [ 150.714139439089024, -35.173459974916796 ], [ 150.32821984273329, -35.671879164371916 ], [ 150.075212030232308, -36.420205580390537 ], [ 149.946124302367195, -37.109052422841209 ], [ 149.997283970336127, -37.42526051203518 ], [ 149.423882277625523, -37.772681166333442 ], [ 148.304622430615836, -37.809061374666925 ], [ 147.38173302631526, -38.219217217767522 ], [ 146.317921991154776, -39.035756524411411 ], [ 145.489652134380606, -38.593767999019022 ], [ 144.876976353128157, -38.417448012039152 ], [ 145.032212355732952, -37.896187839511022 ], [ 144.485682407814068, -38.085323581699285 ], [ 143.60997358619602, -38.8094654274053 ], [ 140.638578729413268, -38.019332777662555 ], [ 139.992158237874264, -37.402936293285094 ], [ 139.8065881695141, -36.643602797188308 ], [ 139.574147577065276, -36.138362318670659 ], [ 139.082808058834132, -35.732754001611745 ], [ 138.120747918856352, -35.61229623793939 ], [ 138.449461704664941, -35.127261244447865 ], [ 138.207564325106716, -34.384722588845932 ], [ 137.719170363516184, -35.076825046530999 ], [ 136.829405552314711, -35.260534763328607 ], [ 137.352371047108477, -34.7073385556441 ], [ 137.503886346588274, -34.130267836240748 ], [ 137.890116001537706, -33.640478610978377 ], [ 137.810327590079055, -32.900007012668119 ], [ 136.996837192940404, -33.752771498348615 ], [ 136.372069126531642, -34.094766127256236 ], [ 135.989043410384284, -34.890118096660458 ], [ 135.208212518454047, -34.478670342752565 ], [ 135.239218377829161, -33.947953383115021 ], [ 134.613416782774607, -33.222778008763164 ], [ 134.085903761939164, -32.848072198214787 ], [ 134.273902622617015, -32.617233575166992 ], [ 132.990776808809755, -32.011224053680188 ], [ 132.288080682504869, -31.982646986622782 ], [ 131.326330601120844, -31.495803318001041 ], [ 129.535793898639724, -31.590422865527465 ], [ 127.102867466338296, -32.282266941051063 ], [ 126.148713820501143, -32.215966078420593 ] ] ] } }
]
}
