{
"type": "FeatureCollection",
"name": "border_ZM",
"crs": { "type": "name", "properties": { "name": "urn:ogc:def:crs:OGC:1.3:CRS84" } },
"features": [
{ "type": "Feature", "properties": { }, "geometry": { "type": "Polygon", "coordinates": [ [ [ 30.740009731422095, -8.340005930353721 ], [ 31.157751336950049, -8.594578747317366 ], [ 32.191864861791942, -8.930358981973257 ], [ 32.759375441221323, -9.23059905358906 ], [ 33.231387973775298, -9.676721693564801 ], [ 33.485687697083591, -10.525558770391115 ], [ 33.315310499817286, -10.796549981329697 ], [ 33.114289178201915, -11.607198174692314 ], [ 33.306422153463075, -12.435778090060218 ], [ 32.991764357237884, -12.783870537978274 ], [ 32.688165317523129, -13.712857761289277 ], [ 33.214024692525214, -13.971860039936153 ], [ 30.17948123548183, -14.796099134991529 ], [ 30.27425581230511, -15.507786960515213 ], [ 29.516834344203147, -15.644677829656388 ], [ 28.947463413211267, -16.04305144619444 ], [ 28.825868768028499, -16.389748630440614 ], [ 28.467906121542683, -16.468400160388846 ], [ 27.59824344250276, -17.290830580314008 ], [ 27.044427117630732, -17.938026218337434 ], [ 26.70677330903564, -17.961228936436484 ], [ 26.381935255648926, -17.846042168857899 ], [ 25.264225701608012, -17.736539808831417 ], [ 24.682349074001507, -17.353410739819473 ], [ 24.033861525170778, -17.295843194246324 ], [ 23.215048455506064, -17.523116143465984 ], [ 22.562478468524262, -16.898451429921813 ], [ 21.887842644953874, -16.08031015387688 ], [ 21.933886346125917, -12.898437188369359 ], [ 24.016136508894675, -12.911046237848574 ], [ 23.930922072045377, -12.565847670138856 ], [ 24.079905226342845, -12.191296888887365 ], [ 23.904153680118185, -11.722281589406322 ], [ 24.017893507592589, -11.23729827234709 ], [ 23.912215203555718, -10.926826267137514 ], [ 24.257155389103989, -10.951992689663657 ], [ 24.314516228947952, -11.26282642989927 ], [ 24.783169793402951, -11.238693536018964 ], [ 25.418118116973204, -11.330935967659961 ], [ 25.752309604604733, -11.784965101776358 ], [ 26.553087599399618, -11.924439792532127 ], [ 27.164419793412463, -11.608748467661075 ], [ 27.388798862423783, -12.132747491100666 ], [ 28.155108676879987, -12.272480564017897 ], [ 28.934285922976837, -13.248958428605135 ], [ 29.699613885219492, -13.257226657771831 ], [ 29.61600141777123, -12.178894545137311 ], [ 29.34154788586909, -12.360743910372413 ], [ 28.372253045370428, -11.793646742401393 ], [ 28.673681674928929, -9.605924981324932 ], [ 28.449871046672826, -9.164918308146085 ], [ 28.734866570762502, -8.526559340044578 ], [ 29.00291222506047, -8.407031752153472 ], [ 30.346086053190817, -8.238256524288218 ], [ 30.740009731422095, -8.340005930353721 ] ] ] } }
]
}
