{
"type": "FeatureCollection",
"name": "regions_NE",
"crs": { "type": "name", "properties": { "name": "urn:ogc:def:crs:OGC:1.3:CRS84" } },
"features": [
{ "type": "Feature", "properties": { "loc": "NE-A2-0104" }, "geometry": { "type": "Polygon", "coordinates": [ [ [ 10.986985999895523, 18.010965999997438 ], [ 10.983986999960052, 17.058970000000443 ], [ 9.309972000055552, 15.957968000092933 ], [ 9.021971000021608, 15.867971000108128 ], [ 8.617294999778665, 16.729234999987227 ], [ 8.181128000009437, 16.709681999878399 ], [ 7.765730000150654, 16.73901099984522 ], [ 7.614004999988538, 16.60283499999656 ], [ 7.673824000060108, 16.963245000071765 ], [ 7.673824000060108, 17.132187000058423 ], [ 7.590076999898258, 17.548910999914824 ], [ 7.494364999943855, 17.774167000196769 ], [ 7.39196900007056, 17.928966000055766 ], [ 10.986985999895523, 18.010965999997438 ] ], [ [ 8.002945000000125, 16.80433 ], [ 8.0773, 16.827434 ], [ 8.135439000000133, 16.877471 ], [ 8.167312000000152, 16.945806 ], [ 8.170449000000133, 17.002030000000104 ], [ 8.14633, 17.073219 ], [ 8.093982000000267, 17.128865 ], [ 8.022454000000153, 17.159328 ], [ 7.963608000000193, 17.162277 ], [ 7.906694000000243, 17.147691 ], [ 7.843371000000218, 17.103673 ], [ 7.804287000000272, 17.038837000000115 ], [ 7.79618000000022, 16.964408000000105 ], [ 7.811465000000169, 16.910037 ], [ 7.857478000000185, 16.84953 ], [ 7.925202000000183, 16.8121450000001 ], [ 8.002945000000125, 16.80433 ] ] ] } },
{ "type": "Feature", "properties": { "loc": "NE-A2-0105" }, "geometry": { "type": "Polygon", "coordinates": [ [ [ 7.984554000218434, 21.170075905584106 ], [ 7.999022000116739, 19.29101099976338 ], [ 7.976551999926361, 18.99583699988316 ], [ 7.994804999902382, 18.941966999582881 ], [ 7.942670999618461, 18.714520999649963 ], [ 7.952463999765357, 18.687680000237371 ], [ 7.911887000036565, 18.670174999681976 ], [ 7.851691000290938, 18.608306000127349 ], [ 7.953850999894684, 18.448401000201216 ], [ 7.977637999664942, 18.355032000421652 ], [ 8.074968999590602, 18.308209000440208 ], [ 8.111571000372329, 18.054713999846435 ], [ 8.135073999636365, 17.988724000007768 ], [ 8.189969999586776, 17.94696299963789 ], [ 6.041967999794315, 17.906969999860785 ], [ 6.015974999917293, 18.081964000133706 ], [ 6.079972999625158, 18.491965000079901 ], [ 6.073964999556067, 18.697970999657109 ], [ 6.095965999702044, 18.759972999949177 ], [ 6.092964999805814, 18.798967999568745 ], [ 5.913961999917325, 19.152968999914606 ], [ 5.900964000359319, 19.293968000018346 ], [ 5.805967000147869, 19.352970999607173 ], [ 5.793472593056701, 19.433218788211732 ], [ 5.817080974878084, 19.437709808256209 ], [ 7.273006916087819, 20.709304809974526 ], [ 7.445677757074375, 20.842468261706436 ], [ 7.984554000218434, 21.170075905584106 ] ] ] } },
{ "type": "Feature", "properties": { "loc": "NE-A2-0108" }, "geometry": { "type": "Polygon", "coordinates": [ [ [ 7.501973000428563, 15.56796999981384 ], [ 7.353390840814995, 15.318156898478605 ], [ 7.02394700032886, 15.436953000478923 ], [ 6.724964000163425, 15.426960000102213 ], [ 6.584953999802337, 15.898949000594143 ], [ 6.640951000163568, 16.191945999906181 ], [ 6.424950000117292, 16.282948000248268 ], [ 6.35995800043645, 16.337949000544313 ], [ 6.147950000167384, 16.801953000628885 ], [ 6.041951999859805, 16.943952000083016 ], [ 5.554951000463291, 17.302952999879267 ], [ 5.219952000459386, 17.471955999967804 ], [ 5.141956000044331, 17.634957000263682 ], [ 5.090951999710001, 17.7009590006557 ], [ 4.889946999629274, 17.818952000133038 ], [ 4.872960999625434, 17.923948000098392 ], [ 4.733956999790735, 17.947954000075413 ], [ 4.728954000201895, 18.001956000167468 ], [ 4.817963000367172, 18.1289659999793 ], [ 4.817965999606258, 18.248960000002342 ], [ 4.76096799984839, 18.425971000659445 ], [ 4.781968999744436, 18.490969999763934 ], [ 4.840976000417072, 18.569963000290613 ], [ 4.869970000190278, 18.677971999806232 ], [ 4.243463543482676, 18.675385941706111 ], [ 4.242887973775908, 19.136716842806379 ], [ 5.793472592960711, 19.433218787914939 ], [ 5.805967000052078, 19.352971000209777 ], [ 5.900964000263343, 19.293968000621021 ], [ 5.913961999821424, 19.152969000517373 ], [ 6.09296499970992, 18.798968000171328 ], [ 6.095965999606165, 18.759973000551952 ], [ 6.073965000359408, 18.69797100025977 ], [ 6.079973000428538, 18.491964999783193 ], [ 6.01597499982131, 18.081963999837001 ], [ 6.041967999698443, 17.906970000463559 ], [ 7.391968999744563, 17.928966000378921 ], [ 7.494365000319533, 17.774167000604791 ], [ 7.590077000228291, 17.54891100004096 ], [ 7.673823999652825, 17.132187000328088 ], [ 7.673823999652825, 16.963245000354732 ], [ 7.614005000205623, 16.602835000333357 ], [ 7.590077000228291, 15.769387000008464 ], [ 7.542221000274026, 15.611707000475917 ], [ 7.501973000428563, 15.56796999981384 ] ] ] } },
{ "type": "Feature", "properties": { "loc": "NE-A2-0109" }, "geometry": { "type": "Polygon", "coordinates": [ [ [ 8.002945000000125, 16.80433 ], [ 7.925202000000183, 16.8121450000001 ], [ 7.857478000000185, 16.84953 ], [ 7.811465000000169, 16.910037 ], [ 7.79618000000022, 16.964408000000105 ], [ 7.804287000000272, 17.038837000000115 ], [ 7.843371000000218, 17.103673 ], [ 7.906694000000243, 17.147691 ], [ 7.963608000000193, 17.162277 ], [ 8.022454000000153, 17.159328 ], [ 8.093982000000267, 17.128865 ], [ 8.14633, 17.073219 ], [ 8.170449000000133, 17.002030000000104 ], [ 8.167312000000152, 16.945806 ], [ 8.135439000000133, 16.877471 ], [ 8.0773, 16.827434 ], [ 8.002945000000125, 16.80433 ] ] ] } },
{ "type": "Feature", "properties": { "loc": "NE-A2-0307" }, "geometry": { "type": "Polygon", "coordinates": [ [ [ 2.622516000590944, 12.877429000148162 ], [ 2.811033000350736, 12.731557000155309 ], [ 2.85420900032308, 12.761866000315543 ], [ 2.882993000304732, 12.757203000218205 ], [ 2.99896, 12.676953 ], [ 2.969963, 12.668952 ], [ 2.992164952728369, 12.277234873690386 ], [ 2.963059901970886, 12.287500381237511 ], [ 2.845962000424005, 12.411946000207603 ], [ 2.745962999770621, 12.460962999742549 ], [ 2.742959999782211, 12.540960999850199 ], [ 2.722965000412478, 12.569949000246101 ], [ 2.705996000293207, 12.571985927808189 ], [ 2.68396100037783, 12.50795399937747 ], [ 2.675960000131936, 12.52896199959654 ], [ 2.642959999982017, 12.530950999588892 ], [ 2.646964000266414, 12.567952999930938 ], [ 2.619964999862865, 12.593953000130771 ], [ 2.629996000193233, 12.684984000011497 ], [ 2.589005000258591, 12.799991000284301 ], [ 2.622516000590944, 12.877429000148162 ] ] ] } },
{ "type": "Feature", "properties": { "loc": "NE-A2-0308" }, "geometry": { "type": "Polygon", "coordinates": [ [ [ 4.432955, 14.437952 ], [ 4.412954, 14.287949 ], [ 4.46394799975399, 14.004954999967918 ], [ 4.511953000284339, 13.952952000329173 ], [ 4.571947999753987, 13.843955000217729 ], [ 4.597480701426835, 13.730251480915729 ], [ 4.464737892293456, 13.70342731501319 ], [ 4.197474003176302, 13.473177909727347 ], [ 4.130280972000064, 13.472634315000072 ], [ 4.128975402232036, 13.342952988532648 ], [ 4.054962, 13.326958 ], [ 3.965979, 13.387953 ], [ 3.951963, 13.434954999999889 ], [ 3.91297, 13.430952 ], [ 3.900954, 13.448954999999891 ], [ 3.91397, 13.49896 ], [ 3.893966, 13.550959 ], [ 3.727958, 13.550953 ], [ 3.726958, 13.569949 ], [ 3.748971, 13.570954999999891 ], [ 3.769962, 13.597956 ], [ 3.769966, 13.738957 ], [ 3.747955, 13.737957 ], [ 3.663966000147165, 13.957956000037104 ], [ 3.73999599989133, 14.030995999782476 ], [ 3.766993000046912, 14.188996000182303 ], [ 3.865994999792064, 14.322993999988949 ], [ 3.954965999853264, 14.38795300039672 ], [ 4.165958999992756, 14.436953000006909 ], [ 4.165993999950355, 14.493958343674347 ], [ 4.251993000000129, 14.527994 ], [ 4.256996, 14.634940645365653 ], [ 4.342955000000113, 14.604955 ], [ 4.432955, 14.437952 ] ] ] } },
{ "type": "Feature", "properties": { "loc": "NE-A2-0309" }, "geometry": { "type": "Polygon", "coordinates": [ [ [ 3.911963, 13.47595 ], [ 3.900954, 13.448954999999891 ], [ 3.91297, 13.430952 ], [ 3.951963, 13.434954999999889 ], [ 3.965979, 13.387953 ], [ 4.024973, 13.338952 ], [ 4.06196, 13.324959 ], [ 4.128975402232036, 13.342952988532648 ], [ 4.129664897673844, 13.148302077729142 ], [ 4.096463202966603, 12.996067047195154 ], [ 3.942208052000082, 12.764189720000036 ], [ 3.832818832109051, 12.678364816705407 ], [ 3.745964, 12.77196 ], [ 3.715959, 12.848958 ], [ 3.621956, 12.939953999999894 ], [ 3.713963, 13.098956999999896 ], [ 3.715956, 13.254952 ], [ 3.765967, 13.256959 ], [ 3.764964, 13.289957 ], [ 3.731964, 13.289949 ], [ 3.731957, 13.308948 ], [ 3.789964, 13.310959 ], [ 3.873959, 13.372952 ], [ 3.82497, 13.417947 ], [ 3.824962, 13.470952 ], [ 3.87096, 13.471961 ], [ 3.896955, 13.520951 ], [ 3.911963, 13.47595 ] ] ] } },
{ "type": "Feature", "properties": { "loc": "NE-A2-0310" }, "geometry": { "type": "Polygon", "coordinates": [ [ [ 3.377967999972973, 12.396954999779659 ], [ 3.428961999846201, 12.386951999841163 ], [ 3.533960999949968, 12.37896000001026 ], [ 3.572963999938437, 12.35794799960674 ], [ 3.612959999853902, 12.386954999979523 ], [ 3.649770208977752, 12.383072592532347 ], [ 3.657529116225464, 12.268548965268806 ], [ 3.630781174060469, 12.117119789395421 ], [ 3.668822049953167, 11.977861403688035 ], [ 3.617669820661216, 11.916888236809893 ], [ 3.626731156845184, 11.839364051758334 ], [ 3.665852069645079, 11.81047344164476 ], [ 3.679195166051872, 11.75845432255775 ], [ 3.605073928846489, 11.6969747537307 ], [ 3.556390047190692, 11.724169730797236 ], [ 3.564719915119805, 11.772500037695384 ], [ 3.522779942000063, 11.78777980800005 ], [ 3.521110058000096, 11.814720154000042 ], [ 3.481389999, 11.861390114000088 ], [ 3.383610009999969, 11.886389732000087 ], [ 3.321389914, 11.881669998000106 ], [ 3.259449958805081, 11.98999977081538 ], [ 3.270279883566327, 12.014719962898575 ], [ 3.176923932050388, 12.104948522898624 ], [ 3.279958999864472, 12.133953999819909 ], [ 3.299963000042214, 12.217949999798901 ], [ 3.292961, 12.282957000171653 ], [ 3.377967999972973, 12.396954999779659 ] ] ] } },
{ "type": "Feature", "properties": { "loc": "NE-A2-0311" }, "geometry": { "type": "Polygon", "coordinates": [ [ [ 3.832818832109051, 12.678364816705407 ], [ 3.642555952000079, 12.520149231000062 ], [ 3.64977020938436, 12.383072592587414 ], [ 3.61296, 12.386955 ], [ 3.572964, 12.357948 ], [ 3.533961, 12.37896 ], [ 3.428962, 12.386952 ], [ 3.396964, 12.40295 ], [ 3.409969, 12.493947 ], [ 3.38497, 12.627953999999892 ], [ 3.412962, 12.645957999999897 ], [ 3.521957, 12.646958 ], [ 3.554965, 12.761955 ], [ 3.521967, 12.846952 ], [ 3.621956, 12.939953999999894 ], [ 3.715959, 12.848958 ], [ 3.745964, 12.77196 ], [ 3.832818832109051, 12.678364816705407 ] ] ] } },
{ "type": "Feature", "properties": { "loc": "NE-A2-0312" }, "geometry": { "type": "Polygon", "coordinates": [ [ [ 3.473963, 13.309955 ], [ 3.583335, 13.333258 ], [ 3.605557, 13.426307 ], [ 3.727964, 13.55188 ], [ 3.904963, 13.540956 ], [ 3.87096, 13.471961 ], [ 3.824962, 13.470952 ], [ 3.82497, 13.417947 ], [ 3.873959, 13.372952 ], [ 3.789964, 13.310959 ], [ 3.731957, 13.308948 ], [ 3.731964, 13.289949 ], [ 3.764964, 13.289957 ], [ 3.765967, 13.256959 ], [ 3.715956, 13.254952 ], [ 3.713963, 13.098956999999896 ], [ 3.621956, 12.939953999999894 ], [ 3.521967, 12.846952 ], [ 3.554965, 12.761955 ], [ 3.521957, 12.646958 ], [ 3.412962, 12.645957999999897 ], [ 3.38497, 12.627953999999892 ], [ 3.409969, 12.493947 ], [ 3.397962, 12.402951999999896 ], [ 3.377968, 12.396955 ], [ 3.29197000000224, 12.280955999836092 ], [ 3.299962999879322, 12.217950000009044 ], [ 3.27995900009451, 12.133953999893716 ], [ 3.176923932280427, 12.104948522972521 ], [ 3.127219914554167, 12.140279770011926 ], [ 3.125000000136633, 12.157500267340033 ], [ 3.071939944559552, 12.183609962346438 ], [ 2.991970999748559, 12.277954999939862 ], [ 2.969963, 12.668952 ], [ 2.99896, 12.676953 ], [ 2.956961, 12.709956 ], [ 2.991975, 12.879958 ], [ 2.960962, 12.893954 ], [ 2.992961, 12.945957 ], [ 2.969963, 12.986958 ], [ 2.996964999875948, 13.408953999966862 ], [ 3.036950000019831, 13.464942999975289 ], [ 3.105921, 13.405437 ], [ 3.116802, 13.318184 ], [ 3.103, 13.24891499999989 ], [ 3.203851, 13.343302 ], [ 3.211036, 13.298519 ], [ 3.241967, 13.312953 ], [ 3.311968999786727, 13.534955000122402 ], [ 3.402959000130799, 13.59895399999937 ], [ 3.522972, 13.47495399999989 ], [ 3.473963, 13.309955 ] ], [ [ 3.255539, 13.138389 ], [ 3.163049, 13.125169 ], [ 3.141286, 13.039238 ], [ 3.08552, 12.986357 ], [ 3.092321, 12.963883 ], [ 3.170017, 12.930416 ], [ 3.19731, 12.956143 ], [ 3.277077, 12.983833 ], [ 3.295594, 13.0046 ], [ 3.279926, 13.050288 ], [ 3.309838, 13.094591 ], [ 3.272323, 13.154703 ], [ 3.255539, 13.138389 ] ] ] } },
{ "type": "Feature", "properties": { "loc": "NE-A2-0401" }, "geometry": { "type": "Polygon", "coordinates": [ [ [ 7.44497021045779, 13.547963334099862 ], [ 7.38996000022517, 13.417953000020884 ], [ 7.402974999675958, 13.370983000193721 ], [ 7.432982000298548, 13.341981000051568 ], [ 7.499976999718193, 13.360982000347494 ], [ 7.55998299969519, 13.345988999621046 ], [ 7.57796599981052, 13.258949000324556 ], [ 7.611734268301294, 13.216600286702302 ], [ 7.400719166335922, 13.101790427714484 ], [ 7.227887153948874, 13.110926628412418 ], [ 7.136394977554637, 13.023158073350967 ], [ 7.010057926040979, 12.991496086339822 ], [ 6.928008080417079, 12.989852905351835 ], [ 6.79199218723404, 13.158604622293009 ], [ 6.778851461669998, 13.18316758140627 ], [ 6.801952999975335, 13.212953999914685 ], [ 6.765961000344266, 13.271951000126077 ], [ 6.798957000309645, 13.350950000030011 ], [ 6.853951000282819, 13.37495600000695 ], [ 6.901945, 13.357951999999891 ], [ 6.875948, 13.381946 ], [ 6.906952, 13.396954 ], [ 6.902946, 13.464955 ], [ 7.03895, 13.516955999999887 ], [ 7.100959, 13.50695 ], [ 7.162946000239621, 13.538956999721314 ], [ 7.221961999978209, 13.541951000194192 ], [ 7.307947000085978, 13.518955000028772 ], [ 7.44497021045779, 13.547963334099862 ] ] ] } },
{ "type": "Feature", "properties": { "loc": "NE-A2-0406" }, "geometry": { "type": "Polygon", "coordinates": [ [ [ 7.950974000232712, 14.514972999927895 ], [ 7.992969999832354, 14.512971999887831 ], [ 8.010974999995955, 14.453975999939157 ], [ 8.071972999924913, 14.446971999871856 ], [ 8.163972000151652, 14.423974000192814 ], [ 8.190973999972982, 14.392973999918031 ], [ 8.261976999917252, 14.382977000087145 ], [ 8.388976000019031, 14.264975000140918 ], [ 8.420971999876802, 14.193977999885394 ], [ 8.515974000065217, 14.155978000056741 ], [ 8.512973000149714, 14.068976999987122 ], [ 8.54297699994223, 14.009979999881423 ], [ 8.516973000199744, 13.876972000171701 ], [ 8.322951, 13.787952 ], [ 8.224971904549459, 13.716968600493669 ], [ 8.223972999953354, 13.670976000113129 ], [ 8.350968999986051, 13.582974999890336 ], [ 8.319971000207126, 13.538977999859565 ], [ 8.346970999988145, 13.370976999990898 ], [ 8.318985361150087, 13.350966782735281 ], [ 8.306970999576567, 13.288974000494154 ], [ 8.239674275811769, 13.211764799850041 ], [ 8.109963000356789, 13.287954000221376 ], [ 8.1329449998765, 13.340956000063837 ], [ 8.192949999807229, 13.388959999648726 ], [ 8.16896199991216, 13.49195300005654 ], [ 8.049986, 13.525989 ], [ 8.010961999937681, 13.575956000118179 ], [ 7.95894899988777, 13.524958000089367 ], [ 7.868954000003058, 13.557947999933813 ], [ 7.802954000000316, 13.677949 ], [ 7.738952000000175, 13.737952 ], [ 7.863961999820411, 13.76695699985186 ], [ 7.995965999705255, 13.857953999963186 ], [ 8.059945999932015, 13.927953999913374 ], [ 8.056958000133228, 13.970952999809256 ], [ 8.089949999911937, 14.006955999820843 ], [ 8.040945999926873, 14.007950999862402 ], [ 8.076947999973015, 14.062954000056411 ], [ 7.954952000115188, 14.037956000127512 ], [ 8.059958999901827, 14.299961000142964 ], [ 8.071951999890313, 14.446953999906604 ], [ 8.010952999938358, 14.45395699995073 ], [ 7.99294899984616, 14.512954000056428 ], [ 7.950948999995987, 14.514949000190942 ], [ 7.850859200393, 14.428816279278074 ], [ 7.950974000232712, 14.514972999927895 ] ] ] } },
{ "type": "Feature", "properties": { "loc": "NE-A2-0408" }, "geometry": { "type": "Polygon", "coordinates": [ [ [ 7.490958000077118, 15.004950000064472 ], [ 7.515957000029104, 14.815951999885897 ], [ 7.551954999982989, 14.771960999993468 ], [ 7.53895200008866, 14.708946999895485 ], [ 7.597951999813933, 14.696953999906999 ], [ 7.715959999898413, 14.636961000218225 ], [ 7.699954000009811, 14.530958999972317 ], [ 7.706972999973281, 14.467952000035673 ], [ 7.778964999859227, 14.419952999939252 ], [ 7.697948, 14.342949 ], [ 7.510959, 14.400958999999887 ], [ 7.44995, 14.483952999999889 ], [ 7.368951, 14.485953999999897 ], [ 7.355958, 14.511959 ], [ 7.220954, 14.509953 ], [ 7.221956, 14.488955 ], [ 7.192957, 14.462957 ], [ 7.16595099985987, 14.396960000139032 ], [ 7.177957000148126, 14.293944999968051 ], [ 7.204953999854112, 14.279951000156306 ], [ 7.188948999988686, 14.214961999935323 ], [ 7.224953000080824, 14.165952999902682 ], [ 7.227946999867584, 14.112955000073697 ], [ 7.25294499986434, 14.097952999968406 ], [ 7.248955, 13.937956 ], [ 7.324956000015913, 13.874955000010143 ], [ 7.335952999971727, 13.838955000010174 ], [ 7.408966000066584, 13.756953000007517 ], [ 7.216948, 13.761957 ], [ 7.134958, 13.80195 ], [ 7.074952, 13.803955 ], [ 7.043948, 13.857955 ], [ 6.960949, 13.883947999999897 ], [ 6.891722, 13.864934999999896 ], [ 6.743944000000145, 13.889956 ], [ 6.610953, 13.806955 ], [ 6.472959, 13.847955 ], [ 6.417961000000126, 13.803953 ], [ 6.361946, 13.84495 ], [ 6.330946000000136, 13.849953 ], [ 6.328947, 13.925951 ], [ 6.41695, 14.005951 ], [ 6.465946, 14.012956 ], [ 6.5239480000001, 14.045946 ], [ 6.529947000000146, 14.068956 ], [ 6.519957000000108, 14.13096 ], [ 6.541955, 14.141956 ], [ 6.535959, 14.281953999999892 ], [ 6.497955, 14.304958 ], [ 6.474947, 14.475954 ], [ 6.557954, 14.82795 ], [ 6.668953, 14.834948 ], [ 6.71495000000014, 14.869953 ], [ 6.749951, 14.922949999999897 ], [ 6.78295, 14.919956 ], [ 6.845952, 14.845955 ], [ 7.023004, 14.818954 ], [ 7.01224599996516, 15.43653499995898 ], [ 7.252947000223152, 15.359957000051079 ], [ 7.422942999781267, 15.286947000145208 ], [ 7.410968000207806, 15.142958999972329 ], [ 7.490958000077118, 15.004950000064472 ] ] ] } },
{ "type": "Feature", "properties": { "loc": "NE-A2-0410" }, "geometry": { "type": "Polygon", "coordinates": [ [ [ 7.690953999660742, 13.751958999927734 ], [ 7.738951999868281, 13.73795199970484 ], [ 7.813952999764449, 13.661954999743227 ], [ 7.862945097971284, 13.562961578733663 ], [ 7.829151000051958, 13.551038000123423 ], [ 7.852315999916858, 13.508796000055163 ], [ 7.835477000037226, 13.439327000026697 ], [ 7.896576000055987, 13.435126999696951 ], [ 7.899728999767174, 13.414245999938608 ], [ 7.869761686226472, 13.332709617740353 ], [ 7.804099082780112, 13.334239959891931 ], [ 7.611734268355118, 13.216600286793607 ], [ 7.577965999864343, 13.258949000415861 ], [ 7.564982000031538, 13.341984999900731 ], [ 7.524987000162163, 13.360984000104388 ], [ 7.427981999981569, 13.342989000334988 ], [ 7.389960000266026, 13.417953000323575 ], [ 7.426986999962303, 13.52398900058482 ], [ 7.487989000004568, 13.590980999866193 ], [ 7.483976000204461, 13.660980000219709 ], [ 7.448003472694374, 13.706950110152345 ], [ 7.541950000004714, 13.701954000269829 ], [ 7.690953999660742, 13.751958999927734 ] ] ] } },
{ "type": "Feature", "properties": { "loc": "NE-A2-0504" }, "geometry": { "type": "Polygon", "coordinates": [ [ [ 6.554966, 14.816959 ], [ 6.475957, 14.489958999999892 ], [ 6.481964, 14.353955 ], [ 6.395953, 14.277952 ], [ 6.28095, 14.247958 ], [ 6.19196, 14.261957 ], [ 6.134957, 14.246954 ], [ 6.069959, 14.268951 ], [ 6.016961, 14.264952 ], [ 5.724948, 14.191951 ], [ 5.724954, 14.179951 ], [ 5.703947, 14.190949 ], [ 5.648952, 14.383949 ], [ 5.675956, 14.445952 ], [ 5.674955, 14.483958 ], [ 5.697951, 14.515947 ], [ 5.971955, 14.556954 ], [ 5.98695, 14.63496 ], [ 6.10096, 14.634954 ], [ 6.097948, 14.674954 ], [ 6.111966, 14.693961 ], [ 6.156954, 14.704948999999896 ], [ 6.184951, 14.706953 ], [ 6.264962, 14.643948999999896 ], [ 6.475943, 14.624949999999899 ], [ 6.51995, 14.815952 ], [ 6.554966, 14.816959 ] ] ] } },
{ "type": "Feature", "properties": { "loc": "NE-A2-0507" }, "geometry": { "type": "Polygon", "coordinates": [ [ [ 6.516948, 14.282958 ], [ 6.535959, 14.281953999999892 ], [ 6.541948, 14.152951 ], [ 6.519957000000108, 14.13096 ], [ 6.5239480000001, 14.045946 ], [ 6.465946, 14.012956 ], [ 6.41695, 14.005951 ], [ 6.328946999986172, 13.925951000055399 ], [ 6.330946000425751, 13.849953000103117 ], [ 6.346953000248888, 13.847958999880223 ], [ 6.369961000068201, 13.802955000145385 ], [ 6.298951999902989, 13.775959999926286 ], [ 6.278950000210447, 13.73295599979178 ], [ 6.306494120175664, 13.658301952945013 ], [ 6.225430964835287, 13.666686058087336 ], [ 6.149414061977541, 13.642834663261301 ], [ 6.084767818348289, 13.679957390393511 ], [ 5.738952593172129, 13.800739833527249 ], [ 5.742957, 14.006956999999893 ], [ 5.728952, 14.024954 ], [ 5.724948, 14.191951 ], [ 6.016961, 14.264952 ], [ 6.069959, 14.268951 ], [ 6.134957, 14.246954 ], [ 6.19196, 14.261957 ], [ 6.300948, 14.249956 ], [ 6.395953, 14.277952 ], [ 6.482957, 14.362955 ], [ 6.516948, 14.282958 ] ] ] } },
{ "type": "Feature", "properties": { "loc": "NE-A2-0509" }, "geometry": { "type": "Polygon", "coordinates": [ [ [ 6.583957000079042, 15.908948000068452 ], [ 6.724963999910504, 15.426959999963614 ], [ 6.629944, 15.257955 ], [ 6.555946, 15.004953 ], [ 6.557954, 14.82795 ], [ 6.51995, 14.815952 ], [ 6.475943, 14.624949999999899 ], [ 6.264962, 14.643948999999896 ], [ 6.184969, 14.706939 ], [ 6.144013, 14.90082 ], [ 6.105969, 14.973768 ], [ 6.055242, 14.988358 ], [ 5.915746, 14.959178999999896 ], [ 5.837121, 14.990789999999894 ], [ 5.763569, 14.985926 ], [ 5.646951000062326, 15.01195400008319 ], [ 5.608949999789412, 15.15794900021767 ], [ 5.700161999790541, 15.280149999970334 ], [ 5.763568999971223, 15.338508000120594 ], [ 5.771178000023034, 15.506288999951874 ], [ 5.597399000022771, 15.502582999941179 ], [ 6.030555, 16.082219 ], [ 6.004851, 16.384085999999893 ], [ 6.255732999873619, 16.55747400003726 ], [ 6.343950000067476, 16.358955999803122 ], [ 6.384954999907976, 16.310955000079836 ], [ 6.640950999865712, 16.19194599984743 ], [ 6.583957000079042, 15.908948000068452 ] ] ] } },
{ "type": "Feature", "properties": { "loc": "NE-A2-0512" }, "geometry": { "type": "Polygon", "coordinates": [ [ [ 5.64893599997752, 15.008969000036139 ], [ 5.837121, 14.990789999999894 ], [ 5.915746, 14.959178999999896 ], [ 6.055242, 14.988358 ], [ 6.105969, 14.973768 ], [ 6.144013, 14.90082 ], [ 6.184969, 14.706939 ], [ 6.113944, 14.695954 ], [ 6.097948, 14.674954 ], [ 6.10096, 14.634954 ], [ 5.98695, 14.63496 ], [ 5.971955, 14.556954 ], [ 5.558955, 14.499953999999899 ], [ 5.364957000033885, 14.540949000028487 ], [ 5.380957999824019, 14.586950999988986 ], [ 5.414957000000817, 14.620954999831444 ], [ 5.505953000033545, 14.6359519998372 ], [ 5.562946999820215, 14.671946000148512 ], [ 5.577953000033484, 14.725947000171509 ], [ 5.606948999966241, 14.753954999806425 ], [ 5.592953000108412, 14.820953000035093 ], [ 5.638946999870185, 14.842954000108151 ], [ 5.664954000131437, 14.901954999856422 ], [ 5.64893599997752, 15.008969000036139 ] ] ] } },
{ "type": "Feature", "properties": { "loc": "NE-A2-0515" }, "geometry": { "type": "Polygon", "coordinates": [ [ [ 6.030555, 16.082219 ], [ 5.597399000022771, 15.502582999941179 ], [ 5.771178000023034, 15.506288999951874 ], [ 5.76864200001642, 15.399297999810564 ], [ 5.763568999971223, 15.338508000120594 ], [ 5.700161999790541, 15.280149999970334 ], [ 5.657044999815795, 15.207202000145177 ], [ 5.608968999959738, 15.157968000051287 ], [ 5.478961999966567, 15.20597300015762 ], [ 5.423969000052717, 15.176968999904368 ], [ 5.357814999922303, 15.219037000058506 ], [ 5.336957000159646, 15.290455000133303 ], [ 5.336957000159646, 15.417510999923074 ], [ 5.278738000001346, 15.416879999948847 ], [ 5.13737100000776, 15.466164000027067 ], [ 4.976726000224239, 15.798833999837498 ], [ 4.848210000217654, 16.236233000219098 ], [ 4.623308000004154, 16.624348000072882 ], [ 5.047410000005068, 17.215760999852066 ], [ 5.432957, 16.796844 ], [ 5.767097, 16.624348 ], [ 6.004851, 16.384085999999893 ], [ 6.030555, 16.082219 ] ] ] } },
{ "type": "Feature", "properties": { "loc": "NE-A2-0517" }, "geometry": { "type": "Polygon", "coordinates": [ [ [ 4.243463542981905, 18.675385941733314 ], [ 4.869969999689516, 18.677971999833417 ], [ 4.840975999916245, 18.569963000317699 ], [ 4.781969000143024, 18.490969999791147 ], [ 4.760968000246796, 18.425971000686623 ], [ 4.817966000004678, 18.248960000029466 ], [ 4.817962999866332, 18.128966000006386 ], [ 4.728953999701107, 18.001956000194742 ], [ 4.733957000189189, 17.947954000102513 ], [ 4.897739999675027, 17.33520499973644 ], [ 5.047410000345022, 17.215760999895718 ], [ 4.623308000337727, 16.624348000485323 ], [ 4.848209999865383, 16.236232999878531 ], [ 4.976725999878774, 15.79883400001458 ], [ 5.137371000345172, 15.466164000393793 ], [ 5.278738000332232, 15.416880000237311 ], [ 5.336956999739528, 15.417510999658397 ], [ 5.336956999739528, 15.290455000423421 ], [ 5.272400000333531, 15.321557000280828 ], [ 5.199707999898059, 15.391922000425469 ], [ 5.038987000423512, 15.401977000063992 ], [ 4.944164000142274, 15.387990999910208 ], [ 4.867574999860137, 15.314563999754276 ], [ 4.845692999805879, 15.209667999903763 ], [ 4.094739000478271, 15.194073000194294 ], [ 3.875264597456989, 15.695463908657947 ], [ 3.905695915308027, 15.77408027580957 ], [ 3.929571867021827, 15.909518241599061 ], [ 4.004404067767295, 15.985980987857793 ], [ 3.987740992726415, 16.060646056795573 ], [ 4.076467990679008, 16.320419311827269 ], [ 4.076757907824968, 16.912309647098024 ], [ 4.241202830819768, 16.987701415913104 ], [ 4.243463542981905, 18.675385941733314 ] ] ] } },
{ "type": "Feature", "properties": { "loc": "NE-A2-0519" }, "geometry": { "type": "Polygon", "coordinates": [ [ [ 5.357814999922368, 15.219037000058563 ], [ 5.423969000052693, 15.176968999904432 ], [ 5.478961999966543, 15.205973000157655 ], [ 5.60896899995987, 15.157968000051426 ], [ 5.665951000187135, 14.905950999814081 ], [ 5.638946999870257, 14.842954000108193 ], [ 5.592953000108537, 14.820953000035047 ], [ 5.606948999966278, 14.753954999806467 ], [ 5.57795300003346, 14.725947000171573 ], [ 5.562946999820156, 14.671946000148466 ], [ 5.505953000033685, 14.635951999837175 ], [ 5.414957000000868, 14.62095499983144 ], [ 5.380957999824091, 14.586950999989028 ], [ 5.364957000033826, 14.540949000028434 ], [ 5.300946000000181, 14.552951 ], [ 5.269952000000103, 14.530961 ], [ 5.17695, 14.535948999999846 ], [ 5.005948, 14.470951999999897 ], [ 4.907957, 14.497955 ], [ 4.850951, 14.473958 ], [ 4.566952, 14.579947 ], [ 4.482955000000118, 14.692955 ], [ 4.207958999895368, 14.684947999894518 ], [ 4.12195999991593, 14.77595400010506 ], [ 4.128960999914, 15.01095200018392 ], [ 4.090673000145443, 15.196082000139029 ], [ 4.845693000125266, 15.209667999854673 ], [ 4.867575000215027, 15.31456400015702 ], [ 4.944163999906493, 15.387990999785302 ], [ 5.038987000046916, 15.401976999862313 ], [ 5.205535000141879, 15.38903600004852 ], [ 5.27240000000188, 15.32155699997071 ], [ 5.336957000159771, 15.29045500013325 ], [ 5.357814999922368, 15.219037000058563 ] ], [ [ 5.41695599977794, 14.993948999967984 ], [ 5.382977000000153, 15.019071 ], [ 5.359929, 14.98589 ], [ 5.300881, 14.997961 ], [ 5.210573, 14.984641 ], [ 5.146315000000186, 14.949676 ], [ 5.05427, 14.956336 ], [ 4.993112000000167, 15.0139 ], [ 4.994949000000133, 14.934951 ], [ 5.066950000000134, 14.868953 ], [ 4.986948000000154, 14.834958999999856 ], [ 4.970949000000132, 14.815958 ], [ 4.974954, 14.788952 ], [ 5.057954000000109, 14.785957 ], [ 5.071963000000153, 14.764954999999873 ], [ 5.130684, 14.741549 ], [ 5.167155, 14.773185 ], [ 5.198416000000179, 14.769855 ], [ 5.23315, 14.726563999999883 ], [ 5.319985, 14.748209 ], [ 5.351950000043018, 14.73295399990559 ], [ 5.352954999854887, 14.835955000156162 ], [ 5.443953999956705, 14.919948000144586 ], [ 5.380953000158513, 14.928960000196582 ], [ 5.41695599977794, 14.993948999967984 ] ] ] } },
{ "type": "Feature", "properties": { "loc": "NE-A2-0603" }, "geometry": { "type": "Polygon", "coordinates": [ [ [ 2.063961999877892, 13.897959000187949 ], [ 2.182998000005507, 13.8369910002152 ], [ 2.241993000065121, 13.858987000173091 ], [ 2.540993000238632, 13.873993999916507 ], [ 2.61199399994577, 13.823995000224905 ], [ 2.641995000219697, 13.72899599987802 ], [ 2.687993999968472, 13.667995000082485 ], [ 2.82399499983915, 13.657994000283775 ], [ 2.802995000042006, 13.603996000207825 ], [ 2.85099799974867, 13.548987999699964 ], [ 2.840960999957463, 13.459949000023492 ], [ 2.862969020415149, 13.4069170604395 ], [ 2.833967999947293, 13.335947000074118 ], [ 2.828969999818507, 13.250948999845331 ], [ 2.757964999827975, 13.269957000154804 ], [ 2.694959999937683, 13.26495499993376 ], [ 2.661000976038816, 13.247974974385563 ], [ 2.660963999830055, 13.217954999908805 ], [ 2.584958000091429, 13.181953999885661 ], [ 2.506962999906945, 13.196957000029848 ], [ 2.472999000000118, 13.168993 ], [ 2.469993, 13.114993 ], [ 2.535998000000137, 12.97499 ], [ 2.699993, 12.946985 ], [ 2.698997000000101, 12.908989000000144 ], [ 2.62200294962097, 12.877983814706457 ], [ 2.593990999816174, 12.817988999842829 ], [ 2.629995999931576, 12.6849840002021 ], [ 2.623998000127457, 12.595982999854378 ], [ 2.564996000223938, 12.514989000268812 ], [ 2.511997000070152, 12.582983999938442 ], [ 2.544002999982484, 12.645981000102609 ], [ 2.477995000098008, 12.687988000114121 ], [ 2.500993999800047, 12.734990000185338 ], [ 2.477995000098008, 12.789982000125661 ], [ 2.388001999809606, 12.880989999985477 ], [ 2.371001999934594, 12.978992000131413 ], [ 2.385990000182434, 13.022978999931674 ], [ 2.369998, 13.192992 ], [ 2.126988, 13.154987999999896 ], [ 2.102989, 13.210986 ], [ 2.054996, 13.243988999999896 ], [ 1.997994, 13.226992 ], [ 1.997996, 13.184990999999897 ], [ 1.93599299982846, 13.154980999786154 ], [ 1.907997000020542, 13.180986000001322 ], [ 1.850001999993664, 13.361988000234355 ], [ 1.804995000120466, 13.397987000188323 ], [ 1.747995999866822, 13.483992000318974 ], [ 1.534998000258833, 13.539986999688676 ], [ 1.484998999832796, 13.616978999873481 ], [ 1.490965999996372, 13.669960000131471 ], [ 1.58696199985989, 13.723952999954587 ], [ 1.630967855596341, 13.778954023526175 ], [ 1.692965000128885, 13.746959999841231 ], [ 1.74898999972418, 13.77699399977443 ], [ 1.788986818912383, 13.848957957676706 ], [ 1.857966999928826, 13.880954000131691 ], [ 1.88596100010455, 13.869947000011269 ], [ 1.926963999899054, 13.879953000049667 ], [ 1.979964000223719, 13.857956000068867 ], [ 2.063961999877892, 13.897959000187949 ] ], [ [ 2.154995999887386, 13.601990999926556 ], [ 2.055996000112201, 13.586983000116799 ], [ 1.969996000108085, 13.507989999902321 ], [ 2.040999, 13.48199 ], [ 2.073993, 13.43099 ], [ 2.101998, 13.441986 ], [ 2.121, 13.422984999999894 ], [ 2.205, 13.45899 ], [ 2.200995, 13.524981 ], [ 2.234003999885146, 13.52998599998136 ], [ 2.234998999837265, 13.569984999999036 ], [ 2.261999000062018, 13.620991999785677 ], [ 2.214991999875724, 13.63298899986642 ], [ 2.154995999887386, 13.601990999926556 ] ] ] } },
{ "type": "Feature", "properties": { "loc": "NE-A2-0607" }, "geometry": { "type": "Polygon", "coordinates": [ [ [ 3.335775000173977, 14.625072000123769 ], [ 3.418953999829664, 14.621233000188756 ], [ 3.628882000091358, 14.690345000176848 ], [ 3.684334999869452, 14.736420000007673 ], [ 3.83040570208951, 14.757572592333918 ], [ 3.851638122729226, 14.700430351212308 ], [ 3.834324096807715, 14.504204726199816 ], [ 3.848752451892277, 14.434948622513506 ], [ 3.910428968363209, 14.358481660255258 ], [ 3.865994999792064, 14.322993999988949 ], [ 3.770993000096854, 14.196995999832502 ], [ 3.73999599989133, 14.030995999782476 ], [ 3.721961000022787, 14.005952000250428 ], [ 3.48596199987202, 13.804952999853022 ], [ 3.327963000018062, 13.743950000214351 ], [ 3.16397656711128, 13.809951382401238 ], [ 3.129996000079802, 13.729993000087255 ], [ 3.110994000034171, 13.758994000069809 ], [ 3.077994999930342, 13.762994000169755 ], [ 3.026994000184078, 13.800994999816147 ], [ 3.018996000076455, 13.827996999908461 ], [ 3.050994999930388, 13.873995000065893 ], [ 2.939995000080251, 13.849995999962257 ], [ 2.912995000080296, 13.877996000212018 ], [ 2.870997000022633, 13.858993999869913 ], [ 2.616994000283976, 13.880993999969888 ], [ 2.560995999890578, 13.910996000028604 ], [ 2.533993000277088, 13.971995000103394 ], [ 2.542974152828701, 14.009958173907862 ], [ 2.562994000373151, 14.025995000103393 ], [ 2.56099649097917, 14.074982961386269 ], [ 2.644966999937224, 14.114957999942153 ], [ 2.754962000071823, 14.101955000047735 ], [ 2.765995999885926, 14.111993999743184 ], [ 2.732996999782098, 14.156996000285123 ], [ 2.799994000193382, 14.166992999946899 ], [ 2.754993999743713, 14.253995000188997 ], [ 2.814967999786009, 14.408952000005932 ], [ 2.786961000112806, 14.491952000055903 ], [ 2.805967000189589, 14.664957000336472 ], [ 2.787958999971649, 14.735951999956338 ], [ 2.786960000202874, 14.885950999712367 ], [ 2.865961000165949, 14.911953999976131 ], [ 2.929970712888728, 14.955964808480378 ], [ 3.133768999985729, 14.740259999936995 ], [ 3.323893000046971, 14.674986999912516 ], [ 3.335775000173977, 14.625072000123769 ] ] ] } },
{ "type": "Feature", "properties": { "loc": "NE-A2-0614" }, "geometry": { "type": "MultiPolygon", "coordinates": [ [ [ [ 1.019965, 14.550951 ], [ 1.133962, 14.394949 ], [ 1.21096, 14.350949 ], [ 1.253962, 14.296954 ], [ 1.33095999992928, 14.240956999855499 ], [ 1.212961000016874, 14.164953000090748 ], [ 1.063966999980468, 14.038951000044637 ], [ 1.056956000201512, 13.951950999969771 ], [ 1.03095399993943, 13.918946999936495 ], [ 1.031967999837966, 13.868956999666366 ], [ 0.9499610000509, 13.745959000021841 ], [ 1.010952999967816, 13.71395400030428 ], [ 1.036960000490459, 13.735956000496437 ], [ 1.024965000421249, 13.745956000296573 ], [ 1.076958999645003, 13.817960000481051 ], [ 1.112957999598882, 13.823960000181241 ], [ 1.120959999890956, 13.795956000196625 ], [ 1.19395800004852, 13.771953000358046 ], [ 1.232967000313709, 13.824952000062147 ], [ 1.294962000282971, 13.786958999885286 ], [ 1.3339610000869, 13.785959999681658 ], [ 1.374957000252172, 13.718952000561764 ], [ 1.279965000271441, 13.707956999843081 ], [ 1.207958999994694, 13.73195200021204 ], [ 1.170961999883277, 13.716956000246601 ], [ 1.11696500002155, 13.732954999700837 ], [ 0.984712383456574, 13.572485877848379 ], [ 0.907100022135174, 13.618650435596553 ], [ 0.827189982018903, 13.618650435596553 ], [ 0.78163999307804, 13.642700194785569 ], [ 0.778439999293421, 13.664279938096087 ], [ 0.796920001643584, 13.677269936385823 ], [ 0.772599995280418, 13.692049980349736 ], [ 0.635519980749364, 13.693429946861908 ], [ 0.605300008975127, 13.709759711568843 ], [ 0.620480001237964, 13.786629677145275 ], [ 0.589420021303808, 13.787560462872435 ], [ 0.578170001631171, 13.812979697982026 ], [ 0.530439973312933, 13.840680121917455 ], [ 0.520770013012526, 13.873929977114159 ], [ 0.473360002149223, 13.917690277411783 ], [ 0.480500013279648, 13.965769767960996 ], [ 0.455209999956216, 13.949959754739467 ], [ 0.450280010928447, 13.977720260582167 ], [ 0.398790001671876, 14.027870178366637 ], [ 0.384059995087358, 14.070500374393387 ], [ 0.395060003231182, 14.086339951028499 ], [ 0.369960010360812, 14.107069969004478 ], [ 0.357030004046108, 14.148400307428872 ], [ 0.391000003062323, 14.190159797836994 ], [ 0.38688999429247, 14.221960068203217 ], [ 0.403759986249006, 14.249659537957911 ], [ 0.334739866466313, 14.347854850221804 ], [ 0.654964999974736, 14.337951999842797 ], [ 0.721957, 14.435946 ], [ 0.810952, 14.491954 ], [ 1.019965, 14.550951 ] ] ], [ [ [ 0.512084960794143, 15.001423835927792 ], [ 0.537763058560112, 14.980949401680039 ], [ 0.73595900014952, 14.944956000005867 ], [ 0.843961000241786, 14.885951000324855 ], [ 0.853958999949742, 14.855954000163436 ], [ 0.838959999845943, 14.791958999694561 ], [ 0.846956999907475, 14.763951000424775 ], [ 0.877965999972772, 14.744948000036668 ], [ 0.876962000437795, 14.724952999767567 ], [ 0.864254999910172, 14.710551000214984 ], [ 0.714891999907716, 14.681655999611127 ], [ 0.62234999959466, 14.616339000231111 ], [ 0.523534000435552, 14.513046999705743 ], [ 0.42314899996819, 14.447730000325727 ], [ 0.26726000029059, 14.389670000156869 ], [ 0.192009999703511, 14.460639953557504 ], [ 0.166250005175459, 14.533439636116814 ], [ 0.236100003154447, 14.749480246802378 ], [ 0.201649993694039, 14.840350151125055 ], [ 0.235740006338001, 14.886070251327528 ], [ 0.229350923947833, 14.98966980020759 ], [ 0.401776074647961, 14.969599723634825 ], [ 0.512084960794143, 15.001423835927792 ] ] ] ] } },
{ "type": "Feature", "properties": { "loc": "NE-A2-0616" }, "geometry": { "type": "Polygon", "coordinates": [ [ [ 1.330959999812839, 14.24095700015517 ], [ 1.403961000153795, 14.21895400010202 ], [ 1.489963000149994, 14.137953999877269 ], [ 1.542956999800569, 13.885956000024908 ], [ 1.576959000292386, 13.859946000263186 ], [ 1.604965000369271, 13.791955999924994 ], [ 1.645961000007765, 13.779960999959435 ], [ 1.626958999840631, 13.775952000131415 ], [ 1.582962999832946, 13.720950999983312 ], [ 1.490965999996372, 13.669960000131471 ], [ 1.484998999612794, 13.616978999970559 ], [ 1.456962999951137, 13.623950000381964 ], [ 1.42895499978207, 13.582952000124422 ], [ 1.361983104845108, 13.602959118758058 ], [ 1.360000999954844, 13.566985000347227 ], [ 1.39700000015853, 13.521981000612389 ], [ 1.370960999958845, 13.499948999936091 ], [ 1.306985578630235, 13.512983336601465 ], [ 1.333990000147032, 13.45598100031264 ], [ 1.304995000327689, 13.425984000151221 ], [ 1.325997000270038, 13.375982000158899 ], [ 1.261002999597447, 13.337987999935947 ], [ 1.249185065247213, 13.340392421063125 ], [ 1.280969976991506, 13.358619689636715 ], [ 1.240929960657797, 13.391369820350647 ], [ 1.136669992834558, 13.414019585125487 ], [ 1.087890029409997, 13.46078014427798 ], [ 1.014089941905935, 13.487380028255398 ], [ 1.00999998981631, 13.548689841952406 ], [ 0.984712383978023, 13.572485878110481 ], [ 1.116964999643719, 13.732954999963027 ], [ 1.170962000404638, 13.716955999609421 ], [ 1.207958999616774, 13.731951999574861 ], [ 1.279964999893521, 13.707957000105182 ], [ 1.372953000089558, 13.715956000258895 ], [ 1.345964000147179, 13.773964999874551 ], [ 1.232966999935789, 13.824951999424968 ], [ 1.199959000316251, 13.774950999478737 ], [ 1.177959000216364, 13.774956999755457 ], [ 1.120960000412316, 13.795955999559446 ], [ 1.108967000435377, 13.823957000305072 ], [ 1.070964999843524, 13.812959999494119 ], [ 1.021969000377729, 13.718955000062945 ], [ 0.986963000350846, 13.718954000016854 ], [ 0.949961000008801, 13.745958999797754 ], [ 1.031968000131775, 13.868956999855371 ], [ 1.030954000135629, 13.918947000193622 ], [ 1.056956000427731, 13.951950999628622 ], [ 1.063966999985708, 14.038950999778539 ], [ 1.257959000416195, 14.194950000032165 ], [ 1.330959999812839, 14.24095700015517 ] ] ] } }
]
}
