{
"type": "FeatureCollection",
"name": "regions_PL",
"crs": { "type": "name", "properties": { "name": "urn:ogc:def:crs:OGC:1.3:CRS84" } },
"features": [
{ "type": "Feature", "properties": { "loc": "PL21" }, "geometry": { "type": "Polygon", "coordinates": [ [ [ 20.681539, 50.205875 ], [ 20.787513, 50.286476 ], [ 20.836381, 50.275745 ], [ 20.893522, 50.304114 ], [ 21.055872, 50.317024 ], [ 21.133282, 50.352162 ], [ 21.17643, 50.331838 ], [ 21.208832, 50.354897 ], [ 21.219496, 50.312031 ], [ 21.149417, 50.258112 ], [ 21.16872, 50.24056 ], [ 21.146868, 50.235698 ], [ 21.169172, 50.20645 ], [ 21.15133, 50.131013 ], [ 21.182057, 50.120178 ], [ 21.185768, 50.099954 ], [ 21.149249, 50.051245 ], [ 21.189568, 50.027554 ], [ 21.150608, 49.982917 ], [ 21.181287, 49.930485 ], [ 21.280372, 49.924375 ], [ 21.28111, 49.896654 ], [ 21.229532, 49.883403 ], [ 21.227079, 49.855557 ], [ 21.334621, 49.82594 ], [ 21.33941, 49.811871 ], [ 21.277784, 49.802016 ], [ 21.241772, 49.776104 ], [ 21.259722, 49.754374 ], [ 21.313104, 49.744421 ], [ 21.324271, 49.700789 ], [ 21.345067, 49.689851 ], [ 21.360404, 49.63534 ], [ 21.331763, 49.592186 ], [ 21.375124, 49.569024 ], [ 21.364411, 49.544527 ], [ 21.414547, 49.497257 ], [ 21.39378, 49.485761 ], [ 21.406543, 49.468677 ], [ 21.397713, 49.433794 ], [ 21.278208, 49.45748 ], [ 21.201052, 49.403469 ], [ 21.126166, 49.432575 ], [ 21.064629, 49.422415 ], [ 21.055836, 49.408566 ], [ 21.095632, 49.371412 ], [ 21.040971, 49.361375 ], [ 20.984319, 49.309485 ], [ 20.932314, 49.299198 ], [ 20.864939, 49.343207 ], [ 20.808264, 49.344876 ], [ 20.731295, 49.415323 ], [ 20.649949, 49.404464 ], [ 20.61494, 49.417833 ], [ 20.598512, 49.38853 ], [ 20.569626, 49.377414 ], [ 20.43856, 49.41534 ], [ 20.400788, 49.393678 ], [ 20.331166, 49.400572 ], [ 20.315038, 49.348826 ], [ 20.219697, 49.348394 ], [ 20.144264, 49.31127 ], [ 20.101678, 49.246639 ], [ 20.082184, 49.182707 ], [ 19.977433, 49.230305 ], [ 19.914442, 49.230903 ], [ 19.845474, 49.194782 ], [ 19.763522, 49.209718 ], [ 19.769692, 49.23709 ], [ 19.819234, 49.279665 ], [ 19.795903, 49.300669 ], [ 19.80219, 49.362542 ], [ 19.788732, 49.407523 ], [ 19.756057, 49.409915 ], [ 19.720585, 49.389443 ], [ 19.636629, 49.411156 ], [ 19.639454, 49.454675 ], [ 19.577818, 49.460438 ], [ 19.533603, 49.532572 ], [ 19.527432, 49.570989 ], [ 19.476995, 49.590386 ], [ 19.47075, 49.666566 ], [ 19.380106, 49.692505 ], [ 19.443303, 49.736668 ], [ 19.438522, 49.753328 ], [ 19.414952, 49.775265 ], [ 19.40157, 49.763876 ], [ 19.321323, 49.777673 ], [ 19.28863, 49.818186 ], [ 19.288678, 49.850891 ], [ 19.212003, 49.869971 ], [ 19.175553, 49.855569 ], [ 19.160401, 49.864537 ], [ 19.194013, 49.890739 ], [ 19.186318, 49.949412 ], [ 19.12043, 49.939735 ], [ 19.09321, 49.956659 ], [ 19.118487, 49.966562 ], [ 19.118375, 50.003344 ], [ 19.155864, 50.048597 ], [ 19.219801, 50.065294 ], [ 19.253811, 50.134193 ], [ 19.265756, 50.120372 ], [ 19.279477, 50.141253 ], [ 19.34043, 50.149966 ], [ 19.34441, 50.187649 ], [ 19.421931, 50.213838 ], [ 19.419438, 50.22846 ], [ 19.33576, 50.258537 ], [ 19.387358, 50.281063 ], [ 19.41818, 50.326418 ], [ 19.478977, 50.326894 ], [ 19.470681, 50.365814 ], [ 19.514614, 50.41186 ], [ 19.644039, 50.411162 ], [ 19.706709, 50.444163 ], [ 19.844538, 50.434195 ], [ 19.895435, 50.453845 ], [ 19.903365, 50.472533 ], [ 19.966274, 50.476428 ], [ 19.949967, 50.504782 ], [ 19.980164, 50.517644 ], [ 20.066099, 50.508666 ], [ 20.106559, 50.487888 ], [ 20.202915, 50.493391 ], [ 20.262908, 50.47036 ], [ 20.267925, 50.431749 ], [ 20.330606, 50.362087 ], [ 20.299937, 50.348351 ], [ 20.297987, 50.327705 ], [ 20.3542, 50.283993 ], [ 20.339343, 50.267415 ], [ 20.384919, 50.241198 ], [ 20.381533, 50.216471 ], [ 20.423543, 50.19513 ], [ 20.575491, 50.189919 ], [ 20.637573, 50.209702 ], [ 20.681539, 50.205875 ] ], [ [ 19.352946, 50.180395 ], [ 19.367715, 50.169277 ], [ 19.371678, 50.182097 ], [ 19.352946, 50.180395 ] ] ] } },
{ "type": "Feature", "properties": { "loc": "PL22" }, "geometry": { "type": "MultiPolygon", "coordinates": [ [ [ [ 19.243143, 51.036844 ], [ 19.32022, 51.043078 ], [ 19.328333, 51.017857 ], [ 19.359975, 50.9965 ], [ 19.398647, 50.993378 ], [ 19.481536, 50.884338 ], [ 19.576044, 50.904108 ], [ 19.688394, 50.845566 ], [ 19.727236, 50.845194 ], [ 19.74706, 50.86597 ], [ 19.805662, 50.844856 ], [ 19.825, 50.828152 ], [ 19.818234, 50.807928 ], [ 19.78931, 50.815214 ], [ 19.785843, 50.783025 ], [ 19.747748, 50.759974 ], [ 19.711382, 50.759187 ], [ 19.71295, 50.729156 ], [ 19.865492, 50.690897 ], [ 19.843286, 50.654518 ], [ 19.908968, 50.6306 ], [ 19.858613, 50.615593 ], [ 19.798426, 50.559284 ], [ 19.894137, 50.539136 ], [ 19.916671, 50.5132 ], [ 19.949967, 50.504782 ], [ 19.966274, 50.476428 ], [ 19.903365, 50.472533 ], [ 19.895435, 50.453845 ], [ 19.844538, 50.434195 ], [ 19.706709, 50.444163 ], [ 19.644039, 50.411162 ], [ 19.514614, 50.41186 ], [ 19.470681, 50.365814 ], [ 19.478977, 50.326894 ], [ 19.41818, 50.326418 ], [ 19.387358, 50.281063 ], [ 19.33576, 50.258537 ], [ 19.419438, 50.22846 ], [ 19.421931, 50.213838 ], [ 19.34441, 50.187649 ], [ 19.34043, 50.149966 ], [ 19.279477, 50.141253 ], [ 19.265756, 50.120372 ], [ 19.253811, 50.134193 ], [ 19.219801, 50.065294 ], [ 19.155864, 50.048597 ], [ 19.118375, 50.003344 ], [ 19.118487, 49.966562 ], [ 19.09321, 49.956659 ], [ 19.12043, 49.939735 ], [ 19.186318, 49.949412 ], [ 19.194013, 49.890739 ], [ 19.160401, 49.864537 ], [ 19.175553, 49.855569 ], [ 19.212003, 49.869971 ], [ 19.288678, 49.850891 ], [ 19.28863, 49.818186 ], [ 19.321323, 49.777673 ], [ 19.40157, 49.763876 ], [ 19.414952, 49.775265 ], [ 19.443303, 49.736668 ], [ 19.380106, 49.692505 ], [ 19.47075, 49.666566 ], [ 19.478606, 49.627755 ], [ 19.375441, 49.56741 ], [ 19.361247, 49.538255 ], [ 19.261938, 49.529871 ], [ 19.237665, 49.510924 ], [ 19.225381, 49.459205 ], [ 19.190152, 49.438083 ], [ 19.188195, 49.412028 ], [ 19.117846, 49.403837 ], [ 19.076866, 49.416845 ], [ 19.029751, 49.39564 ], [ 18.98066, 49.397003 ], [ 18.971571, 49.410409 ], [ 18.985776, 49.430971 ], [ 18.963319, 49.45945 ], [ 18.968356, 49.504163 ], [ 18.841209, 49.526549 ], [ 18.856963, 49.547735 ], [ 18.838689, 49.564508 ], [ 18.803312, 49.677884 ], [ 18.740115, 49.678945 ], [ 18.704377, 49.704122 ], [ 18.629098, 49.723072 ], [ 18.571747, 49.829052 ], [ 18.600256, 49.860015 ], [ 18.569419, 49.879944 ], [ 18.570271, 49.919022 ], [ 18.496949, 49.904166 ], [ 18.42665, 49.93643 ], [ 18.342218, 49.945204 ], [ 18.315951, 49.918647 ], [ 18.284837, 49.934758 ], [ 18.274234, 49.963206 ], [ 18.220894, 49.970062 ], [ 18.204946, 49.995066 ], [ 18.156749, 49.984781 ], [ 18.110947, 49.998205 ], [ 18.084604, 50.043891 ], [ 18.035061, 50.065772 ], [ 18.068204, 50.107707 ], [ 18.059781, 50.174652 ], [ 18.23549, 50.192516 ], [ 18.248021, 50.219641 ], [ 18.361293, 50.25563 ], [ 18.425867, 50.248965 ], [ 18.402746, 50.278169 ], [ 18.39736, 50.33229 ], [ 18.361604, 50.355606 ], [ 18.391212, 50.389767 ], [ 18.367926, 50.422008 ], [ 18.386769, 50.436066 ], [ 18.38233, 50.479196 ], [ 18.443758, 50.478761 ], [ 18.478104, 50.460598 ], [ 18.433751, 50.531109 ], [ 18.43939, 50.544586 ], [ 18.607474, 50.550011 ], [ 18.59494, 50.604647 ], [ 18.520901, 50.628796 ], [ 18.490912, 50.704837 ], [ 18.564979, 50.752795 ], [ 18.518718, 50.79912 ], [ 18.555523, 50.810562 ], [ 18.583733, 50.84813 ], [ 18.615878, 50.853587 ], [ 18.652754, 50.917725 ], [ 18.616705, 50.956935 ], [ 18.661152, 50.972583 ], [ 18.661079, 51.0042 ], [ 18.692166, 51.01617 ], [ 18.672955, 51.056902 ], [ 18.857056, 51.072915 ], [ 18.889547, 51.060626 ], [ 18.923335, 51.095883 ], [ 19.000743, 51.071748 ], [ 19.053513, 51.026986 ], [ 19.088769, 51.032607 ], [ 19.121073, 51.003303 ], [ 19.141708, 51.009489 ], [ 19.212003, 50.985491 ], [ 19.249189, 51.002157 ], [ 19.243143, 51.036844 ] ] ], [ [ [ 19.367715, 50.169277 ], [ 19.352946, 50.180395 ], [ 19.371678, 50.182097 ], [ 19.367715, 50.169277 ] ] ] ] } },
{ "type": "Feature", "properties": { "loc": "PL41" }, "geometry": { "type": "Polygon", "coordinates": [ [ [ 16.892248, 53.655869 ], [ 16.899688, 53.621021 ], [ 16.952216, 53.549059 ], [ 16.996855, 53.550045 ], [ 17.003639, 53.519607 ], [ 17.052723, 53.520002 ], [ 17.095168, 53.54101 ], [ 17.269888, 53.536069 ], [ 17.340045, 53.498406 ], [ 17.390653, 53.490964 ], [ 17.383809, 53.47221 ], [ 17.250849, 53.375743 ], [ 17.336455, 53.345619 ], [ 17.438794, 53.267514 ], [ 17.409601, 53.230588 ], [ 17.337695, 53.210646 ], [ 17.344938, 53.16284 ], [ 17.375679, 53.139914 ], [ 17.330114, 53.07274 ], [ 17.329167, 53.027627 ], [ 17.310171, 52.997673 ], [ 17.324353, 52.980365 ], [ 17.410557, 52.973939 ], [ 17.477838, 52.948938 ], [ 17.510992, 52.922738 ], [ 17.52196, 52.866937 ], [ 17.505015, 52.801385 ], [ 17.417695, 52.774215 ], [ 17.423514, 52.756194 ], [ 17.482696, 52.724493 ], [ 17.474234, 52.686264 ], [ 17.51135, 52.6759 ], [ 17.584525, 52.702427 ], [ 17.63001, 52.702006 ], [ 17.636455, 52.654595 ], [ 17.674929, 52.644749 ], [ 17.685487, 52.607616 ], [ 17.737624, 52.629461 ], [ 17.739106, 52.648601 ], [ 17.800078, 52.646719 ], [ 17.882401, 52.625831 ], [ 17.914147, 52.582673 ], [ 17.981283, 52.567067 ], [ 17.993619, 52.547133 ], [ 18.092049, 52.55012 ], [ 18.101779, 52.51732 ], [ 18.192697, 52.502613 ], [ 18.213946, 52.484652 ], [ 18.26541, 52.485839 ], [ 18.349954, 52.538602 ], [ 18.383014, 52.528766 ], [ 18.389603, 52.473336 ], [ 18.459334, 52.478708 ], [ 18.491528, 52.50277 ], [ 18.528149, 52.497327 ], [ 18.565815, 52.464155 ], [ 18.646033, 52.449705 ], [ 18.683208, 52.402835 ], [ 18.710551, 52.398677 ], [ 18.75071, 52.361369 ], [ 18.758827, 52.333935 ], [ 18.904981, 52.365109 ], [ 18.925601, 52.396454 ], [ 18.97299, 52.373773 ], [ 18.972643, 52.357142 ], [ 19.04712, 52.332804 ], [ 19.040247, 52.275971 ], [ 19.100068, 52.257107 ], [ 19.078407, 52.229584 ], [ 19.081964, 52.209096 ], [ 18.993951, 52.212124 ], [ 18.931705, 52.195861 ], [ 18.911154, 52.14122 ], [ 18.944916, 52.123113 ], [ 18.943816, 52.10719 ], [ 18.921675, 52.080468 ], [ 18.858523, 52.085598 ], [ 18.827809, 52.064188 ], [ 18.750197, 52.073944 ], [ 18.720792, 52.063837 ], [ 18.730755, 51.975429 ], [ 18.718897, 51.965711 ], [ 18.764491, 51.926148 ], [ 18.700591, 51.864642 ], [ 18.684191, 51.823515 ], [ 18.59269, 51.846846 ], [ 18.521843, 51.836021 ], [ 18.504265, 51.852144 ], [ 18.471966, 51.851005 ], [ 18.465022, 51.82504 ], [ 18.445698, 51.823715 ], [ 18.438734, 51.798108 ], [ 18.416607, 51.789773 ], [ 18.428867, 51.763823 ], [ 18.404813, 51.722011 ], [ 18.41004, 51.703894 ], [ 18.358442, 51.668534 ], [ 18.378176, 51.649237 ], [ 18.353573, 51.630064 ], [ 18.364987, 51.618077 ], [ 18.353507, 51.603252 ], [ 18.373466, 51.595058 ], [ 18.362298, 51.535427 ], [ 18.379543, 51.513636 ], [ 18.380137, 51.477825 ], [ 18.326084, 51.421729 ], [ 18.215684, 51.452163 ], [ 18.197003, 51.441247 ], [ 18.208709, 51.423657 ], [ 18.193655, 51.39059 ], [ 18.151128, 51.389372 ], [ 18.129973, 51.360547 ], [ 18.07945, 51.350428 ], [ 18.110137, 51.309509 ], [ 18.108427, 51.264789 ], [ 18.169431, 51.267074 ], [ 18.177419, 51.224438 ], [ 18.163682, 51.172517 ], [ 18.103842, 51.155835 ], [ 18.078688, 51.163398 ], [ 18.042589, 51.132893 ], [ 17.939456, 51.108865 ], [ 17.82624, 51.119461 ], [ 17.819402, 51.135979 ], [ 17.847442, 51.179058 ], [ 17.765149, 51.207385 ], [ 17.742939, 51.275968 ], [ 17.759788, 51.319007 ], [ 17.707811, 51.365603 ], [ 17.748562, 51.412203 ], [ 17.721579, 51.420503 ], [ 17.703912, 51.401278 ], [ 17.637358, 51.42164 ], [ 17.571502, 51.406623 ], [ 17.544901, 51.420283 ], [ 17.516146, 51.506846 ], [ 17.572791, 51.533721 ], [ 17.554099, 51.58316 ], [ 17.449168, 51.630419 ], [ 17.329052, 51.647291 ], [ 17.214749, 51.625144 ], [ 17.206512, 51.569989 ], [ 17.103539, 51.574613 ], [ 17.056871, 51.548079 ], [ 16.970073, 51.545724 ], [ 16.888045, 51.579761 ], [ 16.828372, 51.572188 ], [ 16.77223, 51.616694 ], [ 16.777989, 51.641641 ], [ 16.646324, 51.662092 ], [ 16.643486, 51.680757 ], [ 16.67864, 51.70384 ], [ 16.645959, 51.72356 ], [ 16.640148, 51.746283 ], [ 16.589884, 51.74951 ], [ 16.536964, 51.780896 ], [ 16.416191, 51.784865 ], [ 16.395748, 51.795416 ], [ 16.394119, 51.835825 ], [ 16.33526, 51.883848 ], [ 16.260196, 51.897842 ], [ 16.206396, 51.87327 ], [ 16.112655, 51.89611 ], [ 16.132421, 51.92604 ], [ 16.12072, 51.989041 ], [ 16.012741, 51.98327 ], [ 15.969096, 52.012002 ], [ 15.997604, 52.050539 ], [ 15.98484, 52.067839 ], [ 15.944223, 52.085297 ], [ 15.909864, 52.073226 ], [ 15.846485, 52.099898 ], [ 15.879321, 52.150295 ], [ 15.853204, 52.211715 ], [ 15.897561, 52.388144 ], [ 15.845082, 52.404415 ], [ 15.807924, 52.440602 ], [ 15.82361, 52.448514 ], [ 15.842745, 52.433566 ], [ 15.894165, 52.449883 ], [ 15.87076, 52.508964 ], [ 15.840196, 52.526183 ], [ 15.854259, 52.546995 ], [ 15.778534, 52.643096 ], [ 15.787032, 52.664718 ], [ 15.811957, 52.672194 ], [ 15.797833, 52.706722 ], [ 15.943097, 52.731502 ], [ 15.933212, 52.800032 ], [ 15.895535, 52.817426 ], [ 15.907524, 52.836077 ], [ 15.969283, 52.859357 ], [ 15.976202, 52.879726 ], [ 15.976051, 52.935821 ], [ 15.950964, 52.992779 ], [ 15.962498, 53.041381 ], [ 16.116571, 53.012513 ], [ 16.260351, 53.047302 ], [ 16.310924, 53.03796 ], [ 16.360054, 53.078175 ], [ 16.349811, 53.110363 ], [ 16.390146, 53.133306 ], [ 16.398196, 53.159503 ], [ 16.496594, 53.165685 ], [ 16.562235, 53.230208 ], [ 16.613169, 53.209283 ], [ 16.629981, 53.21753 ], [ 16.6405, 53.261784 ], [ 16.696768, 53.302918 ], [ 16.622924, 53.344859 ], [ 16.483275, 53.388217 ], [ 16.450702, 53.442426 ], [ 16.461768, 53.457635 ], [ 16.442252, 53.462804 ], [ 16.4501, 53.480664 ], [ 16.499325, 53.472473 ], [ 16.650842, 53.488895 ], [ 16.719164, 53.527229 ], [ 16.762982, 53.621551 ], [ 16.821069, 53.638835 ], [ 16.846349, 53.631788 ], [ 16.892248, 53.655869 ] ] ] } },
{ "type": "Feature", "properties": { "loc": "PL42" }, "geometry": { "type": "Polygon", "coordinates": [ [ [ 16.792765, 53.98555 ], [ 16.839783, 53.995485 ], [ 16.873757, 53.973986 ], [ 16.878109, 53.942624 ], [ 16.982054, 53.904909 ], [ 16.970156, 53.880484 ], [ 16.898811, 53.875888 ], [ 16.867619, 53.856697 ], [ 16.873563, 53.833238 ], [ 16.914146, 53.802445 ], [ 16.943441, 53.801583 ], [ 16.927391, 53.777147 ], [ 16.860818, 53.745606 ], [ 16.892248, 53.655869 ], [ 16.846349, 53.631788 ], [ 16.821069, 53.638835 ], [ 16.762982, 53.621551 ], [ 16.719164, 53.527229 ], [ 16.650842, 53.488895 ], [ 16.499325, 53.472473 ], [ 16.4501, 53.480664 ], [ 16.442252, 53.462804 ], [ 16.461768, 53.457635 ], [ 16.450702, 53.442426 ], [ 16.483275, 53.388217 ], [ 16.622924, 53.344859 ], [ 16.696768, 53.302918 ], [ 16.6405, 53.261784 ], [ 16.629981, 53.21753 ], [ 16.613169, 53.209283 ], [ 16.562235, 53.230208 ], [ 16.496594, 53.165685 ], [ 16.398196, 53.159503 ], [ 16.390146, 53.133306 ], [ 16.349811, 53.110363 ], [ 16.360054, 53.078175 ], [ 16.310924, 53.03796 ], [ 16.260351, 53.047302 ], [ 16.116571, 53.012513 ], [ 15.962498, 53.041381 ], [ 15.995118, 53.079016 ], [ 15.979098, 53.108663 ], [ 15.868593, 53.119266 ], [ 15.851617, 53.114313 ], [ 15.85419, 53.093651 ], [ 15.816425, 53.083914 ], [ 15.800697, 53.045727 ], [ 15.767103, 53.025759 ], [ 15.770264, 53.003618 ], [ 15.741618, 52.991406 ], [ 15.68286, 52.996009 ], [ 15.622641, 52.980365 ], [ 15.574775, 52.988538 ], [ 15.547692, 53.012116 ], [ 15.422387, 52.983587 ], [ 15.357164, 52.943954 ], [ 15.289823, 52.955411 ], [ 15.324555, 52.896035 ], [ 15.078142, 52.832507 ], [ 15.034222, 52.859146 ], [ 14.990183, 52.845407 ], [ 14.973799, 52.866765 ], [ 14.914208, 52.886949 ], [ 14.893086, 52.862268 ], [ 14.914062, 52.84305 ], [ 14.869187, 52.84431 ], [ 14.859464, 52.794956 ], [ 14.797081, 52.755106 ], [ 14.788732, 52.698227 ], [ 14.74215, 52.644448 ], [ 14.700193, 52.633577 ], [ 14.631232, 52.656347 ], [ 14.565063, 52.624497 ], [ 14.514602, 52.63994 ], [ 14.436438, 52.6799 ], [ 14.346191, 52.752823 ], [ 14.213482, 52.81708 ], [ 14.130048, 52.831545 ], [ 14.125821, 52.845335 ], [ 14.156903, 52.876195 ], [ 14.143658, 52.961368 ], [ 14.341983, 53.050466 ], [ 14.384706, 53.137374 ], [ 14.368612, 53.168231 ], [ 14.375497, 53.195072 ], [ 14.447766, 53.261961 ], [ 14.420248, 53.282363 ], [ 14.369736, 53.451629 ], [ 14.306276, 53.546953 ], [ 14.31523, 53.613472 ], [ 14.286352, 53.635359 ], [ 14.267542, 53.697806 ], [ 14.301424, 53.701712 ], [ 14.287841, 53.723428 ], [ 14.32017, 53.736521 ], [ 14.398317, 53.682694 ], [ 14.521493, 53.661358 ], [ 14.59275, 53.595129 ], [ 14.617406, 53.646887 ], [ 14.549932, 53.675359 ], [ 14.541168, 53.70381 ], [ 14.559382, 53.754127 ], [ 14.612638, 53.770604 ], [ 14.608196, 53.827672 ], [ 14.583597, 53.807338 ], [ 14.572589, 53.846942 ], [ 14.431982, 53.864595 ], [ 14.430953, 53.89446 ], [ 14.369459, 53.878832 ], [ 14.378245, 53.85719 ], [ 14.40678, 53.857944 ], [ 14.407367, 53.846835 ], [ 14.318118, 53.816471 ], [ 14.213078, 53.866479 ], [ 14.203687, 53.913305 ], [ 14.226302, 53.928653 ], [ 14.386206, 53.917554 ], [ 14.518984, 53.967123 ], [ 14.745095, 54.016327 ], [ 14.703588, 53.986896 ], [ 14.639857, 53.879066 ], [ 14.700299, 53.924097 ], [ 14.747683, 53.936843 ], [ 14.720842, 53.96708 ], [ 14.763743, 53.978492 ], [ 14.820787, 54.039155 ], [ 15.267105, 54.14196 ], [ 16.096307, 54.273297 ], [ 16.223567, 54.326436 ], [ 16.48712, 54.519525 ], [ 16.588366, 54.554641 ], [ 16.699085, 54.569247 ], [ 16.742363, 54.533086 ], [ 16.759724, 54.491036 ], [ 16.819375, 54.471839 ], [ 16.8386, 54.436913 ], [ 16.827837, 54.415445 ], [ 16.854867, 54.383062 ], [ 16.810187, 54.364887 ], [ 16.825645, 54.345636 ], [ 16.818742, 54.319387 ], [ 16.858561, 54.297469 ], [ 16.860764, 54.26071 ], [ 16.736337, 54.230048 ], [ 16.719235, 54.213223 ], [ 16.801115, 54.114597 ], [ 16.794455, 54.082137 ], [ 16.810726, 54.066065 ], [ 16.787281, 54.025519 ], [ 16.792765, 53.98555 ] ] ] } },
{ "type": "Feature", "properties": { "loc": "PL43" }, "geometry": { "type": "Polygon", "coordinates": [ [ [ 15.933212, 52.800032 ], [ 15.943097, 52.731502 ], [ 15.906349, 52.715923 ], [ 15.797833, 52.706722 ], [ 15.811957, 52.672194 ], [ 15.787032, 52.664718 ], [ 15.778534, 52.643096 ], [ 15.854259, 52.546995 ], [ 15.840196, 52.526183 ], [ 15.87076, 52.508964 ], [ 15.894165, 52.449883 ], [ 15.842745, 52.433566 ], [ 15.82361, 52.448514 ], [ 15.807924, 52.440602 ], [ 15.845082, 52.404415 ], [ 15.897561, 52.388144 ], [ 15.853204, 52.211715 ], [ 15.879321, 52.150295 ], [ 15.846485, 52.099898 ], [ 15.909864, 52.073226 ], [ 15.944223, 52.085297 ], [ 15.98484, 52.067839 ], [ 15.997604, 52.050539 ], [ 15.969096, 52.012002 ], [ 16.012741, 51.98327 ], [ 16.12072, 51.989041 ], [ 16.132421, 51.92604 ], [ 16.112655, 51.89611 ], [ 16.206396, 51.87327 ], [ 16.260196, 51.897842 ], [ 16.33526, 51.883848 ], [ 16.394119, 51.835825 ], [ 16.395748, 51.795416 ], [ 16.416191, 51.784865 ], [ 16.381176, 51.764276 ], [ 16.349362, 51.713345 ], [ 16.266627, 51.670145 ], [ 16.212227, 51.712542 ], [ 16.168964, 51.715367 ], [ 16.168856, 51.760937 ], [ 15.982989, 51.799771 ], [ 15.974603, 51.787955 ], [ 15.986967, 51.775778 ], [ 15.96667, 51.741502 ], [ 15.871226, 51.714259 ], [ 15.818515, 51.576437 ], [ 15.710186, 51.554429 ], [ 15.714033, 51.517397 ], [ 15.679772, 51.510032 ], [ 15.657602, 51.477751 ], [ 15.596714, 51.44926 ], [ 15.58887, 51.472207 ], [ 15.494757, 51.523248 ], [ 15.39242, 51.528372 ], [ 15.369576, 51.49984 ], [ 15.378341, 51.473213 ], [ 15.338391, 51.467425 ], [ 15.327805, 51.410128 ], [ 15.189472, 51.462586 ], [ 15.089176, 51.424578 ], [ 15.071774, 51.399321 ], [ 15.021217, 51.392088 ], [ 15.007843, 51.365146 ], [ 14.974183, 51.36395 ], [ 14.962424, 51.393863 ], [ 14.971256, 51.441655 ], [ 14.949106, 51.468165 ], [ 14.738778, 51.526439 ], [ 14.715228, 51.561559 ], [ 14.763237, 51.609526 ], [ 14.753243, 51.665672 ], [ 14.666944, 51.728914 ], [ 14.645462, 51.792384 ], [ 14.591164, 51.825359 ], [ 14.612763, 51.85483 ], [ 14.690667, 51.902323 ], [ 14.718916, 51.946079 ], [ 14.70716, 51.972241 ], [ 14.716716, 52.001188 ], [ 14.755227, 52.070025 ], [ 14.684011, 52.116171 ], [ 14.7089, 52.238197 ], [ 14.578777, 52.288834 ], [ 14.581373, 52.311005 ], [ 14.534362, 52.395008 ], [ 14.550029, 52.430077 ], [ 14.632686, 52.494345 ], [ 14.606432, 52.531954 ], [ 14.635091, 52.574037 ], [ 14.565063, 52.624497 ], [ 14.631232, 52.656347 ], [ 14.700193, 52.633577 ], [ 14.74215, 52.644448 ], [ 14.788732, 52.698227 ], [ 14.797081, 52.755106 ], [ 14.859464, 52.794956 ], [ 14.869187, 52.84431 ], [ 14.914062, 52.84305 ], [ 14.893086, 52.862268 ], [ 14.914208, 52.886949 ], [ 14.973799, 52.866765 ], [ 14.990183, 52.845407 ], [ 15.034222, 52.859146 ], [ 15.078142, 52.832507 ], [ 15.324555, 52.896035 ], [ 15.289823, 52.955411 ], [ 15.357164, 52.943954 ], [ 15.422387, 52.983587 ], [ 15.547692, 53.012116 ], [ 15.574775, 52.988538 ], [ 15.622641, 52.980365 ], [ 15.68286, 52.996009 ], [ 15.741618, 52.991406 ], [ 15.770264, 53.003618 ], [ 15.767103, 53.025759 ], [ 15.800697, 53.045727 ], [ 15.816425, 53.083914 ], [ 15.85419, 53.093651 ], [ 15.851617, 53.114313 ], [ 15.868593, 53.119266 ], [ 15.979098, 53.108663 ], [ 15.995118, 53.079016 ], [ 15.962498, 53.041381 ], [ 15.950964, 52.992779 ], [ 15.976051, 52.935821 ], [ 15.969283, 52.859357 ], [ 15.907524, 52.836077 ], [ 15.895535, 52.817426 ], [ 15.933212, 52.800032 ] ] ] } },
{ "type": "Feature", "properties": { "loc": "PL82" }, "geometry": { "type": "Polygon", "coordinates": [ [ [ 22.519738, 50.583233 ], [ 22.53284, 50.560801 ], [ 22.5241, 50.534003 ], [ 22.561065, 50.501001 ], [ 22.547601, 50.482325 ], [ 22.563285, 50.469793 ], [ 22.537288, 50.454209 ], [ 22.457966, 50.459847 ], [ 22.448963, 50.431493 ], [ 22.412744, 50.405266 ], [ 22.504482, 50.349699 ], [ 22.675932, 50.352666 ], [ 22.615579, 50.32336 ], [ 22.638222, 50.303077 ], [ 23.020952, 50.288401 ], [ 23.180813, 50.392837 ], [ 23.255701, 50.364313 ], [ 23.365046, 50.409094 ], [ 23.384243, 50.403993 ], [ 23.369226, 50.39289 ], [ 23.380077, 50.370518 ], [ 23.432812, 50.343719 ], [ 23.414822, 50.307741 ], [ 23.513089, 50.29582 ], [ 23.512375, 50.263716 ], [ 23.547642, 50.251602 ], [ 23.282737, 50.098791 ], [ 22.970054, 49.834838 ], [ 22.956589, 49.803995 ], [ 22.79813, 49.685713 ], [ 22.64435, 49.524872 ], [ 22.699485, 49.487939 ], [ 22.744405, 49.367378 ], [ 22.739042, 49.252472 ], [ 22.717442, 49.229807 ], [ 22.742065, 49.215322 ], [ 22.711119, 49.174126 ], [ 22.750692, 49.181203 ], [ 22.745228, 49.15673 ], [ 22.782553, 49.155449 ], [ 22.832082, 49.113702 ], [ 22.887411, 49.094821 ], [ 22.867691, 49.064021 ], [ 22.890895, 49.012333 ], [ 22.849492, 49.004213 ], [ 22.771881, 49.050892 ], [ 22.680838, 49.041227 ], [ 22.595326, 49.093597 ], [ 22.421672, 49.100734 ], [ 22.365663, 49.14488 ], [ 22.315041, 49.137388 ], [ 22.231391, 49.153541 ], [ 22.224121, 49.181828 ], [ 22.189773, 49.1762 ], [ 22.056538, 49.214181 ], [ 22.032983, 49.227514 ], [ 22.030719, 49.278443 ], [ 21.963404, 49.345226 ], [ 21.902681, 49.352745 ], [ 21.837586, 49.389879 ], [ 21.783028, 49.356707 ], [ 21.719673, 49.41044 ], [ 21.666237, 49.415575 ], [ 21.628286, 49.445226 ], [ 21.444143, 49.41313 ], [ 21.397713, 49.433794 ], [ 21.406543, 49.468677 ], [ 21.39378, 49.485761 ], [ 21.414547, 49.497257 ], [ 21.364411, 49.544527 ], [ 21.375124, 49.569024 ], [ 21.331763, 49.592186 ], [ 21.360404, 49.63534 ], [ 21.345067, 49.689851 ], [ 21.324271, 49.700789 ], [ 21.313104, 49.744421 ], [ 21.259722, 49.754374 ], [ 21.241772, 49.776104 ], [ 21.277784, 49.802016 ], [ 21.33941, 49.811871 ], [ 21.334621, 49.82594 ], [ 21.227079, 49.855557 ], [ 21.229532, 49.883403 ], [ 21.28111, 49.896654 ], [ 21.280372, 49.924375 ], [ 21.181287, 49.930485 ], [ 21.150608, 49.982917 ], [ 21.189568, 50.027554 ], [ 21.149249, 50.051245 ], [ 21.185768, 50.099954 ], [ 21.182057, 50.120178 ], [ 21.15133, 50.131013 ], [ 21.169172, 50.20645 ], [ 21.146868, 50.235698 ], [ 21.16872, 50.24056 ], [ 21.149417, 50.258112 ], [ 21.219496, 50.312031 ], [ 21.208832, 50.354897 ], [ 21.314925, 50.422677 ], [ 21.441276, 50.456107 ], [ 21.45532, 50.492923 ], [ 21.6037, 50.522598 ], [ 21.67553, 50.608719 ], [ 21.723678, 50.643179 ], [ 21.776807, 50.647298 ], [ 21.790148, 50.679722 ], [ 21.819917, 50.693247 ], [ 21.864304, 50.802706 ], [ 21.881574, 50.780288 ], [ 21.943034, 50.772467 ], [ 22.055323, 50.818826 ], [ 22.156265, 50.797998 ], [ 22.156531, 50.773194 ], [ 22.201188, 50.752874 ], [ 22.151354, 50.670006 ], [ 22.218803, 50.660696 ], [ 22.253883, 50.622043 ], [ 22.326575, 50.616889 ], [ 22.416672, 50.582664 ], [ 22.519738, 50.583233 ] ] ] } },
{ "type": "Feature", "properties": { "loc": "PL84" }, "geometry": { "type": "Polygon", "coordinates": [ [ [ 23.321499, 54.253326 ], [ 23.48743, 54.148149 ], [ 23.526901, 54.063605 ], [ 23.522953, 54.033247 ], [ 23.483794, 53.996278 ], [ 23.51465, 53.95656 ], [ 23.524764, 53.862773 ], [ 23.55113, 53.851185 ], [ 23.549006, 53.768833 ], [ 23.582108, 53.743174 ], [ 23.655543, 53.531188 ], [ 23.813857, 53.251792 ], [ 23.853042, 53.230588 ], [ 23.865243, 53.198451 ], [ 23.912325, 53.157206 ], [ 23.876881, 53.084992 ], [ 23.924676, 53.019809 ], [ 23.940054, 52.968453 ], [ 23.916239, 52.904812 ], [ 23.939095, 52.807106 ], [ 23.933568, 52.711145 ], [ 23.760992, 52.616843 ], [ 23.638292, 52.606263 ], [ 23.470036, 52.550266 ], [ 23.355576, 52.467593 ], [ 23.178338, 52.283141 ], [ 23.107318, 52.295528 ], [ 23.06036, 52.285789 ], [ 23.042461, 52.323609 ], [ 22.94454, 52.369678 ], [ 22.847113, 52.361149 ], [ 22.759607, 52.379979 ], [ 22.725583, 52.371408 ], [ 22.702203, 52.391808 ], [ 22.581814, 52.396458 ], [ 22.545088, 52.424904 ], [ 22.549864, 52.464168 ], [ 22.513148, 52.482986 ], [ 22.521058, 52.524424 ], [ 22.408589, 52.60969 ], [ 22.459069, 52.642453 ], [ 22.438398, 52.693595 ], [ 22.450968, 52.784999 ], [ 22.38867, 52.792386 ], [ 22.346254, 52.771858 ], [ 22.332394, 52.747669 ], [ 22.311272, 52.750572 ], [ 22.253262, 52.827098 ], [ 22.299163, 52.845949 ], [ 22.277607, 52.879717 ], [ 22.219564, 52.880473 ], [ 22.198924, 52.856691 ], [ 22.146286, 52.847777 ], [ 22.047399, 52.852777 ], [ 22.005109, 52.892762 ], [ 22.000321, 52.916072 ], [ 22.018218, 52.93845 ], [ 21.997794, 52.966297 ], [ 21.887049, 53.013556 ], [ 21.899577, 53.037578 ], [ 21.926036, 53.045575 ], [ 21.92864, 53.070377 ], [ 21.873303, 53.063097 ], [ 21.810031, 53.108736 ], [ 21.738974, 53.113181 ], [ 21.70582, 53.133089 ], [ 21.644128, 53.259188 ], [ 21.662855, 53.308444 ], [ 21.717841, 53.315085 ], [ 21.664527, 53.340615 ], [ 21.672191, 53.367813 ], [ 21.612969, 53.436105 ], [ 21.605996, 53.465228 ], [ 21.612953, 53.480833 ], [ 21.697083, 53.491198 ], [ 21.859221, 53.459097 ], [ 21.890749, 53.466548 ], [ 21.931084, 53.509169 ], [ 21.991768, 53.519992 ], [ 22.028665, 53.499307 ], [ 22.062309, 53.529776 ], [ 22.192795, 53.566197 ], [ 22.365646, 53.656949 ], [ 22.423481, 53.678803 ], [ 22.464106, 53.664927 ], [ 22.475739, 53.697419 ], [ 22.580242, 53.729427 ], [ 22.606526, 53.720214 ], [ 22.629323, 53.753322 ], [ 22.704585, 53.770471 ], [ 22.729172, 53.832218 ], [ 22.779772, 53.869981 ], [ 22.778746, 53.920524 ], [ 22.698962, 53.973693 ], [ 22.669225, 54.025519 ], [ 22.603358, 54.0564 ], [ 22.631454, 54.10284 ], [ 22.599397, 54.138643 ], [ 22.547581, 54.143149 ], [ 22.484617, 54.201994 ], [ 22.539243, 54.24829 ], [ 22.643169, 54.283272 ], [ 22.697527, 54.278251 ], [ 22.776386, 54.29629 ], [ 22.800064, 54.34632 ], [ 22.792096, 54.363359 ], [ 22.852803, 54.408202 ], [ 23.00255, 54.380176 ], [ 23.006184, 54.358861 ], [ 23.053763, 54.343047 ], [ 23.058106, 54.310836 ], [ 23.095923, 54.300858 ], [ 23.145853, 54.311911 ], [ 23.241238, 54.260555 ], [ 23.321499, 54.253326 ] ] ] } },
{ "type": "Feature", "properties": { "loc": "PL91" }, "geometry": { "type": "MultiPolygon", "coordinates": [ [ [ [ 20.93047, 52.55894 ], [ 21.042494, 52.535166 ], [ 21.116847, 52.562013 ], [ 21.123712, 52.536155 ], [ 21.158315, 52.51401 ], [ 21.21933, 52.532055 ], [ 21.299661, 52.530687 ], [ 21.318541, 52.50589 ], [ 21.421013, 52.465766 ], [ 21.519812, 52.482939 ], [ 21.564544, 52.515094 ], [ 21.561315, 52.548291 ], [ 21.596812, 52.553231 ], [ 21.635569, 52.518475 ], [ 21.693605, 52.510488 ], [ 21.72225, 52.490156 ], [ 21.725009, 52.463124 ], [ 21.693769, 52.449109 ], [ 21.708986, 52.406174 ], [ 21.777998, 52.347285 ], [ 21.745343, 52.32155 ], [ 21.802054, 52.267228 ], [ 21.85427, 52.246089 ], [ 21.869082, 52.220293 ], [ 21.923161, 52.225097 ], [ 21.932462, 52.208897 ], [ 21.909334, 52.165887 ], [ 21.970324, 52.088765 ], [ 21.876372, 52.038736 ], [ 21.876471, 51.990614 ], [ 21.777019, 51.976003 ], [ 21.664661, 52.022913 ], [ 21.634935, 52.007597 ], [ 21.579761, 52.036106 ], [ 21.475933, 51.976785 ], [ 21.481299, 51.951398 ], [ 21.451805, 51.932738 ], [ 21.475494, 51.909249 ], [ 21.3178, 51.902084 ], [ 21.29909, 51.878322 ], [ 21.275805, 51.876792 ], [ 21.23911, 51.901631 ], [ 21.211103, 51.897935 ], [ 21.178426, 51.926016 ], [ 21.093307, 51.938446 ], [ 20.967304, 51.91111 ], [ 20.923867, 51.933817 ], [ 20.843529, 51.932819 ], [ 20.799349, 51.954487 ], [ 20.635752, 51.936746 ], [ 20.60095, 51.969516 ], [ 20.615671, 52.045799 ], [ 20.473875, 52.039357 ], [ 20.398132, 52.166397 ], [ 20.414914, 52.192143 ], [ 20.482243, 52.178695 ], [ 20.487, 52.23459 ], [ 20.440794, 52.239127 ], [ 20.418001, 52.220043 ], [ 20.407878, 52.243157 ], [ 20.340334, 52.243614 ], [ 20.329539, 52.285453 ], [ 20.382005, 52.297069 ], [ 20.394459, 52.30468 ], [ 20.383653, 52.320434 ], [ 20.421224, 52.334755 ], [ 20.404814, 52.384342 ], [ 20.492058, 52.420332 ], [ 20.489057, 52.44415 ], [ 20.571989, 52.467157 ], [ 20.584635, 52.50676 ], [ 20.617891, 52.530382 ], [ 20.610923, 52.568011 ], [ 20.661945, 52.593832 ], [ 20.709599, 52.591807 ], [ 20.718979, 52.617254 ], [ 20.759569, 52.642916 ], [ 20.853564, 52.634605 ], [ 20.863216, 52.609816 ], [ 20.93047, 52.55894 ] ], [ [ 20.401296, 52.309342 ], [ 20.408159, 52.29477 ], [ 20.41747, 52.310516 ], [ 20.401296, 52.309342 ] ] ], [ [ [ 20.675429, 51.931422 ], [ 20.660006, 51.923339 ], [ 20.649266, 51.929498 ], [ 20.675429, 51.931422 ] ] ] ] } },
{ "type": "Feature", "properties": { "loc": "PL51" }, "geometry": { "type": "Polygon", "coordinates": [ [ [ 16.416191, 51.784865 ], [ 16.536964, 51.780896 ], [ 16.589884, 51.74951 ], [ 16.640148, 51.746283 ], [ 16.645959, 51.72356 ], [ 16.67864, 51.70384 ], [ 16.643486, 51.680757 ], [ 16.646324, 51.662092 ], [ 16.777989, 51.641641 ], [ 16.77223, 51.616694 ], [ 16.828372, 51.572188 ], [ 16.888045, 51.579761 ], [ 16.970073, 51.545724 ], [ 17.056871, 51.548079 ], [ 17.103539, 51.574613 ], [ 17.206512, 51.569989 ], [ 17.214749, 51.625144 ], [ 17.257433, 51.642843 ], [ 17.449168, 51.630419 ], [ 17.554099, 51.58316 ], [ 17.572293, 51.561052 ], [ 17.572791, 51.533721 ], [ 17.516146, 51.506846 ], [ 17.544901, 51.420283 ], [ 17.571502, 51.406623 ], [ 17.637358, 51.42164 ], [ 17.703912, 51.401278 ], [ 17.721579, 51.420503 ], [ 17.748562, 51.412203 ], [ 17.707811, 51.365603 ], [ 17.759788, 51.319007 ], [ 17.744686, 51.245984 ], [ 17.765149, 51.207385 ], [ 17.79527, 51.194146 ], [ 17.671551, 51.164009 ], [ 17.610562, 51.185031 ], [ 17.551989, 51.153284 ], [ 17.571665, 51.126921 ], [ 17.574922, 51.082999 ], [ 17.524043, 51.056886 ], [ 17.520171, 51.012644 ], [ 17.535441, 50.99318 ], [ 17.496508, 50.994199 ], [ 17.502784, 50.97471 ], [ 17.440045, 50.967751 ], [ 17.4246, 50.914306 ], [ 17.369642, 50.918392 ], [ 17.361098, 50.901369 ], [ 17.392255, 50.880207 ], [ 17.333897, 50.844328 ], [ 17.347852, 50.793129 ], [ 17.277003, 50.786298 ], [ 17.268619, 50.772569 ], [ 17.290602, 50.745191 ], [ 17.224665, 50.708213 ], [ 17.250574, 50.68905 ], [ 17.238266, 50.620936 ], [ 17.124779, 50.606278 ], [ 17.069511, 50.547966 ], [ 17.072689, 50.518444 ], [ 17.048335, 50.466482 ], [ 16.959359, 50.485721 ], [ 16.882463, 50.44062 ], [ 16.864934, 50.410034 ], [ 16.910962, 50.385621 ], [ 16.945499, 50.318519 ], [ 17.00564, 50.296506 ], [ 17.017604, 50.275863 ], [ 17.005761, 50.252087 ], [ 17.02481, 50.229244 ], [ 16.999126, 50.219139 ], [ 16.971923, 50.241632 ], [ 16.955043, 50.224037 ], [ 16.904119, 50.223105 ], [ 16.880012, 50.201467 ], [ 16.844554, 50.205006 ], [ 16.707161, 50.098287 ], [ 16.634136, 50.113003 ], [ 16.560946, 50.168156 ], [ 16.551906, 50.224383 ], [ 16.435024, 50.320883 ], [ 16.391569, 50.324122 ], [ 16.359721, 50.377272 ], [ 16.281678, 50.370005 ], [ 16.199336, 50.434754 ], [ 16.315502, 50.505461 ], [ 16.359518, 50.502406 ], [ 16.396367, 50.527922 ], [ 16.411206, 50.569261 ], [ 16.443688, 50.581619 ], [ 16.328511, 50.664535 ], [ 16.237046, 50.669351 ], [ 16.215169, 50.634715 ], [ 16.186361, 50.629785 ], [ 16.107318, 50.662073 ], [ 16.022731, 50.601798 ], [ 15.990275, 50.613185 ], [ 16.010538, 50.630612 ], [ 15.988459, 50.683065 ], [ 15.958159, 50.691029 ], [ 15.866962, 50.674356 ], [ 15.81683, 50.752805 ], [ 15.709498, 50.738317 ], [ 15.439052, 50.807811 ], [ 15.378363, 50.778497 ], [ 15.358765, 50.844856 ], [ 15.279523, 50.89022 ], [ 15.268841, 50.925184 ], [ 15.28896, 50.951726 ], [ 15.27146, 50.97721 ], [ 15.232291, 50.99668 ], [ 15.180861, 50.984343 ], [ 15.16768, 51.017976 ], [ 15.127905, 50.992267 ], [ 15.063451, 51.019669 ], [ 14.982813, 51.007029 ], [ 14.974288, 50.98773 ], [ 15.01743, 50.969132 ], [ 14.993121, 50.921439 ], [ 14.997001, 50.870307 ], [ 14.823362, 50.87055 ], [ 14.824218, 50.888048 ], [ 14.892145, 50.939462 ], [ 14.98052, 51.084495 ], [ 15.033019, 51.244302 ], [ 15.03206, 51.290443 ], [ 14.985031, 51.33225 ], [ 14.974183, 51.36395 ], [ 15.007843, 51.365146 ], [ 15.021217, 51.392088 ], [ 15.071774, 51.399321 ], [ 15.089176, 51.424578 ], [ 15.189472, 51.462586 ], [ 15.327805, 51.410128 ], [ 15.338391, 51.467425 ], [ 15.378341, 51.473213 ], [ 15.369576, 51.49984 ], [ 15.39242, 51.528372 ], [ 15.494757, 51.523248 ], [ 15.58887, 51.472207 ], [ 15.596714, 51.44926 ], [ 15.657602, 51.477751 ], [ 15.679772, 51.510032 ], [ 15.714033, 51.517397 ], [ 15.710186, 51.554429 ], [ 15.818515, 51.576437 ], [ 15.871226, 51.714259 ], [ 15.96667, 51.741502 ], [ 15.986967, 51.775778 ], [ 15.974603, 51.787955 ], [ 15.982989, 51.799771 ], [ 16.168856, 51.760937 ], [ 16.168964, 51.715367 ], [ 16.212227, 51.712542 ], [ 16.266627, 51.670145 ], [ 16.349362, 51.713345 ], [ 16.381176, 51.764276 ], [ 16.416191, 51.784865 ] ] ] } },
{ "type": "Feature", "properties": { "loc": "PL52" }, "geometry": { "type": "Polygon", "coordinates": [ [ [ 17.939456, 51.108865 ], [ 18.042589, 51.132893 ], [ 18.078688, 51.163398 ], [ 18.103842, 51.155835 ], [ 18.163682, 51.172517 ], [ 18.461089, 51.117697 ], [ 18.485424, 51.092629 ], [ 18.51614, 51.108688 ], [ 18.520861, 51.136743 ], [ 18.549498, 51.137724 ], [ 18.58132, 51.083143 ], [ 18.672955, 51.056902 ], [ 18.692166, 51.01617 ], [ 18.661079, 51.0042 ], [ 18.661152, 50.972583 ], [ 18.616705, 50.956935 ], [ 18.652754, 50.917725 ], [ 18.615878, 50.853587 ], [ 18.583733, 50.84813 ], [ 18.555523, 50.810562 ], [ 18.518718, 50.79912 ], [ 18.564979, 50.752795 ], [ 18.490912, 50.704837 ], [ 18.520901, 50.628796 ], [ 18.59494, 50.604647 ], [ 18.607474, 50.550011 ], [ 18.43939, 50.544586 ], [ 18.433751, 50.531109 ], [ 18.478104, 50.460598 ], [ 18.443758, 50.478761 ], [ 18.38233, 50.479196 ], [ 18.386769, 50.436066 ], [ 18.367926, 50.422008 ], [ 18.391212, 50.389767 ], [ 18.361604, 50.355606 ], [ 18.39736, 50.33229 ], [ 18.402746, 50.278169 ], [ 18.425867, 50.248965 ], [ 18.361293, 50.25563 ], [ 18.248021, 50.219641 ], [ 18.23549, 50.192516 ], [ 18.059781, 50.174652 ], [ 18.068204, 50.107707 ], [ 18.005753, 50.042144 ], [ 18.042826, 50.034422 ], [ 18.041089, 50.009876 ], [ 17.998003, 50.015439 ], [ 17.920794, 49.979268 ], [ 17.868892, 49.975086 ], [ 17.828549, 50.008852 ], [ 17.777009, 50.02369 ], [ 17.715035, 50.107751 ], [ 17.658633, 50.108863 ], [ 17.596833, 50.158032 ], [ 17.755723, 50.208702 ], [ 17.761062, 50.236203 ], [ 17.726553, 50.263232 ], [ 17.748146, 50.298223 ], [ 17.711786, 50.32211 ], [ 17.690619, 50.325246 ], [ 17.683995, 50.299514 ], [ 17.620385, 50.268333 ], [ 17.5036, 50.274631 ], [ 17.429605, 50.254513 ], [ 17.421372, 50.273661 ], [ 17.388526, 50.281724 ], [ 17.352046, 50.266276 ], [ 17.338386, 50.325362 ], [ 17.290209, 50.318495 ], [ 17.251193, 50.331274 ], [ 17.206518, 50.360648 ], [ 17.196264, 50.386496 ], [ 17.144669, 50.381491 ], [ 17.105568, 50.404577 ], [ 16.972691, 50.420565 ], [ 16.907925, 50.449454 ], [ 16.959359, 50.485721 ], [ 17.048335, 50.466482 ], [ 17.072689, 50.518444 ], [ 17.069511, 50.547966 ], [ 17.124779, 50.606278 ], [ 17.238266, 50.620936 ], [ 17.250574, 50.68905 ], [ 17.224665, 50.708213 ], [ 17.290602, 50.745191 ], [ 17.268619, 50.772569 ], [ 17.277003, 50.786298 ], [ 17.347852, 50.793129 ], [ 17.333897, 50.844328 ], [ 17.392255, 50.880207 ], [ 17.361098, 50.901369 ], [ 17.369642, 50.918392 ], [ 17.4246, 50.914306 ], [ 17.440045, 50.967751 ], [ 17.502784, 50.97471 ], [ 17.496508, 50.994199 ], [ 17.535441, 50.99318 ], [ 17.520171, 51.012644 ], [ 17.524043, 51.056886 ], [ 17.574922, 51.082999 ], [ 17.571665, 51.126921 ], [ 17.551989, 51.153284 ], [ 17.610562, 51.185031 ], [ 17.671551, 51.164009 ], [ 17.832223, 51.191599 ], [ 17.847442, 51.179058 ], [ 17.819402, 51.135979 ], [ 17.82624, 51.119461 ], [ 17.939456, 51.108865 ] ] ] } },
{ "type": "Feature", "properties": { "loc": "PL61" }, "geometry": { "type": "Polygon", "coordinates": [ [ [ 18.761578, 53.604882 ], [ 18.883387, 53.599239 ], [ 18.909583, 53.580291 ], [ 19.056207, 53.596703 ], [ 19.194941, 53.57086 ], [ 19.192548, 53.550449 ], [ 19.21612, 53.527947 ], [ 19.194209, 53.511661 ], [ 19.250688, 53.430306 ], [ 19.237251, 53.414578 ], [ 19.278625, 53.391072 ], [ 19.308884, 53.40914 ], [ 19.373247, 53.411475 ], [ 19.439712, 53.360272 ], [ 19.51558, 53.368053 ], [ 19.524967, 53.331162 ], [ 19.685885, 53.334956 ], [ 19.688876, 53.307659 ], [ 19.714722, 53.300972 ], [ 19.722987, 53.276978 ], [ 19.687329, 53.258293 ], [ 19.691041, 53.23896 ], [ 19.745024, 53.222245 ], [ 19.761596, 53.151796 ], [ 19.67131, 53.108919 ], [ 19.636859, 53.108027 ], [ 19.655328, 53.04266 ], [ 19.682871, 53.022933 ], [ 19.66918, 52.98758 ], [ 19.684806, 52.963039 ], [ 19.579172, 52.98242 ], [ 19.574409, 52.959622 ], [ 19.535905, 52.942409 ], [ 19.444664, 52.939042 ], [ 19.498482, 52.868745 ], [ 19.431709, 52.837784 ], [ 19.4281, 52.821324 ], [ 19.499484, 52.767038 ], [ 19.514828, 52.746489 ], [ 19.511339, 52.712224 ], [ 19.447824, 52.719602 ], [ 19.436994, 52.677898 ], [ 19.376427, 52.632991 ], [ 19.418794, 52.605124 ], [ 19.345884, 52.561848 ], [ 19.353259, 52.527163 ], [ 19.380622, 52.509655 ], [ 19.317985, 52.452356 ], [ 19.272331, 52.442165 ], [ 19.29037, 52.42477 ], [ 19.289185, 52.392712 ], [ 19.215094, 52.363335 ], [ 19.21934, 52.34373 ], [ 19.195398, 52.354202 ], [ 19.019247, 52.335897 ], [ 18.925601, 52.396454 ], [ 18.904981, 52.365109 ], [ 18.758827, 52.333935 ], [ 18.75071, 52.361369 ], [ 18.710551, 52.398677 ], [ 18.683208, 52.402835 ], [ 18.646033, 52.449705 ], [ 18.565815, 52.464155 ], [ 18.528149, 52.497327 ], [ 18.491528, 52.50277 ], [ 18.459334, 52.478708 ], [ 18.389603, 52.473336 ], [ 18.383014, 52.528766 ], [ 18.349954, 52.538602 ], [ 18.26541, 52.485839 ], [ 18.213946, 52.484652 ], [ 18.192697, 52.502613 ], [ 18.101779, 52.51732 ], [ 18.092049, 52.55012 ], [ 17.993619, 52.547133 ], [ 17.981283, 52.567067 ], [ 17.914147, 52.582673 ], [ 17.882401, 52.625831 ], [ 17.800078, 52.646719 ], [ 17.739106, 52.648601 ], [ 17.737624, 52.629461 ], [ 17.685487, 52.607616 ], [ 17.674929, 52.644749 ], [ 17.636455, 52.654595 ], [ 17.63001, 52.702006 ], [ 17.584525, 52.702427 ], [ 17.51135, 52.6759 ], [ 17.474234, 52.686264 ], [ 17.482696, 52.724493 ], [ 17.423514, 52.756194 ], [ 17.417695, 52.774215 ], [ 17.442337, 52.788602 ], [ 17.505015, 52.801385 ], [ 17.52196, 52.866937 ], [ 17.510992, 52.922738 ], [ 17.477838, 52.948938 ], [ 17.410557, 52.973939 ], [ 17.324353, 52.980365 ], [ 17.310171, 52.997673 ], [ 17.329167, 53.027627 ], [ 17.330114, 53.07274 ], [ 17.375679, 53.139914 ], [ 17.344938, 53.16284 ], [ 17.337695, 53.210646 ], [ 17.409601, 53.230588 ], [ 17.438794, 53.267514 ], [ 17.336455, 53.345619 ], [ 17.250849, 53.375743 ], [ 17.383809, 53.47221 ], [ 17.425366, 53.579053 ], [ 17.449791, 53.598938 ], [ 17.505494, 53.610228 ], [ 17.550627, 53.583458 ], [ 17.610485, 53.591364 ], [ 17.664364, 53.577472 ], [ 17.669841, 53.592468 ], [ 17.724056, 53.603599 ], [ 17.723328, 53.641037 ], [ 17.763839, 53.687694 ], [ 17.814497, 53.684819 ], [ 17.883679, 53.708349 ], [ 17.887822, 53.748435 ], [ 18.020951, 53.729243 ], [ 18.072037, 53.781075 ], [ 18.255829, 53.740846 ], [ 18.278312, 53.700325 ], [ 18.381702, 53.688614 ], [ 18.502763, 53.70048 ], [ 18.559095, 53.659569 ], [ 18.665879, 53.69453 ], [ 18.766418, 53.693554 ], [ 18.745398, 53.64571 ], [ 18.761578, 53.604882 ] ], [ [ 19.339148, 52.535947 ], [ 19.322521, 52.530823 ], [ 19.346807, 52.522388 ], [ 19.339148, 52.535947 ] ] ] } },
{ "type": "Feature", "properties": { "loc": "PL62" }, "geometry": { "type": "Polygon", "coordinates": [ [ [ 21.559322, 54.322504 ], [ 22.792096, 54.363359 ], [ 22.800064, 54.34632 ], [ 22.776386, 54.29629 ], [ 22.697527, 54.278251 ], [ 22.643169, 54.283272 ], [ 22.539243, 54.24829 ], [ 22.484617, 54.201994 ], [ 22.547581, 54.143149 ], [ 22.599397, 54.138643 ], [ 22.631454, 54.10284 ], [ 22.603358, 54.0564 ], [ 22.669225, 54.025519 ], [ 22.698962, 53.973693 ], [ 22.778746, 53.920524 ], [ 22.779772, 53.869981 ], [ 22.729172, 53.832218 ], [ 22.704585, 53.770471 ], [ 22.629323, 53.753322 ], [ 22.606526, 53.720214 ], [ 22.580242, 53.729427 ], [ 22.475739, 53.697419 ], [ 22.464106, 53.664927 ], [ 22.423481, 53.678803 ], [ 22.365646, 53.656949 ], [ 22.192795, 53.566197 ], [ 22.062309, 53.529776 ], [ 22.028665, 53.499307 ], [ 21.991768, 53.519992 ], [ 21.931084, 53.509169 ], [ 21.890749, 53.466548 ], [ 21.859221, 53.459097 ], [ 21.697083, 53.491198 ], [ 21.437915, 53.46279 ], [ 21.437202, 53.439392 ], [ 21.416833, 53.42942 ], [ 21.245766, 53.417757 ], [ 21.060236, 53.336659 ], [ 20.99532, 53.359008 ], [ 20.939302, 53.357495 ], [ 20.914749, 53.344557 ], [ 20.903829, 53.313217 ], [ 20.875794, 53.318961 ], [ 20.846844, 53.295416 ], [ 20.747848, 53.314958 ], [ 20.694749, 53.299512 ], [ 20.653907, 53.254251 ], [ 20.554928, 53.226792 ], [ 20.456465, 53.243399 ], [ 20.338137, 53.163934 ], [ 20.35125, 53.149168 ], [ 20.299049, 53.14045 ], [ 20.173365, 53.154484 ], [ 20.142672, 53.142709 ], [ 20.099047, 53.167122 ], [ 19.977782, 53.145608 ], [ 19.916671, 53.174915 ], [ 19.899617, 53.209859 ], [ 19.835955, 53.179458 ], [ 19.833264, 53.145107 ], [ 19.761596, 53.151796 ], [ 19.745024, 53.222245 ], [ 19.691041, 53.23896 ], [ 19.687329, 53.258293 ], [ 19.722987, 53.276978 ], [ 19.714722, 53.300972 ], [ 19.688876, 53.307659 ], [ 19.685885, 53.334956 ], [ 19.524967, 53.331162 ], [ 19.51558, 53.368053 ], [ 19.439712, 53.360272 ], [ 19.373247, 53.411475 ], [ 19.308884, 53.40914 ], [ 19.278625, 53.391072 ], [ 19.237251, 53.414578 ], [ 19.250688, 53.430306 ], [ 19.194209, 53.511661 ], [ 19.21612, 53.527947 ], [ 19.192548, 53.550449 ], [ 19.194941, 53.57086 ], [ 19.129277, 53.58826 ], [ 19.156209, 53.621471 ], [ 19.207743, 53.647925 ], [ 19.221827, 53.69482 ], [ 19.292079, 53.746575 ], [ 19.32123, 53.806601 ], [ 19.370063, 53.81224 ], [ 19.478903, 53.789262 ], [ 19.574906, 53.934693 ], [ 19.52234, 53.946104 ], [ 19.384511, 53.936146 ], [ 19.37208, 53.961298 ], [ 19.387479, 53.999003 ], [ 19.319992, 54.023819 ], [ 19.275682, 54.020771 ], [ 19.272967, 54.048702 ], [ 19.229138, 54.069705 ], [ 19.247473, 54.08971 ], [ 19.217689, 54.116121 ], [ 19.252749, 54.145475 ], [ 19.253835, 54.171083 ], [ 19.323825, 54.201322 ], [ 19.256953, 54.27846 ], [ 19.37959, 54.265129 ], [ 19.380708, 54.229372 ], [ 19.409503, 54.267945 ], [ 19.49862, 54.318118 ], [ 19.651409, 54.348896 ], [ 19.751141, 54.428876 ], [ 19.803769, 54.44241 ], [ 20.632317, 54.368017 ], [ 21.559322, 54.322504 ] ] ] } },
{ "type": "Feature", "properties": { "loc": "PL63" }, "geometry": { "type": "MultiPolygon", "coordinates": [ [ [ [ 18.95003, 54.35831 ], [ 19.078758, 54.345697 ], [ 19.33137, 54.366705 ], [ 19.648523, 54.453339 ], [ 19.406127, 54.366373 ], [ 19.230978, 54.337379 ], [ 19.259608, 54.307313 ], [ 19.258528, 54.268629 ], [ 19.298204, 54.246125 ], [ 19.323825, 54.201322 ], [ 19.253835, 54.171083 ], [ 19.252749, 54.145475 ], [ 19.217689, 54.116121 ], [ 19.247473, 54.08971 ], [ 19.229138, 54.069705 ], [ 19.272967, 54.048702 ], [ 19.275682, 54.020771 ], [ 19.319992, 54.023819 ], [ 19.387479, 53.999003 ], [ 19.37208, 53.961298 ], [ 19.384511, 53.936146 ], [ 19.52234, 53.946104 ], [ 19.574906, 53.934693 ], [ 19.478903, 53.789262 ], [ 19.370063, 53.81224 ], [ 19.32123, 53.806601 ], [ 19.292079, 53.746575 ], [ 19.221827, 53.69482 ], [ 19.207743, 53.647925 ], [ 19.156209, 53.621471 ], [ 19.129277, 53.58826 ], [ 19.056207, 53.596703 ], [ 18.909583, 53.580291 ], [ 18.883387, 53.599239 ], [ 18.761578, 53.604882 ], [ 18.745398, 53.64571 ], [ 18.766418, 53.693554 ], [ 18.665879, 53.69453 ], [ 18.559095, 53.659569 ], [ 18.502763, 53.70048 ], [ 18.381702, 53.688614 ], [ 18.278312, 53.700325 ], [ 18.255829, 53.740846 ], [ 18.072037, 53.781075 ], [ 18.020951, 53.729243 ], [ 17.887822, 53.748435 ], [ 17.883679, 53.708349 ], [ 17.814497, 53.684819 ], [ 17.763839, 53.687694 ], [ 17.723328, 53.641037 ], [ 17.724056, 53.603599 ], [ 17.669841, 53.592468 ], [ 17.664364, 53.577472 ], [ 17.610485, 53.591364 ], [ 17.550627, 53.583458 ], [ 17.505494, 53.610228 ], [ 17.449791, 53.598938 ], [ 17.425366, 53.579053 ], [ 17.390653, 53.490964 ], [ 17.340045, 53.498406 ], [ 17.269888, 53.536069 ], [ 17.095168, 53.54101 ], [ 17.052723, 53.520002 ], [ 17.003639, 53.519607 ], [ 16.996855, 53.550045 ], [ 16.952216, 53.549059 ], [ 16.899688, 53.621021 ], [ 16.860818, 53.745606 ], [ 16.927391, 53.777147 ], [ 16.943441, 53.801583 ], [ 16.914146, 53.802445 ], [ 16.873563, 53.833238 ], [ 16.867619, 53.856697 ], [ 16.898811, 53.875888 ], [ 16.970156, 53.880484 ], [ 16.982054, 53.904909 ], [ 16.878109, 53.942624 ], [ 16.873757, 53.973986 ], [ 16.839783, 53.995485 ], [ 16.792765, 53.98555 ], [ 16.787281, 54.025519 ], [ 16.810726, 54.066065 ], [ 16.794455, 54.082137 ], [ 16.801115, 54.114597 ], [ 16.719235, 54.213223 ], [ 16.736337, 54.230048 ], [ 16.860764, 54.26071 ], [ 16.858561, 54.297469 ], [ 16.818742, 54.319387 ], [ 16.825645, 54.345636 ], [ 16.810187, 54.364887 ], [ 16.854867, 54.383062 ], [ 16.827837, 54.415445 ], [ 16.8386, 54.436913 ], [ 16.819375, 54.471839 ], [ 16.759724, 54.491036 ], [ 16.742363, 54.533086 ], [ 16.699085, 54.569247 ], [ 16.919237, 54.601044 ], [ 17.049462, 54.66842 ], [ 17.253532, 54.731872 ], [ 17.96445, 54.830465 ], [ 18.330598, 54.8335 ], [ 18.421198, 54.794481 ], [ 18.396698, 54.731262 ], [ 18.467634, 54.695288 ], [ 18.472203, 54.634907 ], [ 18.510705, 54.6324 ], [ 18.561361, 54.540704 ], [ 18.563993, 54.459996 ], [ 18.597703, 54.426809 ], [ 18.734572, 54.375284 ], [ 18.882624, 54.34824 ], [ 18.95003, 54.35831 ] ] ], [ [ [ 18.829608, 54.606144 ], [ 18.815252, 54.593011 ], [ 18.779376, 54.612911 ], [ 18.713637, 54.681177 ], [ 18.782306, 54.654279 ], [ 18.829608, 54.606144 ] ] ], [ [ [ 18.689803, 54.698082 ], [ 18.653067, 54.700078 ], [ 18.638209, 54.713998 ], [ 18.689803, 54.698082 ] ] ] ] } },
{ "type": "Feature", "properties": { "loc": "PL71" }, "geometry": { "type": "Polygon", "coordinates": [ [ [ 19.936101, 52.299733 ], [ 19.970132, 52.268888 ], [ 20.071176, 52.235254 ], [ 20.066089, 52.190986 ], [ 20.095552, 52.154091 ], [ 20.155359, 52.148249 ], [ 20.194227, 52.120499 ], [ 20.261932, 52.103579 ], [ 20.266572, 52.084592 ], [ 20.246466, 52.053737 ], [ 20.20827, 52.023564 ], [ 20.274171, 51.97132 ], [ 20.248613, 51.937123 ], [ 20.298454, 51.934758 ], [ 20.31975, 51.915855 ], [ 20.445311, 51.938444 ], [ 20.477817, 51.924913 ], [ 20.491141, 51.895433 ], [ 20.559926, 51.885332 ], [ 20.609228, 51.82844 ], [ 20.579036, 51.81144 ], [ 20.589785, 51.754607 ], [ 20.650887, 51.71577 ], [ 20.647205, 51.68085 ], [ 20.624944, 51.664219 ], [ 20.53212, 51.6676 ], [ 20.460631, 51.692299 ], [ 20.403779, 51.671162 ], [ 20.385006, 51.64161 ], [ 20.412347, 51.632249 ], [ 20.437705, 51.575349 ], [ 20.465302, 51.562725 ], [ 20.452799, 51.507741 ], [ 20.516454, 51.507233 ], [ 20.527643, 51.468893 ], [ 20.490173, 51.440823 ], [ 20.483556, 51.41374 ], [ 20.448391, 51.408382 ], [ 20.424305, 51.365433 ], [ 20.432815, 51.339405 ], [ 20.368175, 51.308983 ], [ 20.387305, 51.272789 ], [ 20.371268, 51.240138 ], [ 20.253541, 51.256581 ], [ 20.244505, 51.246619 ], [ 20.259693, 51.215232 ], [ 20.227846, 51.201367 ], [ 20.114552, 51.190848 ], [ 20.042531, 51.201596 ], [ 19.999631, 51.187172 ], [ 20.021678, 51.161337 ], [ 19.988967, 51.129926 ], [ 19.985894, 51.077732 ], [ 20.051415, 51.059941 ], [ 20.034156, 50.975131 ], [ 20.011736, 50.965411 ], [ 19.877962, 51.045975 ], [ 19.831053, 50.968349 ], [ 19.840764, 50.925683 ], [ 19.727236, 50.845194 ], [ 19.688394, 50.845566 ], [ 19.576044, 50.904108 ], [ 19.481536, 50.884338 ], [ 19.398647, 50.993378 ], [ 19.359975, 50.9965 ], [ 19.328333, 51.017857 ], [ 19.32022, 51.043078 ], [ 19.243143, 51.036844 ], [ 19.249189, 51.002157 ], [ 19.212003, 50.985491 ], [ 19.141708, 51.009489 ], [ 19.121073, 51.003303 ], [ 19.088769, 51.032607 ], [ 19.053513, 51.026986 ], [ 19.000743, 51.071748 ], [ 18.923335, 51.095883 ], [ 18.889547, 51.060626 ], [ 18.857056, 51.072915 ], [ 18.672955, 51.056902 ], [ 18.58132, 51.083143 ], [ 18.549498, 51.137724 ], [ 18.520861, 51.136743 ], [ 18.51614, 51.108688 ], [ 18.485424, 51.092629 ], [ 18.461089, 51.117697 ], [ 18.163682, 51.172517 ], [ 18.177419, 51.224438 ], [ 18.169431, 51.267074 ], [ 18.108427, 51.264789 ], [ 18.110137, 51.309509 ], [ 18.07945, 51.350428 ], [ 18.129973, 51.360547 ], [ 18.151128, 51.389372 ], [ 18.193655, 51.39059 ], [ 18.208709, 51.423657 ], [ 18.197003, 51.441247 ], [ 18.215684, 51.452163 ], [ 18.326084, 51.421729 ], [ 18.380137, 51.477825 ], [ 18.379543, 51.513636 ], [ 18.362298, 51.535427 ], [ 18.373466, 51.595058 ], [ 18.353507, 51.603252 ], [ 18.364987, 51.618077 ], [ 18.353573, 51.630064 ], [ 18.378176, 51.649237 ], [ 18.358442, 51.668534 ], [ 18.41004, 51.703894 ], [ 18.404813, 51.722011 ], [ 18.428867, 51.763823 ], [ 18.416607, 51.789773 ], [ 18.438734, 51.798108 ], [ 18.445698, 51.823715 ], [ 18.465022, 51.82504 ], [ 18.471966, 51.851005 ], [ 18.504265, 51.852144 ], [ 18.521843, 51.836021 ], [ 18.59269, 51.846846 ], [ 18.684191, 51.823515 ], [ 18.700591, 51.864642 ], [ 18.764491, 51.926148 ], [ 18.718897, 51.965711 ], [ 18.730755, 51.975429 ], [ 18.720792, 52.063837 ], [ 18.750197, 52.073944 ], [ 18.827809, 52.064188 ], [ 18.858523, 52.085598 ], [ 18.921675, 52.080468 ], [ 18.943816, 52.10719 ], [ 18.944916, 52.123113 ], [ 18.911154, 52.14122 ], [ 18.931705, 52.195861 ], [ 18.993951, 52.212124 ], [ 19.081964, 52.209096 ], [ 19.078407, 52.229584 ], [ 19.100068, 52.257107 ], [ 19.040247, 52.275971 ], [ 19.04712, 52.332804 ], [ 19.195398, 52.354202 ], [ 19.21934, 52.34373 ], [ 19.215094, 52.363335 ], [ 19.289185, 52.392712 ], [ 19.326857, 52.348998 ], [ 19.454004, 52.347946 ], [ 19.496984, 52.333875 ], [ 19.518668, 52.30618 ], [ 19.611722, 52.287444 ], [ 19.64113, 52.256303 ], [ 19.681626, 52.258379 ], [ 19.701573, 52.276034 ], [ 19.741952, 52.259834 ], [ 19.805211, 52.281095 ], [ 19.849144, 52.274113 ], [ 19.888958, 52.308995 ], [ 19.936101, 52.299733 ] ] ] } },
{ "type": "Feature", "properties": { "loc": "PL72" }, "geometry": { "type": "Polygon", "coordinates": [ [ [ 21.515758, 51.05792 ], [ 21.676025, 51.075384 ], [ 21.707583, 51.044239 ], [ 21.754096, 51.039383 ], [ 21.802998, 51.072079 ], [ 21.820849, 51.050489 ], [ 21.80791, 51.02399 ], [ 21.814999, 50.937416 ], [ 21.864304, 50.802706 ], [ 21.819917, 50.693247 ], [ 21.790148, 50.679722 ], [ 21.776807, 50.647298 ], [ 21.723678, 50.643179 ], [ 21.67553, 50.608719 ], [ 21.6037, 50.522598 ], [ 21.45532, 50.492923 ], [ 21.441276, 50.456107 ], [ 21.314925, 50.422677 ], [ 21.17643, 50.331838 ], [ 21.133282, 50.352162 ], [ 21.055872, 50.317024 ], [ 20.893522, 50.304114 ], [ 20.836381, 50.275745 ], [ 20.787513, 50.286476 ], [ 20.681539, 50.205875 ], [ 20.515203, 50.188494 ], [ 20.423543, 50.19513 ], [ 20.381533, 50.216471 ], [ 20.384919, 50.241198 ], [ 20.339343, 50.267415 ], [ 20.3542, 50.283993 ], [ 20.297987, 50.327705 ], [ 20.299937, 50.348351 ], [ 20.330606, 50.362087 ], [ 20.267925, 50.431749 ], [ 20.262908, 50.47036 ], [ 20.202915, 50.493391 ], [ 20.106559, 50.487888 ], [ 20.066099, 50.508666 ], [ 19.980164, 50.517644 ], [ 19.949967, 50.504782 ], [ 19.916671, 50.5132 ], [ 19.894137, 50.539136 ], [ 19.798426, 50.559284 ], [ 19.858613, 50.615593 ], [ 19.894972, 50.618674 ], [ 19.905642, 50.640937 ], [ 19.843286, 50.654518 ], [ 19.865492, 50.690897 ], [ 19.71295, 50.729156 ], [ 19.711382, 50.759187 ], [ 19.747748, 50.759974 ], [ 19.785843, 50.783025 ], [ 19.78931, 50.815214 ], [ 19.818234, 50.807928 ], [ 19.825, 50.828152 ], [ 19.805662, 50.844856 ], [ 19.74706, 50.86597 ], [ 19.840764, 50.925683 ], [ 19.831053, 50.968349 ], [ 19.877962, 51.045975 ], [ 20.011736, 50.965411 ], [ 20.034156, 50.975131 ], [ 20.051415, 51.059941 ], [ 19.985894, 51.077732 ], [ 19.988967, 51.129926 ], [ 20.021678, 51.161337 ], [ 19.999631, 51.187172 ], [ 20.042531, 51.201596 ], [ 20.114552, 51.190848 ], [ 20.227846, 51.201367 ], [ 20.259693, 51.215232 ], [ 20.244505, 51.246619 ], [ 20.253541, 51.256581 ], [ 20.371268, 51.240138 ], [ 20.387305, 51.272789 ], [ 20.368175, 51.308983 ], [ 20.432815, 51.339405 ], [ 20.509269, 51.327355 ], [ 20.498013, 51.299379 ], [ 20.531703, 51.272899 ], [ 20.544452, 51.233511 ], [ 20.604045, 51.245217 ], [ 20.69448, 51.198359 ], [ 20.691568, 51.15115 ], [ 20.724551, 51.17083 ], [ 20.810234, 51.147692 ], [ 20.825854, 51.176612 ], [ 20.87947, 51.156961 ], [ 20.922425, 51.19319 ], [ 21.006869, 51.146893 ], [ 21.058443, 51.161174 ], [ 21.077984, 51.208932 ], [ 21.115582, 51.189459 ], [ 21.095271, 51.156617 ], [ 21.153656, 51.124918 ], [ 21.160414, 51.081154 ], [ 21.347796, 51.083992 ], [ 21.386612, 51.040394 ], [ 21.463647, 51.014641 ], [ 21.48848, 51.021474 ], [ 21.515758, 51.05792 ] ] ] } },
{ "type": "Feature", "properties": { "loc": "PL81" }, "geometry": { "type": "Polygon", "coordinates": [ [ [ 23.709221, 51.277648 ], [ 23.744405, 51.215693 ], [ 23.865288, 51.150967 ], [ 23.860381, 51.100763 ], [ 23.908321, 51.07342 ], [ 23.926105, 51.008004 ], [ 23.961069, 50.984693 ], [ 23.972215, 50.952499 ], [ 24.054687, 50.892896 ], [ 24.141788, 50.867295 ], [ 24.120978, 50.844856 ], [ 24.079592, 50.834838 ], [ 23.999665, 50.838579 ], [ 23.961491, 50.79779 ], [ 23.973419, 50.775648 ], [ 24.01758, 50.767303 ], [ 24.02158, 50.724877 ], [ 24.070227, 50.714631 ], [ 24.06562, 50.680058 ], [ 24.095711, 50.634528 ], [ 24.088146, 50.554092 ], [ 24.033139, 50.446563 ], [ 23.991619, 50.413229 ], [ 23.803662, 50.404563 ], [ 23.725077, 50.386527 ], [ 23.684204, 50.333646 ], [ 23.642485, 50.320314 ], [ 23.547642, 50.251602 ], [ 23.512375, 50.263716 ], [ 23.513089, 50.29582 ], [ 23.414822, 50.307741 ], [ 23.432812, 50.343719 ], [ 23.380077, 50.370518 ], [ 23.369226, 50.39289 ], [ 23.384243, 50.403993 ], [ 23.365046, 50.409094 ], [ 23.255701, 50.364313 ], [ 23.180813, 50.392837 ], [ 23.020952, 50.288401 ], [ 22.638222, 50.303077 ], [ 22.615579, 50.32336 ], [ 22.675932, 50.352666 ], [ 22.504482, 50.349699 ], [ 22.412744, 50.405266 ], [ 22.448963, 50.431493 ], [ 22.457966, 50.459847 ], [ 22.537288, 50.454209 ], [ 22.563285, 50.469793 ], [ 22.547601, 50.482325 ], [ 22.561065, 50.501001 ], [ 22.5241, 50.534003 ], [ 22.53284, 50.560801 ], [ 22.519738, 50.583233 ], [ 22.416672, 50.582664 ], [ 22.326575, 50.616889 ], [ 22.253883, 50.622043 ], [ 22.218803, 50.660696 ], [ 22.151354, 50.670006 ], [ 22.201188, 50.752874 ], [ 22.156531, 50.773194 ], [ 22.156265, 50.797998 ], [ 22.055323, 50.818826 ], [ 21.943034, 50.772467 ], [ 21.881574, 50.780288 ], [ 21.814999, 50.937416 ], [ 21.80791, 51.02399 ], [ 21.820849, 51.050489 ], [ 21.802998, 51.072079 ], [ 21.787743, 51.191185 ], [ 21.814281, 51.253762 ], [ 21.846148, 51.275922 ], [ 21.799201, 51.29338 ], [ 21.84727, 51.358717 ], [ 21.7661, 51.401959 ], [ 21.801305, 51.42464 ], [ 21.842095, 51.424927 ], [ 21.866954, 51.471166 ], [ 21.819444, 51.559882 ], [ 21.689763, 51.572784 ], [ 21.615543, 51.617562 ], [ 21.637097, 51.627265 ], [ 21.648614, 51.658464 ], [ 21.745758, 51.614608 ], [ 21.764289, 51.639723 ], [ 21.831609, 51.650124 ], [ 21.897123, 51.701539 ], [ 21.839196, 51.747255 ], [ 21.950347, 51.79558 ], [ 21.923335, 51.835389 ], [ 21.862492, 51.831787 ], [ 21.847911, 51.843935 ], [ 21.885878, 51.858024 ], [ 21.908544, 51.887852 ], [ 21.868546, 51.945368 ], [ 21.892528, 51.975915 ], [ 22.035821, 52.0209 ], [ 22.110384, 52.00235 ], [ 22.1562, 52.026189 ], [ 22.255656, 52.006778 ], [ 22.306871, 52.036736 ], [ 22.321635, 52.032755 ], [ 22.323856, 52.006723 ], [ 22.347875, 51.998483 ], [ 22.432665, 52.018715 ], [ 22.493751, 52.067076 ], [ 22.622902, 52.018744 ], [ 22.66235, 52.043684 ], [ 22.66668, 52.07295 ], [ 22.65238, 52.092452 ], [ 22.694376, 52.115184 ], [ 22.785752, 52.071488 ], [ 22.827545, 52.080589 ], [ 22.900743, 52.066481 ], [ 22.898529, 52.104582 ], [ 22.959288, 52.109264 ], [ 22.937395, 52.137839 ], [ 22.983697, 52.172346 ], [ 23.049029, 52.176752 ], [ 23.034171, 52.217256 ], [ 23.080546, 52.239352 ], [ 23.128409, 52.287841 ], [ 23.178338, 52.283141 ], [ 23.199376, 52.274902 ], [ 23.207422, 52.226759 ], [ 23.363916, 52.205733 ], [ 23.42586, 52.174931 ], [ 23.490752, 52.178241 ], [ 23.490606, 52.154137 ], [ 23.548691, 52.114936 ], [ 23.602705, 52.114197 ], [ 23.649941, 52.073083 ], [ 23.661442, 52.019105 ], [ 23.685696, 51.990848 ], [ 23.615727, 51.919299 ], [ 23.633645, 51.893139 ], [ 23.609844, 51.873491 ], [ 23.605867, 51.833832 ], [ 23.637729, 51.800541 ], [ 23.623373, 51.777452 ], [ 23.529386, 51.734392 ], [ 23.556641, 51.697901 ], [ 23.539698, 51.648399 ], [ 23.543823, 51.602415 ], [ 23.573186, 51.558398 ], [ 23.566218, 51.537984 ], [ 23.609804, 51.528433 ], [ 23.631158, 51.490764 ], [ 23.669074, 51.481308 ], [ 23.650092, 51.45126 ], [ 23.681924, 51.441782 ], [ 23.699199, 51.408387 ], [ 23.638974, 51.314754 ], [ 23.653272, 51.290635 ], [ 23.709221, 51.277648 ] ] ] } },
{ "type": "Feature", "properties": { "loc": "PL92" }, "geometry": { "type": "MultiPolygon", "coordinates": [ [ [ [ 22.408589, 52.60969 ], [ 22.521058, 52.524424 ], [ 22.513148, 52.482986 ], [ 22.549864, 52.464168 ], [ 22.545088, 52.424904 ], [ 22.581814, 52.396458 ], [ 22.702203, 52.391808 ], [ 22.725583, 52.371408 ], [ 22.759607, 52.379979 ], [ 22.847113, 52.361149 ], [ 22.94454, 52.369678 ], [ 23.042461, 52.323609 ], [ 23.06036, 52.285789 ], [ 23.128409, 52.287841 ], [ 23.080546, 52.239352 ], [ 23.034171, 52.217256 ], [ 23.049029, 52.176752 ], [ 22.983697, 52.172346 ], [ 22.937395, 52.137839 ], [ 22.959288, 52.109264 ], [ 22.898529, 52.104582 ], [ 22.900743, 52.066481 ], [ 22.827545, 52.080589 ], [ 22.785752, 52.071488 ], [ 22.694376, 52.115184 ], [ 22.65238, 52.092452 ], [ 22.66668, 52.07295 ], [ 22.66235, 52.043684 ], [ 22.622902, 52.018744 ], [ 22.493751, 52.067076 ], [ 22.432665, 52.018715 ], [ 22.347875, 51.998483 ], [ 22.323856, 52.006723 ], [ 22.321635, 52.032755 ], [ 22.306871, 52.036736 ], [ 22.255656, 52.006778 ], [ 22.1562, 52.026189 ], [ 22.110384, 52.00235 ], [ 22.035821, 52.0209 ], [ 21.892528, 51.975915 ], [ 21.868546, 51.945368 ], [ 21.908544, 51.887852 ], [ 21.885878, 51.858024 ], [ 21.847911, 51.843935 ], [ 21.862492, 51.831787 ], [ 21.923335, 51.835389 ], [ 21.950347, 51.79558 ], [ 21.839196, 51.747255 ], [ 21.897123, 51.701539 ], [ 21.831609, 51.650124 ], [ 21.764289, 51.639723 ], [ 21.745758, 51.614608 ], [ 21.648614, 51.658464 ], [ 21.637097, 51.627265 ], [ 21.615543, 51.617562 ], [ 21.689763, 51.572784 ], [ 21.819444, 51.559882 ], [ 21.866954, 51.471166 ], [ 21.842095, 51.424927 ], [ 21.801305, 51.42464 ], [ 21.7661, 51.401959 ], [ 21.84727, 51.358717 ], [ 21.799201, 51.29338 ], [ 21.846148, 51.275922 ], [ 21.814281, 51.253762 ], [ 21.787743, 51.191185 ], [ 21.802998, 51.072079 ], [ 21.754096, 51.039383 ], [ 21.707583, 51.044239 ], [ 21.676025, 51.075384 ], [ 21.548955, 51.050458 ], [ 21.515758, 51.05792 ], [ 21.48848, 51.021474 ], [ 21.463647, 51.014641 ], [ 21.386612, 51.040394 ], [ 21.347796, 51.083992 ], [ 21.160414, 51.081154 ], [ 21.153656, 51.124918 ], [ 21.095271, 51.156617 ], [ 21.115582, 51.189459 ], [ 21.077984, 51.208932 ], [ 21.058443, 51.161174 ], [ 21.006869, 51.146893 ], [ 20.922425, 51.19319 ], [ 20.87947, 51.156961 ], [ 20.825854, 51.176612 ], [ 20.810234, 51.147692 ], [ 20.724551, 51.17083 ], [ 20.691568, 51.15115 ], [ 20.69448, 51.198359 ], [ 20.604045, 51.245217 ], [ 20.544452, 51.233511 ], [ 20.531703, 51.272899 ], [ 20.498013, 51.299379 ], [ 20.509269, 51.327355 ], [ 20.432815, 51.339405 ], [ 20.424305, 51.365433 ], [ 20.448391, 51.408382 ], [ 20.483556, 51.41374 ], [ 20.490173, 51.440823 ], [ 20.522628, 51.457121 ], [ 20.516454, 51.507233 ], [ 20.452799, 51.507741 ], [ 20.465302, 51.562725 ], [ 20.437705, 51.575349 ], [ 20.412347, 51.632249 ], [ 20.385006, 51.64161 ], [ 20.403779, 51.671162 ], [ 20.460631, 51.692299 ], [ 20.559926, 51.66385 ], [ 20.624944, 51.664219 ], [ 20.647205, 51.68085 ], [ 20.645924, 51.726553 ], [ 20.589785, 51.754607 ], [ 20.579036, 51.81144 ], [ 20.609228, 51.82844 ], [ 20.58736, 51.862349 ], [ 20.559926, 51.885332 ], [ 20.491141, 51.895433 ], [ 20.477817, 51.924913 ], [ 20.445311, 51.938444 ], [ 20.31975, 51.915855 ], [ 20.298454, 51.934758 ], [ 20.248613, 51.937123 ], [ 20.274171, 51.97132 ], [ 20.20827, 52.023564 ], [ 20.246466, 52.053737 ], [ 20.266572, 52.084592 ], [ 20.261932, 52.103579 ], [ 20.194227, 52.120499 ], [ 20.155359, 52.148249 ], [ 20.095552, 52.154091 ], [ 20.066089, 52.190986 ], [ 20.071176, 52.235254 ], [ 20.029678, 52.258625 ], [ 19.970132, 52.268888 ], [ 19.936101, 52.299733 ], [ 19.888958, 52.308995 ], [ 19.849144, 52.274113 ], [ 19.805211, 52.281095 ], [ 19.741952, 52.259834 ], [ 19.701573, 52.276034 ], [ 19.681626, 52.258379 ], [ 19.64113, 52.256303 ], [ 19.611722, 52.287444 ], [ 19.518668, 52.30618 ], [ 19.496984, 52.333875 ], [ 19.454004, 52.347946 ], [ 19.326857, 52.348998 ], [ 19.298814, 52.37178 ], [ 19.29037, 52.42477 ], [ 19.272331, 52.442165 ], [ 19.317985, 52.452356 ], [ 19.380622, 52.509655 ], [ 19.353259, 52.527163 ], [ 19.345884, 52.561848 ], [ 19.418794, 52.605124 ], [ 19.376427, 52.632991 ], [ 19.436994, 52.677898 ], [ 19.447824, 52.719602 ], [ 19.511339, 52.712224 ], [ 19.514828, 52.746489 ], [ 19.499484, 52.767038 ], [ 19.4281, 52.821324 ], [ 19.431709, 52.837784 ], [ 19.498482, 52.868745 ], [ 19.444664, 52.939042 ], [ 19.535905, 52.942409 ], [ 19.574409, 52.959622 ], [ 19.579172, 52.98242 ], [ 19.684806, 52.963039 ], [ 19.66918, 52.98758 ], [ 19.682871, 53.022933 ], [ 19.655328, 53.04266 ], [ 19.636859, 53.108027 ], [ 19.67131, 53.108919 ], [ 19.761596, 53.151796 ], [ 19.833264, 53.145107 ], [ 19.835955, 53.179458 ], [ 19.899617, 53.209859 ], [ 19.916671, 53.174915 ], [ 19.977782, 53.145608 ], [ 20.099047, 53.167122 ], [ 20.142672, 53.142709 ], [ 20.173365, 53.154484 ], [ 20.299049, 53.14045 ], [ 20.35125, 53.149168 ], [ 20.338137, 53.163934 ], [ 20.456465, 53.243399 ], [ 20.554928, 53.226792 ], [ 20.653907, 53.254251 ], [ 20.719367, 53.309426 ], [ 20.846844, 53.295416 ], [ 20.875794, 53.318961 ], [ 20.903829, 53.313217 ], [ 20.914749, 53.344557 ], [ 20.939302, 53.357495 ], [ 20.99532, 53.359008 ], [ 21.060236, 53.336659 ], [ 21.245766, 53.417757 ], [ 21.416833, 53.42942 ], [ 21.437202, 53.439392 ], [ 21.437915, 53.46279 ], [ 21.56579, 53.480795 ], [ 21.612953, 53.480833 ], [ 21.612969, 53.436105 ], [ 21.672191, 53.367813 ], [ 21.664527, 53.340615 ], [ 21.717841, 53.315085 ], [ 21.662855, 53.308444 ], [ 21.644128, 53.259188 ], [ 21.70582, 53.133089 ], [ 21.738974, 53.113181 ], [ 21.810031, 53.108736 ], [ 21.873303, 53.063097 ], [ 21.92864, 53.070377 ], [ 21.926036, 53.045575 ], [ 21.899577, 53.037578 ], [ 21.887049, 53.013556 ], [ 21.997794, 52.966297 ], [ 22.018218, 52.93845 ], [ 22.000321, 52.916072 ], [ 22.005109, 52.892762 ], [ 22.047399, 52.852777 ], [ 22.146286, 52.847777 ], [ 22.198924, 52.856691 ], [ 22.219564, 52.880473 ], [ 22.277607, 52.879717 ], [ 22.299163, 52.845949 ], [ 22.253262, 52.827098 ], [ 22.311272, 52.750572 ], [ 22.332394, 52.747669 ], [ 22.346254, 52.771858 ], [ 22.38867, 52.792386 ], [ 22.450968, 52.784999 ], [ 22.438398, 52.693595 ], [ 22.459069, 52.642453 ], [ 22.408589, 52.60969 ] ], [ [ 20.404814, 52.384342 ], [ 20.421224, 52.334755 ], [ 20.383653, 52.320434 ], [ 20.394459, 52.30468 ], [ 20.382005, 52.297069 ], [ 20.329539, 52.285453 ], [ 20.340334, 52.243614 ], [ 20.407878, 52.243157 ], [ 20.418001, 52.220043 ], [ 20.440794, 52.239127 ], [ 20.487, 52.23459 ], [ 20.482243, 52.178695 ], [ 20.414914, 52.192143 ], [ 20.398132, 52.166397 ], [ 20.473875, 52.039357 ], [ 20.615671, 52.045799 ], [ 20.60095, 51.969516 ], [ 20.635752, 51.936746 ], [ 20.799349, 51.954487 ], [ 20.843529, 51.932819 ], [ 20.923867, 51.933817 ], [ 20.967304, 51.91111 ], [ 21.093307, 51.938446 ], [ 21.178426, 51.926016 ], [ 21.211103, 51.897935 ], [ 21.29909, 51.878322 ], [ 21.3178, 51.902084 ], [ 21.475494, 51.909249 ], [ 21.451805, 51.932738 ], [ 21.481299, 51.951398 ], [ 21.475933, 51.976785 ], [ 21.579761, 52.036106 ], [ 21.634935, 52.007597 ], [ 21.664661, 52.022913 ], [ 21.777019, 51.976003 ], [ 21.808844, 51.978524 ], [ 21.876471, 51.990614 ], [ 21.876372, 52.038736 ], [ 21.970324, 52.088765 ], [ 21.909334, 52.165887 ], [ 21.932462, 52.208897 ], [ 21.923161, 52.225097 ], [ 21.869082, 52.220293 ], [ 21.85427, 52.246089 ], [ 21.802054, 52.267228 ], [ 21.745343, 52.32155 ], [ 21.777998, 52.347285 ], [ 21.708986, 52.406174 ], [ 21.693769, 52.449109 ], [ 21.725009, 52.463124 ], [ 21.72225, 52.490156 ], [ 21.693605, 52.510488 ], [ 21.635569, 52.518475 ], [ 21.596812, 52.553231 ], [ 21.561315, 52.548291 ], [ 21.564544, 52.515094 ], [ 21.519812, 52.482939 ], [ 21.421013, 52.465766 ], [ 21.318541, 52.50589 ], [ 21.299661, 52.530687 ], [ 21.21933, 52.532055 ], [ 21.158315, 52.51401 ], [ 21.123712, 52.536155 ], [ 21.116847, 52.562013 ], [ 21.042494, 52.535166 ], [ 20.981858, 52.539916 ], [ 20.911118, 52.57113 ], [ 20.853564, 52.634605 ], [ 20.759569, 52.642916 ], [ 20.718979, 52.617254 ], [ 20.709599, 52.591807 ], [ 20.661945, 52.593832 ], [ 20.610923, 52.568011 ], [ 20.617891, 52.530382 ], [ 20.584635, 52.50676 ], [ 20.571989, 52.467157 ], [ 20.489057, 52.44415 ], [ 20.492058, 52.420332 ], [ 20.404814, 52.384342 ] ], [ [ 20.660006, 51.923339 ], [ 20.675429, 51.931422 ], [ 20.649266, 51.929498 ], [ 20.660006, 51.923339 ] ] ], [ [ [ 20.408159, 52.29477 ], [ 20.401296, 52.309342 ], [ 20.41747, 52.310516 ], [ 20.408159, 52.29477 ] ] ], [ [ [ 19.339148, 52.535947 ], [ 19.346807, 52.522388 ], [ 19.322521, 52.530823 ], [ 19.339148, 52.535947 ] ] ] ] } }
]
}
