{
"type": "FeatureCollection",
"name": "border_AO",
"crs": { "type": "name", "properties": { "name": "urn:ogc:def:crs:OGC:1.3:CRS84" } },
"features": [
{ "type": "Feature", "properties": { }, "geometry": { "type": "Polygon", "coordinates": [ [ [ 12.995517205465177, -4.781103203961884 ], [ 12.63161176926579, -4.991271254092936 ], [ 12.468004184629736, -5.248361504745005 ], [ 12.436688266660868, -5.684303887559246 ], [ 12.182336866920252, -5.789930515163839 ], [ 11.91496300624209, -5.037986748884791 ], [ 12.318607618873926, -4.606230157086188 ], [ 12.620759718484493, -4.438023369976136 ], [ 12.995517205465177, -4.781103203961884 ] ] ] } },
{ "type": "Feature", "properties": { }, "geometry": { "type": "Polygon", "coordinates": [ [ [ 12.322431674863511, -6.10009246177966 ], [ 13.375597364971895, -5.864241224799549 ], [ 16.326528354567046, -5.877470391466268 ], [ 16.860190870845202, -7.222297865429987 ], [ 17.472970004962235, -8.0685511206417 ], [ 18.134221632569052, -7.987677504104923 ], [ 18.464175652752687, -7.847014255406443 ], [ 19.016751743249671, -7.988245944860132 ], [ 19.41750247567316, -7.155428562044299 ], [ 20.037723016040218, -7.116361179231646 ], [ 20.091621534920648, -6.943090101756994 ], [ 20.601822950938299, -6.939317722199682 ], [ 20.514748162526502, -7.299605808138629 ], [ 21.728110792739699, -7.290872491081302 ], [ 21.746455926203311, -7.920084730667149 ], [ 21.949130893652043, -8.305900974158277 ], [ 21.8018013851879, -8.908706556842979 ], [ 21.875181919042348, -9.523707777548566 ], [ 22.208753289486395, -9.894796237836509 ], [ 22.155268182064308, -11.084801120653772 ], [ 23.45679080576744, -10.867863457892483 ], [ 23.912215203555718, -10.926826267137514 ], [ 24.017893507592589, -11.23729827234709 ], [ 23.904153680118185, -11.722281589406322 ], [ 24.079905226342845, -12.191296888887365 ], [ 23.930922072045377, -12.565847670138856 ], [ 24.016136508894675, -12.911046237848574 ], [ 21.933886346125917, -12.898437188369359 ], [ 21.887842644953874, -16.08031015387688 ], [ 22.562478468524262, -16.898451429921813 ], [ 23.215048455506064, -17.523116143465984 ], [ 21.377176141045567, -17.930636488519696 ], [ 18.956186964603603, -17.789094740472258 ], [ 18.263309360434164, -17.309950860262006 ], [ 14.209706658595024, -17.353100681225719 ], [ 14.05850141770901, -17.423380629142663 ], [ 13.462362094789967, -16.971211846588773 ], [ 12.814081251688407, -16.941342868724071 ], [ 11.734198846085121, -17.301889336824473 ], [ 11.640096062881611, -16.673142185129251 ], [ 11.778537224991537, -15.793816013250735 ], [ 12.123580763404391, -14.878316338767904 ], [ 12.175618930722294, -14.449143568583892 ], [ 12.500095249082991, -13.54769988368445 ], [ 12.738478631245385, -13.137905775609902 ], [ 13.633721144269799, -12.03864470789717 ], [ 13.738727654686897, -11.297863050993165 ], [ 13.686379428775238, -10.73107594161589 ], [ 13.387327915102162, -10.373578383020714 ], [ 12.875369500386569, -9.166933689005468 ], [ 12.929061313537829, -8.959091078327553 ], [ 13.236432732809874, -8.562629489784307 ], [ 12.728298374083892, -6.927122084178805 ], [ 12.227347039446471, -6.294447523629394 ], [ 12.322431674863511, -6.10009246177966 ] ] ] } }
]
}
