{
"type": "FeatureCollection",
"name": "border_MG",
"crs": { "type": "name", "properties": { "name": "urn:ogc:def:crs:OGC:1.3:CRS84" } },
"features": [
{ "type": "Feature", "properties": { }, "geometry": { "type": "Polygon", "coordinates": [ [ [ 49.194651320193316, -12.04055673589197 ], [ 49.808980747279094, -12.895284925999555 ], [ 50.056510857957164, -13.555761407121985 ], [ 50.217431268114069, -14.758788750876796 ], [ 50.476536899625529, -15.226512139550543 ], [ 50.377111443895956, -15.706069431219127 ], [ 50.200274692593183, -16.000263360256767 ], [ 49.860605503138679, -15.414252618066918 ], [ 49.672606642460863, -15.710203545802479 ], [ 49.863344354050156, -16.451036879138776 ], [ 49.774564243372708, -16.875042006093601 ], [ 49.498612094934117, -17.106035658438273 ], [ 49.435618523970305, -17.953064060134366 ], [ 47.930749139198667, -22.391501153251085 ], [ 47.547723423051309, -23.781958916928517 ], [ 47.095761346226595, -24.941629733990453 ], [ 46.282477654817086, -25.178462823184105 ], [ 45.409507684110451, -25.601434421493089 ], [ 44.039720493349762, -24.988345228782308 ], [ 43.763768344911171, -24.460677178649991 ], [ 43.697777540874455, -23.574116306250602 ], [ 43.345654331237625, -22.776903985283873 ], [ 43.254187046081, -22.057413018484123 ], [ 43.43329756040464, -21.336475111580189 ], [ 43.893682895692926, -21.163307386970128 ], [ 43.896370070172104, -20.830459486578174 ], [ 44.374325392439658, -20.072366224856388 ], [ 44.464397413924388, -19.435454196859048 ], [ 44.042976108584156, -18.331387220943171 ], [ 43.963084344260913, -17.409944756746782 ], [ 44.31246870298628, -16.850495700754955 ], [ 44.446517368351401, -16.216219170804507 ], [ 44.944936557806528, -16.179373874580399 ], [ 45.872993605336262, -15.793454278224687 ], [ 46.31224327981721, -15.780018405828798 ], [ 46.882182651564285, -15.210182386946315 ], [ 47.705129835812357, -14.594302666891764 ], [ 48.005214878131255, -14.091232598530375 ], [ 47.869047479042166, -13.663868503476586 ], [ 48.293827752481377, -13.784067884987486 ], [ 48.845060255738787, -13.089174899958664 ], [ 48.863508742066983, -12.487867933810421 ], [ 49.194651320193316, -12.04055673589197 ] ] ] } }
]
}
