{
"type": "FeatureCollection",
"name": "border_SK",
"crs": { "type": "name", "properties": { "name": "urn:ogc:def:crs:OGC:1.3:CRS84" } },
"features": [
{ "type": "Feature", "properties": { }, "geometry": { "type": "Polygon", "coordinates": [ [ [ 22.558137648211755, 49.085738023467144 ], [ 22.28084191253356, 48.825392157580673 ], [ 22.085608351334855, 48.422264309271789 ], [ 21.872236362401736, 48.319970811550021 ], [ 20.801293979584926, 48.623854071642384 ], [ 20.473562045989866, 48.562850043321816 ], [ 20.239054396249347, 48.327567247096923 ], [ 18.777024773847671, 48.081768296900634 ], [ 18.696512892336926, 47.880953681014404 ], [ 17.857132602620027, 47.758428860050373 ], [ 16.979666782304037, 48.123497015976305 ], [ 16.879982944413001, 48.47001333270947 ], [ 17.101984897538898, 48.816968899117114 ], [ 17.545006951577108, 48.80001902932537 ], [ 17.886484816161811, 48.903475246773709 ], [ 17.913511590250465, 48.996492824899086 ], [ 18.104972771891852, 49.043983466175312 ], [ 18.170498488037964, 49.271514797556435 ], [ 18.399993523846177, 49.315000515330041 ], [ 18.554971144289482, 49.495015367218784 ], [ 18.853144158613617, 49.496229763377642 ], [ 18.909574822676319, 49.435845852244576 ], [ 19.320712517990472, 49.571574001659194 ], [ 19.825022820726872, 49.217125352569226 ], [ 20.415839471119853, 49.431453355499769 ], [ 20.887955356538413, 49.32877228453583 ], [ 21.607808058364213, 49.470107326854091 ], [ 22.558137648211755, 49.085738023467144 ] ] ] } }
]
}
