{
"type": "FeatureCollection",
"name": "regions_TD",
"crs": { "type": "name", "properties": { "name": "urn:ogc:def:crs:OGC:1.3:CRS84" } },
"features": [
{ "type": "Feature", "properties": { "loc": "TD-A1-0001" }, "geometry": { "type": "Polygon", "coordinates": [ [ [ 18.054736920023711, 15.478473960009552 ], [ 17.58378888033965, 13.747682969925311 ], [ 17.296805159875444, 13.665941009902603 ], [ 17.232302160199513, 13.433434020248068 ], [ 17.237595960345402, 13.244730029900817 ], [ 17.192657880126809, 13.12872804022088 ], [ 17.021454119895001, 13.142869019753997 ], [ 16.898709960229823, 13.111518959896648 ], [ 16.529541840067168, 13.058398979793692 ], [ 16.458569999888866, 13.040660970292114 ], [ 16.176755879758602, 13.023618029796177 ], [ 16.005332159840417, 13.033555019813145 ], [ 15.923880000019235, 13.199656680332636 ], [ 15.930402839486373, 13.45164003000091 ], [ 15.875386919561567, 13.607528039749305 ], [ 15.893723160017519, 13.678386029945454 ], [ 15.897390839937025, 13.727987010096619 ], [ 15.772686839897414, 13.759873020028067 ], [ 15.772686839897414, 13.735072980287942 ], [ 15.611303160134398, 13.742159039961908 ], [ 15.625973159994437, 14.036220000103615 ], [ 15.846042959626043, 14.181479999752909 ], [ 15.84971100017361, 14.202737009655962 ], [ 16.025766839925542, 14.372796959801214 ], [ 16.099547039873645, 14.458317029998678 ], [ 16.152546960178586, 14.554437029917754 ], [ 16.176147120214406, 14.766060959928616 ], [ 16.388141040006303, 15.458684040024139 ], [ 16.517255039861904, 15.928136009940395 ], [ 16.689642839808165, 16.23636998984631 ], [ 17.88181200021091, 15.709482990104316 ], [ 17.948040120027002, 15.581539979873536 ], [ 18.054736920023711, 15.478473960009552 ] ] ] } },
{ "type": "Feature", "properties": { "loc": "TD-A1-0002" }, "geometry": { "type": "Polygon", "coordinates": [ [ [ 20.041728840348476, 15.734495970103644 ], [ 20.045230919916595, 14.063987970040902 ], [ 20.053038959999885, 13.954733010000041 ], [ 20.251099079999939, 13.841361 ], [ 20.287779119999868, 13.749245010000021 ], [ 20.258435159999863, 13.607526960000037 ], [ 20.353799159999916, 13.430383019999979 ], [ 20.361134879999895, 13.019403960000039 ], [ 20.008438919999865, 12.933820980000052 ], [ 19.769283, 13.026223979999981 ], [ 19.187957160173834, 12.692150009990785 ], [ 18.470496960096821, 12.68504199032637 ], [ 18.161436960291404, 12.525111990104806 ], [ 18.131981040386584, 12.496924980332155 ], [ 18.062096040343949, 12.457586970291009 ], [ 17.955397079836093, 12.464694990140609 ], [ 17.881810920099266, 12.436263000118538 ], [ 17.598506039791388, 12.219470010216179 ], [ 17.572750920139661, 12.187484010139235 ], [ 17.602931159992767, 12.11241896991225 ], [ 17.492895000215807, 12.16201895981269 ], [ 17.441547120015581, 12.147848010147774 ], [ 17.419538880171341, 12.169105020099321 ], [ 17.404868880061191, 12.239963999978384 ], [ 17.29483308015503, 12.367508039841221 ], [ 17.29483308015503, 12.502139040101342 ], [ 17.192134080075654, 12.537567989794537 ], [ 17.126112960086353, 12.643856009782647 ], [ 17.111441879933302, 12.764314979885269 ], [ 16.950057839962511, 12.89185902019779 ], [ 17.140785119832618, 13.061918970151195 ], [ 17.192657880126809, 13.12872804022088 ], [ 17.237595960345402, 13.244730029900817 ], [ 17.232302160199513, 13.433434020248068 ], [ 17.296805159875444, 13.665941009902603 ], [ 17.58378888033965, 13.747682969925311 ], [ 18.054736920023711, 15.478473960009552 ], [ 18.275495040526462, 15.350529960298452 ], [ 18.42634512034385, 15.311436029857926 ], [ 18.650783160077538, 15.311436029857926 ], [ 18.839260080201363, 15.347049029997827 ], [ 19.075278959718993, 15.51350403039574 ], [ 19.266579000133515, 15.804180000016053 ], [ 19.27948104023061, 16.105753980270997 ], [ 19.402337160094678, 16.081182000058313 ], [ 19.549776960351188, 15.835457970218179 ], [ 20.041728840348476, 15.734495970103644 ] ] ] } },
{ "type": "Feature", "properties": { "loc": "TD-A1-0003" }, "geometry": { "type": "Polygon", "coordinates": [ [ [ 20.736653039826066, 20.656474199924567 ], [ 20.557656359473491, 20.460627179600831 ], [ 20.341202399691113, 20.273048640382672 ], [ 19.970933039448351, 19.997577989732594 ], [ 19.500369479687834, 19.601837820059519 ], [ 19.51698131945248, 19.335530520017695 ], [ 20.195286119778707, 18.491744970154432 ], [ 20.41286003963581, 18.205219169781493 ], [ 20.511514079840936, 18.039711959931935 ], [ 20.537188920309099, 17.91939095967766 ], [ 20.475327959794129, 17.285223959970462 ], [ 20.449162079761848, 16.927237980000985 ], [ 20.390478119933846, 16.721748989992356 ], [ 20.786576039894008, 15.729234029722804 ], [ 20.639145959906799, 15.622497989847727 ], [ 20.500509959955409, 15.665960969780311 ], [ 20.313453960120839, 15.623445959820558 ], [ 20.237793839902437, 15.622497989847727 ], [ 20.100718080064066, 15.722647019901391 ], [ 19.549776960351188, 15.835457970218179 ], [ 19.402337160094678, 16.081182000058313 ], [ 19.27948104023061, 16.105753980270997 ], [ 19.266579000133515, 15.804180000016053 ], [ 19.075278959718993, 15.51350403039574 ], [ 18.839260080201363, 15.347049029997827 ], [ 18.650783160077538, 15.311436029857926 ], [ 18.42634512034385, 15.311436029857926 ], [ 18.275495040526462, 15.350529960298452 ], [ 18.054736920023711, 15.478473960009552 ], [ 17.948040120027002, 15.581539979873536 ], [ 17.88181200021091, 15.709482990104316 ], [ 16.689642839808165, 16.23636998984631 ], [ 15.443798888927667, 16.833429974014301 ], [ 15.505545615757637, 16.897871016634301 ], [ 15.519630959521251, 17.136548010182683 ], [ 16.688841479770549, 19.135338749883633 ], [ 17.199471959983086, 20.020201020360982 ], [ 17.298500039964964, 20.204432999683362 ], [ 17.390195999465945, 20.349692010078378 ], [ 17.437880159661727, 20.530379969859901 ], [ 17.481891959866207, 20.583523979847961 ], [ 17.584592040110696, 20.494951019574113 ], [ 17.57358792026638, 20.427635970323919 ], [ 17.507567879474166, 20.395748970239001 ], [ 17.661615119762057, 20.098144979707243 ], [ 17.705630879681493, 20.091059009965516 ], [ 17.76064715945898, 19.970600039760221 ], [ 17.874350999818915, 19.864313009937661 ], [ 17.98438283991624, 20.002485959759429 ], [ 17.914695120103801, 20.261118959872292 ], [ 17.951375159556076, 20.378034989723158 ], [ 17.874350999818915, 20.572895969973214 ], [ 17.83767095946736, 20.569352040364596 ], [ 17.822999159703539, 20.746497960013009 ], [ 18.079746119607858, 21.047645970085625 ], [ 18.189781919420138, 21.090160980045379 ], [ 18.395182079909205, 21.11141898010208 ], [ 18.46853783936993, 21.164561999936581 ], [ 18.538225919810429, 21.16810503022316 ], [ 18.765629999644844, 21.391307999964436 ], [ 18.794973959800547, 21.703084019911799 ], [ 18.809646120192429, 21.763313999641586 ], [ 18.875666160085363, 21.855429990202101 ], [ 18.916009919742098, 21.858972030335121 ], [ 18.916009919742098, 21.936915989681381 ], [ 19.098266565169979, 21.985365372214304 ], [ 20.350656509210623, 21.373546599995784 ], [ 21.006565956673633, 21.044082878622149 ], [ 20.736653039826066, 20.656474199924567 ] ] ] } },
{ "type": "Feature", "properties": { "loc": "TD-A1-0004" }, "geometry": { "type": "Polygon", "coordinates": [ [ [ 16.301999880089006, 12.354000120159933 ], [ 16.493000039768617, 12.295999530104792 ], [ 16.666000199897884, 12.229000110067586 ], [ 16.69499964011985, 12.197999970123105 ], [ 16.725000239817849, 12.13300035003669 ], [ 16.708000320107246, 11.994999929753488 ], [ 16.743999599750286, 11.93200019999979 ], [ 16.790000759675898, 11.904000300024395 ], [ 16.737037919912705, 11.841671969935982 ], [ 16.826677200041367, 11.6054991898863 ], [ 16.937188560002596, 11.619277470029784 ], [ 17.042996880250421, 11.582534969963495 ], [ 17.125289999682352, 11.49527187000133 ], [ 17.353518120142368, 11.474693999852578 ], [ 17.302169880102607, 11.31172001987307 ], [ 17.353518120167148, 10.65273804015566 ], [ 17.338845959869946, 10.574793990115813 ], [ 17.492897880013629, 10.503935999855004 ], [ 17.536908959958168, 10.447247970060344 ], [ 17.510066279814644, 10.319961779787898 ], [ 17.661231719881059, 9.96025842002671 ], [ 17.69242356004666, 9.785523689914863 ], [ 17.595595079954389, 9.681980039929824 ], [ 17.37716904000191, 9.820362959830517 ], [ 17.266596120097581, 9.824457959814778 ], [ 17.133450120159637, 9.922897979855646 ], [ 16.959440159868127, 9.939129030028523 ], [ 16.876702080169519, 10.007928000224839 ], [ 16.663970159827706, 10.085871960020695 ], [ 16.61995404017949, 10.149643979883502 ], [ 16.61995404017949, 10.227588030061282 ], [ 16.583273999827934, 10.248846030117983 ], [ 16.495250040139968, 10.20633003000467 ], [ 16.238500920156778, 10.192160970237149 ], [ 16.128465119847029, 10.305532980023843 ], [ 16.126028999866087, 10.511459010086041 ], [ 16.165145160198584, 10.673997029949719 ], [ 16.113792959835731, 10.759024980140927 ], [ 16.051287959782883, 10.755134010194775 ], [ 15.754349160027541, 10.808624969874744 ], [ 15.666320879787214, 10.893656969988127 ], [ 15.60763296008119, 10.886569019963707 ], [ 15.5416129201347, 10.929085020020354 ], [ 15.512272919914398, 11.014117020133648 ], [ 15.438912840012424, 11.049544980199796 ], [ 15.429817079881918, 11.125766970026371 ], [ 15.394901039921809, 11.205432989838767 ], [ 15.226180919766001, 11.212516980036943 ], [ 15.034266347865959, 11.0945822314472 ], [ 15.035251617220684, 11.129921913228133 ], [ 15.025035858370543, 11.134154319728426 ], [ 15.036808967811925, 11.147857665661162 ], [ 15.039581298890141, 11.171305656093574 ], [ 15.028395652689568, 11.197867392628455 ], [ 15.035976409635925, 11.21160888690301 ], [ 15.026958465912781, 11.219741821290382 ], [ 15.041751862111123, 11.231808661902617 ], [ 15.029077530356076, 11.24848842566267 ], [ 15.026583671651466, 11.282798766812027 ], [ 15.035954475171192, 11.287549019134277 ], [ 15.034473418565746, 11.304821967622066 ], [ 15.051809310603552, 11.313873290582274 ], [ 15.047250747876078, 11.325650214947855 ], [ 15.053779601999366, 11.351596832290353 ], [ 15.069785117941219, 11.367793082746966 ], [ 15.058735846734255, 11.410053252717786 ], [ 15.087986945593439, 11.464758873385724 ], [ 15.099427223140154, 11.470028877193291 ], [ 15.096879959095215, 11.481078148400256 ], [ 15.133099555552381, 11.50999546118395 ], [ 15.142485618768635, 11.537356376657856 ], [ 15.136702538243867, 11.564520836130074 ], [ 15.100557327411028, 11.582313537901831 ], [ 15.10255813640125, 11.61074638410072 ], [ 15.081800460675048, 11.638549804692152 ], [ 15.080127716273388, 11.68597221360915 ], [ 15.065638541837583, 11.710725784030126 ], [ 15.073522568164304, 11.730216026310933 ], [ 15.102242469866471, 11.729497909563266 ], [ 15.098900795087982, 11.74724769568701 ], [ 15.080345154357726, 11.761453628644455 ], [ 15.087915420712399, 11.771971702694314 ], [ 15.1115694053561, 11.778661727918779 ], [ 15.118947028834633, 11.793553351668193 ], [ 15.095850944917526, 11.822529793077882 ], [ 15.094901084569727, 11.846471785606768 ], [ 15.078210831117271, 11.861120223681739 ], [ 15.072899818224332, 11.842296600270283 ], [ 15.054525374698606, 11.851666451408013 ], [ 15.042609214595952, 11.904011725822835 ], [ 15.064322472156704, 11.927751540863282 ], [ 15.053484916647957, 11.970193863118647 ], [ 15.07545661868031, 11.969998360398412 ], [ 15.0868539733845, 11.989457108421172 ], [ 15.136999919762832, 11.982999780078204 ], [ 15.137999640323478, 12.010999680053599 ], [ 15.15999995968274, 12.06900027010874 ], [ 15.055999920212475, 12.192000389868459 ], [ 15.048999719713656, 12.225000419695972 ], [ 15.190999919762831, 12.253000230638497 ], [ 15.269000039972163, 12.27900023983158 ], [ 15.334999919762797, 12.319000200361371 ], [ 15.373000079442427, 12.362999940657135 ], [ 15.404000400150668, 12.321999540109049 ], [ 15.50599955979564, 12.222000089986048 ], [ 15.564000239997782, 12.272999760364764 ], [ 15.684000119788415, 12.338000280222902 ], [ 15.831000360207153, 12.34300041007493 ], [ 15.975999720139704, 12.338000280222902 ], [ 16.048000440046977, 12.38199993013683 ], [ 16.090000199977599, 12.43200015004898 ], [ 16.301999880089006, 12.354000120159933 ] ] ] } },
{ "type": "Feature", "properties": { "loc": "TD-A1-0005" }, "geometry": { "type": "Polygon", "coordinates": [ [ [ 24.000000000445247, 19.508043288814424 ], [ 24.001585007155484, 15.704917907587955 ], [ 23.963935851971101, 15.703866958945532 ], [ 23.805841445739233, 15.742705345228046 ], [ 23.725269318437441, 15.74533081072088 ], [ 23.661968231261973, 15.757656096704086 ], [ 23.578144072703893, 15.753810883418083 ], [ 23.514760970955159, 15.737206458563811 ], [ 23.416467666762557, 15.693098067574272 ], [ 23.352611542301979, 15.686318397928321 ], [ 23.273714065964484, 15.693191527819327 ], [ 23.214645386188764, 15.708653450349029 ], [ 23.122280120644128, 15.709895134405492 ], [ 23.085412979038885, 15.668497086024257 ], [ 23.057718276590293, 15.657086371891126 ], [ 23.035869598216493, 15.617774962896767 ], [ 23.004741669105826, 15.589433670380114 ], [ 22.947292328391349, 15.571988106018818 ], [ 22.926139832300571, 15.54046630892557 ], [ 22.927846156488023, 15.515182284187588 ], [ 22.8856701603627, 15.529107509956162 ], [ 22.852494719568725, 15.551376029632578 ], [ 22.801736879866205, 15.603708959953121 ], [ 22.777436160363592, 15.671529990269427 ], [ 22.449481919568086, 15.795870029730651 ], [ 22.365388080408692, 15.814047959698151 ], [ 22.322742120165792, 15.886944000118085 ], [ 22.088913840314625, 15.950130029829555 ], [ 22.05162899959177, 16.292262960419844 ], [ 22.145829839804669, 16.327141020241985 ], [ 22.328024039823177, 16.564509990391439 ], [ 22.267906200156581, 16.665502949649046 ], [ 22.328020799565778, 16.700147010323928 ], [ 22.350160080368994, 16.755892019748618 ], [ 22.484194920304894, 16.828794989444905 ], [ 22.501019160151685, 17.161590779938184 ], [ 22.496056438499394, 20.284391138088186 ], [ 24.000000000445247, 19.508043288814424 ] ] ] } },
{ "type": "Feature", "properties": { "loc": "TD-A1-0006" }, "geometry": { "type": "Polygon", "coordinates": [ [ [ 22.08891383999994, 15.95013003 ], [ 21.966050159999888, 15.892794 ], [ 21.761282160040793, 15.950130029877073 ], [ 21.388123080147352, 15.874992990094171 ], [ 21.335361839877969, 15.851837970050152 ], [ 21.130593839856346, 15.933745980023449 ], [ 20.786576039894008, 15.729234029722804 ], [ 20.390478119933846, 16.721748989992356 ], [ 20.449162079709446, 16.927237979967057 ], [ 20.475327959808247, 17.285223959902162 ], [ 20.537188920323132, 17.919390959609448 ], [ 20.511514079901602, 18.039711960323 ], [ 20.412860039649843, 18.205219169713192 ], [ 20.195286119949145, 18.491744970438383 ], [ 19.516981319622921, 19.335530520301557 ], [ 19.500369479858275, 19.601837820343469 ], [ 19.970933039618792, 19.997577990016545 ], [ 20.341202399861551, 20.273048639767254 ], [ 20.557656359644021, 20.460627179884781 ], [ 20.736653039996504, 20.656474200208518 ], [ 21.006565955944794, 21.04408287800673 ], [ 21.824512481556532, 20.63313484158401 ], [ 22.496056438644437, 20.284391137625267 ], [ 22.501019160296728, 17.161590780374546 ], [ 22.484194919550568, 16.828794989881178 ], [ 22.350160079824718, 16.755892020146877 ], [ 22.328020799811092, 16.700147009928777 ], [ 22.267906200106488, 16.665502950040999 ], [ 22.328024039939791, 16.564509989962538 ], [ 22.145829839925639, 16.327141019941159 ], [ 22.051629, 16.292262960000091 ], [ 22.08891383999994, 15.95013003 ] ] ] } },
{ "type": "Feature", "properties": { "loc": "TD-A1-0007" }, "geometry": { "type": "Polygon", "coordinates": [ [ [ 20.148398999999877, 12.544653959999982 ], [ 20.023694999999879, 12.417108030000032 ], [ 19.884318839999864, 12.09824604 ], [ 19.888454879999866, 12.028614030000048 ], [ 19.618896959999859, 12.057184980000043 ], [ 19.466187119999905, 12.119504040000026 ], [ 19.319470919999908, 11.986644960000023 ], [ 19.34064395999993, 11.838556980000034 ], [ 19.224106919999855, 11.637667980000041 ], [ 19.084749839999908, 11.607507990000018 ], [ 19.062722879999932, 11.680182990000029 ], [ 18.905873039999914, 11.675828970000021 ], [ 18.864663119999907, 11.46760803 ], [ 18.901338839999919, 11.32589196 ], [ 19.392827039999876, 11.106231029999977 ], [ 19.48085495999992, 11.042459010000035 ], [ 19.700926919999855, 10.992858030000038 ], [ 19.737602999999897, 10.87948503000001 ], [ 19.693590839999935, 10.87948503000001 ], [ 19.697204879999912, 10.814515019999979 ], [ 19.722935159999881, 10.688166990000022 ], [ 19.700926919999855, 10.58896602000002 ], [ 19.60556291999989, 10.52519202 ], [ 19.590891119999903, 10.47559203 ], [ 19.458851039999896, 10.47559203 ], [ 19.407498839999864, 10.440162 ], [ 19.341479159999935, 10.291359960000021 ], [ 19.231442999999864, 10.206330030000052 ], [ 19.19476691999991, 10.163816010000057 ], [ 19.158086879999896, 10.149643980000031 ], [ 19.062722879999932, 9.98667 ], [ 18.820646999999884, 9.97958403 ], [ 18.783970919999931, 9.88038198 ], [ 18.703279079999895, 9.88038198 ], [ 18.622586879999918, 9.92998404 ], [ 18.637259039999936, 10.01501397000005 ], [ 18.563898959999907, 10.12838598 ], [ 18.402514919999895, 10.234674 ], [ 18.307153079999932, 10.248846030000033 ], [ 18.131096879999902, 10.362218039999979 ], [ 18.050405039999866, 10.362218039999979 ], [ 17.947707119999894, 10.411820009999969 ], [ 17.881684919999934, 10.489763970000018 ], [ 17.536908959958168, 10.447247970060344 ], [ 17.492897880013629, 10.503935999855004 ], [ 17.338845959869946, 10.574793990115813 ], [ 17.353518120167148, 10.65273804015566 ], [ 17.302169880102607, 11.31172001987307 ], [ 17.39019816022223, 11.595151979849069 ], [ 17.536910039996982, 11.666009970100996 ], [ 17.67628584017567, 11.680181999905534 ], [ 17.567609040169323, 11.887506990114391 ], [ 17.540472959703539, 11.906449020065088 ], [ 17.602931159992767, 12.11241896991225 ], [ 17.572750920139661, 12.187484010139235 ], [ 17.598506039791388, 12.219470010216179 ], [ 17.881810920099266, 12.436263000118538 ], [ 17.955397079836093, 12.464694990140609 ], [ 18.062096040343949, 12.457586970291009 ], [ 18.131981040386584, 12.496924980332155 ], [ 18.161436960291404, 12.525111990104806 ], [ 18.470496960096821, 12.68504199032637 ], [ 19.187957160173834, 12.692150009990785 ], [ 19.769283, 13.026223979999981 ], [ 20.008438919999865, 12.933820980000052 ], [ 20.243763, 12.771399960000037 ], [ 20.170406879999874, 12.721799970000033 ], [ 20.126395079999853, 12.615512040000029 ], [ 20.148398999999877, 12.544653959999982 ] ] ] } },
{ "type": "Feature", "properties": { "loc": "TD-A1-0008" }, "geometry": { "type": "Polygon", "coordinates": [ [ [ 15.431580000307648, 13.324095000427802 ], [ 15.807687119855611, 13.188609269845783 ], [ 15.926459759601101, 13.199901929973942 ], [ 16.005332160141954, 13.033555019992024 ], [ 16.176755879758602, 13.023618029796177 ], [ 16.458569999888866, 13.040660970292114 ], [ 16.529541840067168, 13.058398979793692 ], [ 16.898709960229823, 13.111518959896648 ], [ 17.021454119895001, 13.142869019753997 ], [ 17.192657880126809, 13.12872804022088 ], [ 17.140785119832618, 13.061918970151195 ], [ 16.950057839962511, 12.89185902019779 ], [ 17.111441879933302, 12.764314979885269 ], [ 17.126112960086353, 12.643856009782647 ], [ 17.192134080075654, 12.537567989794537 ], [ 17.29483308015503, 12.502139040101342 ], [ 17.29483308015503, 12.367508039841221 ], [ 17.404868880061191, 12.239963999978384 ], [ 17.419538880171341, 12.169105020099321 ], [ 17.441547120015581, 12.147848010147774 ], [ 17.492895000215807, 12.16201895981269 ], [ 17.602931159992767, 12.11241896991225 ], [ 17.540472959703539, 11.906449020065088 ], [ 17.567609040169323, 11.887506990114391 ], [ 17.67628584017567, 11.680181999905534 ], [ 17.536910039996982, 11.666009970100996 ], [ 17.39019816022223, 11.595151979849069 ], [ 17.353518120142368, 11.474693999852578 ], [ 17.125289999682352, 11.49527187000133 ], [ 17.042996880250421, 11.582534969963495 ], [ 16.937188560002596, 11.619277470029784 ], [ 16.826677200041367, 11.6054991898863 ], [ 16.737037919912705, 11.841671969935982 ], [ 16.790000759675898, 11.904000300024395 ], [ 16.743999599750286, 11.93200019999979 ], [ 16.708000320107246, 11.994999929753488 ], [ 16.725000239817849, 12.13300035003669 ], [ 16.69499964011985, 12.197999970123105 ], [ 16.666000199897884, 12.229000110067586 ], [ 16.493000039768617, 12.295999530104792 ], [ 16.301999880089006, 12.354000120159933 ], [ 16.090000199980441, 12.432000150065855 ], [ 16.048000440401982, 12.381999929848705 ], [ 15.975999720045024, 12.338000280384462 ], [ 15.831000360112473, 12.343000410236579 ], [ 15.684000120143331, 12.338000280384462 ], [ 15.564000240352787, 12.272999760526412 ], [ 15.505999560365407, 12.222000090427651 ], [ 15.404000400032363, 12.321999539842773 ], [ 15.373000079324122, 12.36299994039077 ], [ 15.334999919644492, 12.319000200095006 ], [ 15.269000039853857, 12.279000240464585 ], [ 15.190999919644526, 12.253000230372221 ], [ 15.048999719595351, 12.225000420328977 ], [ 14.99100011969368, 12.229000110162799 ], [ 14.961000599631884, 12.244000409786912 ], [ 14.90588021073707, 12.223869809739826 ], [ 14.908951758850524, 12.27315902686342 ], [ 14.900090218023081, 12.30239200618198 ], [ 14.909714698708303, 12.330679893358218 ], [ 14.910468102155132, 12.379227638340703 ], [ 14.886167525644716, 12.426886559063307 ], [ 14.8780088418685, 12.464170456397325 ], [ 14.856684684984138, 12.447859763613097 ], [ 14.848965644682703, 12.456381797777579 ], [ 14.85858917208656, 12.483980179237738 ], [ 14.852282524252995, 12.503314971904297 ], [ 14.854664803172106, 12.550018310792263 ], [ 14.831534385837202, 12.628499031401072 ], [ 14.765228270702107, 12.635464668255677 ], [ 14.757514000404708, 12.673892975376363 ], [ 14.747677803122077, 12.686324119658229 ], [ 14.718606949085338, 12.657356262277583 ], [ 14.706425667044858, 12.670937537832957 ], [ 14.723545074279691, 12.706357956250555 ], [ 14.716752052399222, 12.718325615130896 ], [ 14.706207274779874, 12.724774361243648 ], [ 14.66284370410758, 12.720196723895535 ], [ 14.636591910821988, 12.739532470742828 ], [ 14.621590613849715, 12.73838806185544 ], [ 14.621590613849715, 12.770366668682639 ], [ 14.600728034904868, 12.74805641236941 ], [ 14.585724831369777, 12.747368813216061 ], [ 14.576578139803225, 12.773597716956905 ], [ 14.55547714159076, 12.780962944180393 ], [ 14.551253319119333, 12.797067641854051 ], [ 14.567880629921053, 12.836312294172933 ], [ 14.558333396759764, 12.87848663279568 ], [ 14.568748474153708, 12.891757010921209 ], [ 14.550512313982971, 12.930960655053999 ], [ 14.552149772584837, 12.950744629404939 ], [ 14.525322337646678, 12.980399384467875 ], [ 15.0090861598893, 12.978899010424824 ], [ 15.051320999555422, 13.130447040142665 ], [ 14.999148000171019, 13.222369980434076 ], [ 15.185478960276715, 13.187589030353339 ], [ 15.274917000010451, 13.093181009639773 ], [ 15.306873839646844, 13.154034959689506 ], [ 15.34355207955576, 13.139863020206052 ], [ 15.394899959956092, 13.182379020319365 ], [ 15.350888159751701, 13.246151040182172 ], [ 15.306873839646844, 13.239063000201176 ], [ 15.255524159703153, 13.309922970112828 ], [ 15.255524159703153, 13.366610999641747 ], [ 15.380229959735718, 13.380778980309525 ], [ 15.431580000307648, 13.324095000427802 ] ] ] } },
{ "type": "Feature", "properties": { "loc": "TD-A1-0009" }, "geometry": { "type": "Polygon", "coordinates": [ [ [ 16.38814104002158, 15.458684040371949 ], [ 16.176147120437783, 14.766060960180948 ], [ 16.152546960178586, 14.554437029917754 ], [ 16.099547039873645, 14.458317029998678 ], [ 16.025766839925542, 14.372796959801214 ], [ 15.84971100017361, 14.202737009655962 ], [ 15.846042959626043, 14.181479999752909 ], [ 15.625973159994437, 14.036220000103615 ], [ 15.611303160134398, 13.742159039961908 ], [ 15.772686839897414, 13.735072980287942 ], [ 15.772686839897414, 13.759873020028067 ], [ 15.897390839937025, 13.727987010096619 ], [ 15.893723160017519, 13.678386029945454 ], [ 15.875386919561567, 13.607528039749305 ], [ 15.930402839486373, 13.45164003000091 ], [ 15.923880000019235, 13.199656680332636 ], [ 15.807687119834561, 13.188609269799686 ], [ 15.577095960104863, 13.270198590129953 ], [ 15.570956160051512, 13.359524040199785 ], [ 15.45358788004048, 13.593356010084566 ], [ 15.402236040036659, 13.735071990115998 ], [ 14.793375960038517, 13.635870029922824 ], [ 14.635803960083908, 13.899369960122897 ], [ 14.484255839809261, 14.087564009930841 ], [ 14.355066959827827, 14.114270969909924 ], [ 14.338568160052549, 14.167305989967836 ], [ 14.239541879598665, 14.209299990338074 ], [ 14.214076920258183, 14.263956990058833 ], [ 14.157556920060337, 14.285694960090055 ], [ 14.147619120070924, 14.334140970165375 ], [ 14.081820120047066, 14.429482020414707 ], [ 14.030471879917865, 14.422398030080817 ], [ 13.99855499985792, 14.456498040487929 ], [ 13.673752919706033, 14.521721129961961 ], [ 13.667043245194126, 14.530736772319962 ], [ 13.696021079653669, 14.551123618895666 ], [ 13.692503929157578, 14.612935066336018 ], [ 13.67731285095191, 14.636558533385401 ], [ 13.745569228681536, 14.698344231436909 ], [ 13.768729210329393, 14.691973685872682 ], [ 13.809959411941879, 14.721725464294476 ], [ 13.792234421026244, 14.802332878295431 ], [ 13.789683342057106, 14.863213539109253 ], [ 13.86221027372974, 15.031335831319335 ], [ 13.970181464847258, 15.15653133378979 ], [ 14.235719680863106, 15.535387038716607 ], [ 14.384763718315501, 15.731554984810479 ], [ 14.610406876121012, 15.956042289855553 ], [ 15.443798888252651, 16.833429973750068 ], [ 16.68964283978978, 16.236369990018794 ], [ 16.517255039732852, 15.928136010204451 ], [ 16.38814104002158, 15.458684040371949 ] ] ] } },
{ "type": "Feature", "properties": { "loc": "TD-A1-0010" }, "geometry": { "type": "Polygon", "coordinates": [ [ [ 13.673752919967512, 14.521721130100072 ], [ 13.998555000119399, 14.45649803972676 ], [ 14.030471880179345, 14.422398030218929 ], [ 14.081820120308546, 14.429482019653538 ], [ 14.147619120332315, 14.334140970303576 ], [ 14.157556920321817, 14.285694960228255 ], [ 14.214076920519663, 14.263956990196945 ], [ 14.239541879860056, 14.209299989576905 ], [ 14.338568160298575, 14.167305990153377 ], [ 14.355066959778622, 14.114270969903352 ], [ 14.484255839741405, 14.08756400994514 ], [ 14.635803960290765, 13.899369960329398 ], [ 14.793375960138615, 13.635870029887474 ], [ 15.402236040036659, 13.735071990115998 ], [ 15.45358788004048, 13.593356010084566 ], [ 15.570956160051512, 13.359524040199785 ], [ 15.577095960104863, 13.270198590129953 ], [ 15.431579999999894, 13.324095 ], [ 15.380229959999863, 13.38077898 ], [ 15.255524159999894, 13.366611 ], [ 15.255524159999894, 13.309922970000029 ], [ 15.306873839999895, 13.239063 ], [ 15.350888159999858, 13.24615104 ], [ 15.394899959999879, 13.182379019999976 ], [ 15.343552079999938, 13.13986302 ], [ 15.306873839999895, 13.154034960000013 ], [ 15.274916999999881, 13.093181010000018 ], [ 15.18547895999987, 13.187589030000021 ], [ 14.999148000143041, 13.222369980032353 ], [ 15.051320999670619, 13.130447039773093 ], [ 15.009086160004497, 12.978899010055253 ], [ 14.525322337761875, 12.980399384098304 ], [ 14.459879874862551, 13.074500083985749 ], [ 14.082944870015961, 13.079440116642113 ], [ 13.633507728704934, 13.713635444993809 ], [ 13.479641914049338, 14.379628181169611 ], [ 13.473475456133581, 14.442814826916749 ], [ 13.493392943835474, 14.474607468334032 ], [ 13.519768714960438, 14.48596382114745 ], [ 13.572069168063887, 14.505682945385644 ], [ 13.600868225394507, 14.502331734196204 ], [ 13.633161544575838, 14.510480880662101 ], [ 13.667043245455606, 14.530736772458074 ], [ 13.673752919967512, 14.521721130100072 ] ] ] } },
{ "type": "Feature", "properties": { "loc": "TD-A1-0011" }, "geometry": { "type": "Polygon", "coordinates": [ [ [ 16.443897120004873, 9.086770979924482 ], [ 16.583275080219622, 8.923796999804287 ], [ 16.4952471598437, 8.739565020143067 ], [ 16.444036440144121, 8.733400200017924 ], [ 16.319190959999901, 8.661620970000014 ], [ 16.216493039999929, 8.64744903 ], [ 16.072410959999921, 8.541754020000022 ], [ 15.879053159999916, 8.427789 ], [ 15.813033119999869, 8.349845039999989 ], [ 15.680990879999861, 8.321501970000019 ], [ 15.570955080094766, 8.243557019905831 ], [ 15.460921079960315, 8.349845039893852 ], [ 15.394899959970925, 8.356931010214405 ], [ 15.292200959927698, 8.456132969943861 ], [ 15.263439840176467, 8.580996990144948 ], [ 15.29620415983544, 8.671095000102577 ], [ 15.353539919804131, 8.761194000136937 ], [ 15.357635999839108, 8.879959979820237 ], [ 15.40957103990193, 9.07968500965953 ], [ 15.570955079794384, 9.022998959368186 ], [ 15.653012039751673, 9.050430959958552 ], [ 15.816516840257737, 9.033666029951112 ], [ 16.0551089999786, 9.129285000276552 ], [ 16.125716159671182, 9.058033979958177 ], [ 16.177223880270546, 9.083194019810866 ], [ 16.231164839778227, 9.157628970223572 ], [ 16.361516160128247, 9.222435990054775 ], [ 16.443897120004873, 9.086770979924482 ] ] ] } },
{ "type": "Feature", "properties": { "loc": "TD-A1-0012" }, "geometry": { "type": "Polygon", "coordinates": [ [ [ 16.561269000067629, 9.150543000095753 ], [ 16.656630840006219, 9.100943009872195 ], [ 16.685975159948345, 9.122199030196606 ], [ 16.787433959940206, 9.054525960068579 ], [ 16.902200879918876, 9.036150030016129 ], [ 17.016775919772069, 9.050429969999682 ], [ 17.118777959835434, 9.079685009895874 ], [ 17.140785119999862, 9.04425498 ], [ 17.14812011999987, 8.74665099 ], [ 17.051264999999898, 8.616285990000025 ], [ 17.294736959884265, 8.285859990061736 ], [ 17.222689079873614, 8.156671020145131 ], [ 17.100954000168382, 8.129342969820582 ], [ 17.27282591993438, 7.814864970167731 ], [ 17.281499595983689, 7.791390872416345 ], [ 17.264707565355923, 7.784144878209029 ], [ 17.269420624416369, 7.761623858579666 ], [ 17.262660979974314, 7.746972084019918 ], [ 17.232584000405353, 7.763441086262576 ], [ 17.217039108222369, 7.742180824411035 ], [ 17.218566895400027, 7.726562977424964 ], [ 17.165704726645963, 7.702757834731807 ], [ 17.174148560261919, 7.688477992790629 ], [ 17.162826538168279, 7.681194781939146 ], [ 17.160448074173367, 7.666746139947852 ], [ 17.132106780757432, 7.663230896014491 ], [ 17.115655898954678, 7.687655926105593 ], [ 17.091272353690261, 7.692152022823104 ], [ 17.090644836444184, 7.660476207836217 ], [ 17.067340850853689, 7.651422024132545 ], [ 17.049171448257798, 7.655193805974866 ], [ 17.040315628017915, 7.635039805568086 ], [ 16.987131118860148, 7.635557174749271 ], [ 16.975116730306965, 7.627815723342421 ], [ 16.956968307095792, 7.6359481810892 ], [ 16.928350448768263, 7.622785091184467 ], [ 16.926885605140622, 7.606034279184145 ], [ 16.90091896079549, 7.616502285277734 ], [ 16.905656815064045, 7.597192763560686 ], [ 16.895643233702344, 7.574515820374325 ], [ 16.907360077060023, 7.569403171844366 ], [ 16.907995224154408, 7.558149814787582 ], [ 16.895982742163955, 7.550178050602016 ], [ 16.874141692739002, 7.556262016404455 ], [ 16.867835999086171, 7.538617134398725 ], [ 16.843849181648523, 7.529787064446966 ], [ 16.822912216179891, 7.532421112170104 ], [ 16.79635047874573, 7.561717033239942 ], [ 16.793931960745461, 7.585377216011166 ], [ 16.726783751922696, 7.650230884673034 ], [ 16.690176009869067, 7.650874138256322 ], [ 16.667234421385562, 7.668665885847433 ], [ 16.66802406301418, 7.738216877232537 ], [ 16.631292343121267, 7.762271881267798 ], [ 16.612390518261915, 7.758233070025641 ], [ 16.594476700293619, 7.768878936838982 ], [ 16.597869872950337, 7.804898739011032 ], [ 16.583724976080898, 7.833888054215818 ], [ 16.59817314143142, 7.870309829960162 ], [ 16.595916747813781, 7.88018989617226 ], [ 16.563617706246241, 7.868412970907398 ], [ 16.560558318765466, 7.854658127096345 ], [ 16.542139053028997, 7.855894088766687 ], [ 16.518831253413673, 7.845677853275776 ], [ 16.489101410355893, 7.790277003606269 ], [ 16.459829330313429, 7.784905909705428 ], [ 16.455301285180273, 7.802371978609409 ], [ 16.438962936444472, 7.805203914954214 ], [ 16.412544249671495, 7.76791477187467 ], [ 16.426267624405426, 7.746732234830253 ], [ 16.416797638254526, 7.740579128249644 ], [ 16.417432785348822, 7.727722167569459 ], [ 16.430517197164978, 7.718708037871144 ], [ 16.39277458173563, 7.671136855906665 ], [ 16.301506042203311, 7.651813983706409 ], [ 16.286458968839561, 7.632597923133696 ], [ 16.235464095724677, 7.606656074895954 ], [ 16.185531616024456, 7.61445283910532 ], [ 16.163578032633357, 7.594575882049378 ], [ 16.066135406157294, 7.58191108670537 ], [ 16.049283980704381, 7.570733070352928 ], [ 16.039005280102785, 7.533812045867302 ], [ 15.974807738819301, 7.48333787931775 ], [ 15.931050301063792, 7.478695869396942 ], [ 15.809591292837126, 7.441068172036521 ], [ 15.799972533638744, 7.454884051935492 ], [ 15.78529453304947, 7.46188688295136 ], [ 15.766375541930948, 7.457770824442042 ], [ 15.755386352631255, 7.474575042682149 ], [ 15.742970467146549, 7.478527069346827 ], [ 15.727641105585803, 7.50499105497123 ], [ 15.727948188990997, 7.519134045278028 ], [ 15.56035900140003, 7.510506152814797 ], [ 15.507477759823978, 7.527468203872564 ], [ 15.573918343390041, 7.590517997985232 ], [ 15.568440437009805, 7.604772091436937 ], [ 15.581631660406075, 7.624466896208334 ], [ 15.58721733074842, 7.641893864388413 ], [ 15.582668304431895, 7.658440112998862 ], [ 15.598203659304648, 7.69006204600465 ], [ 15.59102153764707, 7.744262218005046 ], [ 15.59732723219927, 7.767455101349915 ], [ 15.591114997892035, 7.776183127927036 ], [ 15.510758400313112, 7.796197890798092 ], [ 15.468873977884972, 7.863714218214687 ], [ 15.422854424125614, 7.987463950778769 ], [ 15.399179459197914, 8.016094208059274 ], [ 15.390954017846852, 8.040917396798472 ], [ 15.398229598850115, 8.088195800873551 ], [ 15.286306381067831, 8.309215545838841 ], [ 15.253605805696573, 8.444240819935919 ], [ 15.292200959539919, 8.456132969938709 ], [ 15.394899959698609, 8.356931010535748 ], [ 15.460921079677341, 8.34984503989474 ], [ 15.570955079946174, 8.243557019918621 ], [ 15.680990879758543, 8.321501970317721 ], [ 15.813033119715918, 8.34984503989474 ], [ 15.879053159608851, 8.427789000140281 ], [ 16.072410959931087, 8.541754019810218 ], [ 16.216493040154916, 8.647449030426499 ], [ 16.319190960227896, 8.661620969909864 ], [ 16.444036440144121, 8.733400200017924 ], [ 16.4952471598437, 8.739565020143067 ], [ 16.583275080219622, 8.923796999804287 ], [ 16.443897120004873, 9.086770979924482 ], [ 16.429227119900407, 9.115115040154217 ], [ 16.561269000067629, 9.150543000095753 ] ] ] } },
{ "type": "Feature", "properties": { "loc": "TD-A1-0013" }, "geometry": { "type": "Polygon", "coordinates": [ [ [ 17.624936879999868, 9.53317701 ], [ 17.6762869199999, 9.433976039999989 ], [ 17.771650919999864, 9.433976039999989 ], [ 17.830334879999903, 9.299345040000015 ], [ 17.991721079999916, 9.207228960000021 ], [ 18.197119079999862, 9.17180001000005 ], [ 18.116426879999885, 9.015912 ], [ 18.035732879999937, 8.980482960000055 ], [ 17.991721080004979, 8.909624970080573 ], [ 18.072412919675411, 8.767907999980759 ], [ 18.065076840378751, 8.569504979597594 ], [ 18.138432960467625, 8.541161999952815 ], [ 18.182446919944333, 8.3144150097714 ], [ 18.153105119960227, 8.222299020110166 ], [ 18.204887860341383, 8.018743414103765 ], [ 18.031982422205921, 8.009303092989869 ], [ 17.999999999555243, 7.985907077975737 ], [ 17.995653151626527, 7.992783070408857 ], [ 17.944908141652309, 7.962804794132458 ], [ 17.921644210966452, 7.958610058433932 ], [ 17.73316955578526, 7.978384017934589 ], [ 17.716335296591517, 7.978588103784498 ], [ 17.703382491563673, 7.969490051151448 ], [ 17.694009780581759, 7.981709957275237 ], [ 17.67167282069904, 7.982768059125108 ], [ 17.658262252655703, 7.97413110689161 ], [ 17.648878097800829, 7.945732116570467 ], [ 17.633213042702671, 7.945370197003529 ], [ 17.61651992760747, 7.926884173692125 ], [ 17.596515656227467, 7.932744025742652 ], [ 17.569421768354836, 7.908123016290633 ], [ 17.561674117921093, 7.922627926164369 ], [ 17.547155380071615, 7.921339989075745 ], [ 17.536823273230411, 7.887207031106088 ], [ 17.523487090811489, 7.890959740126421 ], [ 17.515066146740192, 7.868748188004945 ], [ 17.467765808200379, 7.894048214380097 ], [ 17.449047088906937, 7.883371829972438 ], [ 17.445726395311816, 7.866178036213908 ], [ 17.433120727694345, 7.877269744629553 ], [ 17.418115615797962, 7.871390819757037 ], [ 17.423570632633449, 7.858506203125279 ], [ 17.40887451160436, 7.866167068082261 ], [ 17.402986526062207, 7.84301996202815 ], [ 17.393587112410174, 7.850879192247392 ], [ 17.368705750125173, 7.849647998782613 ], [ 17.359210967866794, 7.840292930700729 ], [ 17.345397948711287, 7.84106206868603 ], [ 17.332845688232794, 7.820477962114788 ], [ 17.308704376260824, 7.827733040374016 ], [ 17.304225922443255, 7.809395790110093 ], [ 17.283927917194557, 7.803544997829922 ], [ 17.281499595684728, 7.791390872617162 ], [ 17.100954000381723, 8.129342970128514 ], [ 17.22268907979208, 8.156671019878145 ], [ 17.294736959791095, 8.285859989917496 ], [ 17.051264999999898, 8.616285990000025 ], [ 17.14812011999987, 8.74665099 ], [ 17.140785119999862, 9.04425498 ], [ 17.118777959835434, 9.079685009895874 ], [ 17.221476959832565, 9.164715029803657 ], [ 17.074764000014824, 9.263916989954732 ], [ 17.237927880069375, 9.369870030204938 ], [ 17.225639999828672, 9.439491960159016 ], [ 17.258403960072837, 9.484541009895983 ], [ 17.201067839790145, 9.537780960177619 ], [ 17.237927880069375, 9.574640009930432 ], [ 17.346183120162877, 9.589865040085884 ], [ 17.479555919920458, 9.623783970143171 ], [ 17.557368119838017, 9.582830009943097 ], [ 17.624936879999868, 9.53317701 ] ] ] } },
{ "type": "Feature", "properties": { "loc": "TD-A1-0014" }, "geometry": { "type": "Polygon", "coordinates": [ [ [ 15.541612920192431, 10.929085019670234 ], [ 15.607632960085365, 10.886569019556921 ], [ 15.666320879497313, 10.893656969605766 ], [ 15.754349159978069, 10.808624970278421 ], [ 16.051287959763876, 10.755134009938891 ], [ 16.113792959869482, 10.759024979831219 ], [ 16.165145160556342, 10.673997029744461 ], [ 16.12602899977416, 10.511459010330379 ], [ 16.128465120204787, 10.305532980268181 ], [ 16.238500920017067, 10.192160969958083 ], [ 16.267844879273401, 10.015012979170942 ], [ 16.171079039401786, 9.831625019884113 ], [ 16.077116880075586, 9.752839019910139 ], [ 16.011095039739924, 9.660723029349624 ], [ 15.915731039691376, 9.660723029349624 ], [ 15.8686909199856, 9.709424009815523 ], [ 15.820755119588785, 9.706874039710497 ], [ 15.781736880069346, 9.724329989716937 ], [ 15.761860919765773, 9.716876999585308 ], [ 15.680990880055372, 9.568607039839824 ], [ 15.673655159821802, 9.490662989750861 ], [ 15.56362115968744, 9.441062999976898 ], [ 15.424242840040208, 9.221400989786884 ], [ 15.27019415999991, 9.256831020000019 ], [ 15.233515919999867, 9.313516980000033 ], [ 15.116145119999906, 9.405632970000019 ], [ 15.086802959999872, 9.547349040000016 ], [ 15.035452919874697, 9.596951009563822 ], [ 15.05746008037681, 9.639465030269298 ], [ 14.932753919716006, 9.696150989558946 ], [ 14.749363079900562, 9.646551000011025 ], [ 14.752020680868121, 9.94938147076064 ], [ 14.798864365256641, 9.927750586602654 ], [ 14.835979461641262, 9.924492835658269 ], [ 14.919094085681888, 9.979814528799865 ], [ 14.985485077033083, 10.001104354964449 ], [ 15.018197060304477, 9.995529175213699 ], [ 15.066882132662656, 9.966691971339822 ], [ 15.101449012620254, 9.963863373278445 ], [ 15.111460685620486, 9.982931137444448 ], [ 15.13282966561496, 9.994615554846339 ], [ 15.212591171004135, 9.964533806172623 ], [ 15.23609733588172, 9.996443747962966 ], [ 15.337903023264303, 9.97109890027644 ], [ 15.43501281694633, 9.933312415917625 ], [ 15.589843749847603, 9.957835196919204 ], [ 15.683687209932433, 9.985060692402334 ], [ 15.675187111131965, 10.007404327053345 ], [ 15.649035453758824, 10.025910378266664 ], [ 15.572334290031158, 10.060246467905495 ], [ 15.529507637103439, 10.094674110327281 ], [ 15.513940811355003, 10.090589522693646 ], [ 15.505414963165691, 10.110169411194677 ], [ 15.486174583126182, 10.118976593400339 ], [ 15.451560020214377, 10.187865256581604 ], [ 15.420505524346133, 10.20958709727203 ], [ 15.393451691378139, 10.251074790974121 ], [ 15.378375052802067, 10.258941650142392 ], [ 15.355697632075742, 10.290752411100209 ], [ 15.310207367111932, 10.30744552619541 ], [ 15.307468414371499, 10.327005385895157 ], [ 15.296105384991137, 10.33531761182361 ], [ 15.297295570270002, 10.347275734293001 ], [ 15.282700539334098, 10.365257263117508 ], [ 15.283252715875832, 10.401371002175294 ], [ 15.251497268619723, 10.437340736391162 ], [ 15.241113663000831, 10.470723151657454 ], [ 15.208637238253591, 10.502319336173768 ], [ 15.170768738422229, 10.515981673920413 ], [ 15.145935059091347, 10.538351058859638 ], [ 15.144170761007452, 10.588735580088246 ], [ 15.15749454537259, 10.622523308109541 ], [ 15.15451526590244, 10.646455765126758 ], [ 15.126954078603543, 10.710701941746533 ], [ 15.100952147615825, 10.743425369297674 ], [ 15.069408416957213, 10.805375099193734 ], [ 15.070160866223308, 10.838733673432563 ], [ 15.093484878816437, 10.866065978774161 ], [ 15.09213447571776, 10.892526627014506 ], [ 15.082915305988891, 10.947992324998109 ], [ 15.062918662658458, 10.966437340123422 ], [ 15.050123214706872, 10.995471000898268 ], [ 15.0523796083246, 11.038643837055714 ], [ 15.037062644817549, 11.071455956239648 ], [ 15.045078277932493, 11.081970215365397 ], [ 15.034266347706087, 11.094582231297187 ], [ 15.22618091960604, 11.212516979887019 ], [ 15.394901039743463, 11.205432989553129 ], [ 15.429817079686785, 11.125766969682202 ], [ 15.438912839947943, 11.049544980029088 ], [ 15.512272919751773, 11.01411701989686 ], [ 15.541612920192431, 10.929085019670234 ] ] ] } },
{ "type": "Feature", "properties": { "loc": "TD-A1-0015" }, "geometry": { "type": "Polygon", "coordinates": [ [ [ 14.48470020292481, 10.01020908434492 ], [ 14.705377578685113, 9.949902533638108 ], [ 14.752020680717486, 9.949381471131543 ], [ 14.749363079723459, 9.646551000371003 ], [ 14.932753920411628, 9.696150989907823 ], [ 15.057460080173062, 9.639465029718894 ], [ 15.035452919671037, 9.596951009912788 ], [ 15.086802960242967, 9.547349040057748 ], [ 15.116145119955853, 9.405632970017161 ], [ 15.233515919878364, 9.313516980355926 ], [ 15.270194159787192, 9.256831020166997 ], [ 15.424242839889661, 9.221400989795411 ], [ 15.409571040125929, 9.079685009686974 ], [ 15.357635999556312, 8.879959979600946 ], [ 15.353539919486252, 8.761194000234459 ], [ 15.296204159548825, 8.671095000165726 ], [ 15.263439840231001, 8.580996990250464 ], [ 15.292200959661066, 8.456132969792248 ], [ 15.253605805817809, 8.444240820688917 ], [ 15.211916923881468, 8.573344230883103 ], [ 15.207611084138755, 8.610802649754076 ], [ 15.189840316831731, 8.614291191017228 ], [ 15.156888007729901, 8.647223473116336 ], [ 15.10693645520778, 8.673420905981585 ], [ 15.045852660926133, 8.669507026759446 ], [ 14.988361358744289, 8.677419662319105 ], [ 14.987266541172488, 8.722685814430372 ], [ 14.951033591581524, 8.747558593585788 ], [ 14.924698830441212, 8.747137069651631 ], [ 14.910616875323051, 8.755658149635467 ], [ 14.925289154425485, 8.769013404876288 ], [ 14.907156944192206, 8.783415793835422 ], [ 14.89789771955861, 8.80900382989441 ], [ 14.873694420016008, 8.816100121155243 ], [ 14.850132942335996, 8.802840232722117 ], [ 14.823100089651913, 8.801260947666142 ], [ 14.808781623627603, 8.810697556378718 ], [ 14.753564834603932, 8.820168494911703 ], [ 14.717534065199516, 8.863166808632913 ], [ 14.681952476580111, 8.889385222681442 ], [ 14.559662819438106, 9.011917114015175 ], [ 14.509941101255368, 9.032372475440939 ], [ 14.484486580345983, 9.070752143628122 ], [ 14.493263244957326, 9.091899872412709 ], [ 14.445826529625165, 9.126365662277033 ], [ 14.430311202654416, 9.151644706569536 ], [ 14.380764961088648, 9.19690418211386 ], [ 14.378428458561014, 9.222188949691853 ], [ 14.392736434893099, 9.26794052077001 ], [ 14.385774612063233, 9.288626670715891 ], [ 14.354510307059591, 9.307688713394965 ], [ 14.31740856201003, 9.366744040936345 ], [ 14.277346611211676, 9.373376845896283 ], [ 14.250465393270932, 9.391512871075699 ], [ 14.224931716733007, 9.435397148313326 ], [ 14.196656226711184, 9.45007896382671 ], [ 14.191053391008861, 9.47812080368576 ], [ 14.166954993785623, 9.484987258808561 ], [ 14.135876655990547, 9.508166313278318 ], [ 14.062047958354267, 9.5892143249347 ], [ 14.046678542788165, 9.625288009987218 ], [ 14.022067069747184, 9.647088051226168 ], [ 14.024950980610988, 9.705728531400156 ], [ 14.038559913916586, 9.737486839399731 ], [ 14.075350760636756, 9.766730309309887 ], [ 14.166981696720775, 9.883942604430759 ], [ 14.177626610252663, 9.900283813010654 ], [ 14.192369460954684, 9.965157508675246 ], [ 14.209502220423946, 9.989555358556087 ], [ 14.307874680245085, 10.003682136784272 ], [ 14.347331047362726, 9.997041701976114 ], [ 14.48470020292481, 10.01020908434492 ] ] ] } },
{ "type": "Feature", "properties": { "loc": "TD-A1-0016" }, "geometry": { "type": "Polygon", "coordinates": [ [ [ 19.705850999726842, 9.895753979702645 ], [ 19.981679964561643, 9.092862147410438 ], [ 19.939430236619042, 9.087081908743352 ], [ 19.927143097179183, 9.060795783838612 ], [ 19.904941559008709, 9.068310738290227 ], [ 19.886188507196838, 9.06102657325801 ], [ 19.864530563337794, 9.064538002267261 ], [ 19.835512161360107, 9.043414116308698 ], [ 19.82246398862511, 9.064341545366291 ], [ 19.804325103623626, 9.056706428898872 ], [ 19.780023574731125, 9.058618545849514 ], [ 19.721464156748407, 9.044466019131766 ], [ 19.701896667200351, 9.027529715664103 ], [ 19.683607100790006, 9.029247284075156 ], [ 19.671989440962871, 9.020755768404273 ], [ 19.60200119020568, 9.019403457843586 ], [ 19.577623367327472, 9.039952277715754 ], [ 19.523019790933542, 9.016304016357543 ], [ 19.506763457670377, 9.03417587285856 ], [ 19.494094849200909, 9.018343925172298 ], [ 19.479139327720745, 9.01441669461501 ], [ 19.439094543181561, 9.031191826082216 ], [ 19.36574172989987, 9.01309680911074 ], [ 19.337863921885461, 9.020338057595575 ], [ 19.302307129373446, 9.007896422722025 ], [ 19.218358993875455, 9.031472205917831 ], [ 19.192422867124552, 9.021590233143003 ], [ 19.175033568847049, 9.024493216828796 ], [ 19.135190963595043, 9.004478454857109 ], [ 19.10460853625791, 9.008515357737886 ], [ 19.091672896589866, 9.020451545742544 ], [ 19.058626174861075, 8.995728492915886 ], [ 19.028322219792742, 8.997234344152391 ], [ 19.009737014749533, 8.978055000200799 ], [ 18.992731093863018, 8.979239463992824 ], [ 18.975936889573912, 8.941510200797905 ], [ 18.960353850847671, 8.927616118551759 ], [ 18.922626495114763, 8.925954818922518 ], [ 18.905334472905704, 8.897843360745247 ], [ 18.888992310145163, 8.900975227287619 ], [ 18.892662047713475, 8.889627456704504 ], [ 18.868301391993807, 8.875699042839299 ], [ 18.862459182843132, 8.852613448614507 ], [ 18.874446868726107, 8.841075896797909 ], [ 18.888549805027637, 8.851329803090676 ], [ 18.906244278348865, 8.846787453341006 ], [ 18.909721374839688, 8.806939124803511 ], [ 18.922975539987323, 8.800428391120127 ], [ 18.942670822298773, 8.812619208672276 ], [ 18.952299117908105, 8.809179306342626 ], [ 18.96035957323388, 8.788074493206052 ], [ 19.014472960656708, 8.765705109166197 ], [ 19.041753769019358, 8.727403640628259 ], [ 19.105087280351878, 8.698717117263874 ], [ 19.122220993102506, 8.671245575285832 ], [ 19.065843582006607, 8.637377738711946 ], [ 19.063451766676547, 8.617357254354049 ], [ 19.046064376760423, 8.597060204185277 ], [ 19.042257309118398, 8.554285049135965 ], [ 19.022697449418651, 8.527289390613143 ], [ 18.989555359083425, 8.512968062945999 ], [ 18.997331618750106, 8.499917983648272 ], [ 18.972898483069383, 8.481640816190991 ], [ 18.970418929880566, 8.464233398372864 ], [ 18.957160949808909, 8.459943770708675 ], [ 18.921718596926578, 8.424221992171463 ], [ 18.917385101232291, 8.406397820423303 ], [ 18.926961898963395, 8.401352881850274 ], [ 18.923940658925158, 8.390392302682889 ], [ 18.91070938062434, 8.387019157028716 ], [ 18.89957046499589, 8.364067077953527 ], [ 18.88508224474073, 8.36623573281304 ], [ 18.887639999377352, 8.356986999670587 ], [ 18.87673377973103, 8.3542490011108 ], [ 18.876203536754748, 8.34116363511391 ], [ 18.850502014347352, 8.347262383072737 ], [ 18.857124328715695, 8.323905945423279 ], [ 18.850934982154559, 8.305436134190488 ], [ 18.804414748832503, 8.260712624008656 ], [ 18.710584640559595, 8.231597900143258 ], [ 18.666624069336262, 8.205844878958265 ], [ 18.628099442126427, 8.141192436302122 ], [ 18.637046814249985, 8.090995788844809 ], [ 18.618047714221557, 8.052467345811584 ], [ 18.204887860876955, 8.018743414796988 ], [ 18.153105119596518, 8.222299019904108 ], [ 18.182446919580535, 8.314415010464623 ], [ 18.138432960311039, 8.541162000288812 ], [ 18.065076840222165, 8.569504979933592 ], [ 18.072412919518737, 8.767908000316668 ], [ 17.991721079862071, 8.909624969679383 ], [ 18.035732880066462, 8.980482960183197 ], [ 18.116426879894725, 9.015912000401224 ], [ 18.19711908017954, 9.171800009925265 ], [ 17.991721079862071, 9.207228960211053 ], [ 17.830334879748992, 9.299345039804527 ], [ 17.771650920052089, 9.433976040324707 ], [ 17.676286920003452, 9.433976040324707 ], [ 17.624936880330893, 9.533177009574109 ], [ 17.557368119741028, 9.582830009659945 ], [ 17.595595080346786, 9.681980039509982 ], [ 17.692423559797614, 9.785523690128914 ], [ 17.661231719466368, 9.960258420352583 ], [ 17.510066280232799, 10.319961779875028 ], [ 17.536908959578916, 10.447247970480186 ], [ 17.881684920320922, 10.489763969694218 ], [ 17.947707120385452, 10.411820010347958 ], [ 18.050405039559063, 10.362218039593637 ], [ 18.131096880115098, 10.362218039593637 ], [ 18.307153080448462, 10.248846030182909 ], [ 18.402514920325412, 10.234673999867935 ], [ 18.563898960266894, 10.128385979891815 ], [ 18.637259040070813, 10.015013969581807 ], [ 18.622586879731244, 9.929984039883108 ], [ 18.703279080068462, 9.880381980384398 ], [ 18.783970919725128, 9.880381980384398 ], [ 18.820647000361728, 9.97958402971951 ], [ 19.062722879959875, 9.986670000360517 ], [ 19.158086880008423, 10.149643979626285 ], [ 19.194766920360067, 10.16381600994117 ], [ 19.231443000097297, 10.206330029747365 ], [ 19.341479159638446, 10.291359959734633 ], [ 19.407498839802599, 10.440162000416228 ], [ 19.458851039646756, 10.475592029888533 ], [ 19.590891120331904, 10.475592029888533 ], [ 19.605562920095636, 10.525192020335735 ], [ 19.700926920144184, 10.58896601960638 ], [ 19.693590839948243, 10.503935999686961 ], [ 19.634906880251251, 10.291361039820432 ], [ 19.70212391958615, 10.259719019557364 ], [ 19.686255120380451, 10.19215898958595 ], [ 19.618896960329373, 10.06096698038211 ], [ 19.705850999726842, 9.895753979702645 ] ] ] } },
{ "type": "Feature", "properties": { "loc": "TD-A1-0017" }, "geometry": { "type": "Polygon", "coordinates": [ [ [ 15.055999920088189, 12.192000389883942 ], [ 15.159999959558434, 12.069000270124222 ], [ 15.137999640199183, 12.010999680069036 ], [ 15.136999919638528, 11.982999780093632 ], [ 15.086853977756816, 11.989457119228526 ], [ 15.082732201357954, 11.998929023633391 ], [ 15.058227538997674, 12.003750800836645 ], [ 15.042237281853023, 12.019540787055535 ], [ 15.04066753410736, 12.026919364714766 ], [ 15.053064345870812, 12.027500153187376 ], [ 15.061103820912553, 12.041590691435118 ], [ 15.049962996922718, 12.064699173405984 ], [ 15.034771918717023, 12.069098473393689 ], [ 15.038085936644608, 12.096243858245318 ], [ 15.026874541954495, 12.105007172420926 ], [ 14.999999999628228, 12.111495971639636 ], [ 14.980551719714041, 12.090359687627338 ], [ 14.967224121324087, 12.091991424742314 ], [ 14.933574676657949, 12.113900185023377 ], [ 14.891291618041686, 12.160897255082112 ], [ 14.910026550312994, 12.181811332804621 ], [ 14.899991035385922, 12.205522536813479 ], [ 14.905880210731087, 12.223869810021572 ], [ 14.961000599625919, 12.244000410068725 ], [ 14.991000119687721, 12.229000110444598 ], [ 15.048999719589336, 12.225000419711456 ], [ 15.055999920088189, 12.192000389883942 ] ] ] } },
{ "type": "Feature", "properties": { "loc": "TD-A1-0018" }, "geometry": { "type": "Polygon", "coordinates": [ [ [ 21.124643399925951, 14.035164120140951 ], [ 21.168342360045393, 14.012339670146844 ], [ 21.270755160162288, 14.039763030195683 ], [ 21.432138839637531, 14.131879019988013 ], [ 21.710891159601061, 14.096449979769986 ], [ 22.099682880262499, 13.975991009564691 ], [ 22.174882346145068, 13.881587034001651 ], [ 22.122161864680017, 13.82244110066345 ], [ 22.090801238687945, 13.765597342730405 ], [ 22.123910903966753, 13.732593535750258 ], [ 22.129449843737063, 13.715859413368424 ], [ 22.116287231372382, 13.68520164532686 ], [ 22.146163940015548, 13.621763228977045 ], [ 22.160774230647981, 13.617041587686295 ], [ 22.170099257776315, 13.596195220819972 ], [ 22.213733672772555, 13.566468239404937 ], [ 22.221902847140456, 13.549084662614273 ], [ 22.220996856621404, 13.451768874720958 ], [ 22.238256453774049, 13.436489105375081 ], [ 22.248094559418149, 13.408287047696309 ], [ 22.278518677296852, 13.390566825885518 ], [ 22.284214019962775, 13.349694252275087 ], [ 22.221471785895979, 13.275144577147765 ], [ 22.184240340621017, 13.245126724405972 ], [ 22.172355652293234, 13.215128898666991 ], [ 22.146488189679999, 13.192727088671438 ], [ 22.134647369382314, 13.167764664195078 ], [ 22.082618712984988, 13.160028457634384 ], [ 22.071725844673722, 13.143166541589787 ], [ 22.013595581372755, 13.136292458417417 ], [ 22.003314972409775, 13.102654456724968 ], [ 21.925674438026626, 13.046876907130786 ], [ 21.933025359734323, 13.035751342837395 ], [ 21.930833817128708, 13.018382071562526 ], [ 21.89866828891212, 12.981712341038895 ], [ 21.878709793024314, 12.924256324656843 ], [ 21.853429793651799, 12.88167953486988 ], [ 21.839709783281585, 12.808996549238602 ], [ 21.813594120374077, 12.803286960412072 ], [ 21.674219039789371, 12.856429980123293 ], [ 21.490827119999864, 12.79974402 ], [ 21.380787, 12.643856009999984 ], [ 21.256083, 12.679283970000052 ], [ 21.080027159999908, 12.636770039999975 ], [ 20.925978839999878, 12.70054197 ], [ 20.926304999999864, 12.849690960000023 ], [ 20.77926695999988, 12.906029970000018 ], [ 20.757259079999884, 13.026490020000056 ], [ 20.503482839999862, 13.013226 ], [ 20.361134879999895, 13.019403960000039 ], [ 20.353799159999916, 13.430383019999979 ], [ 20.258435159999863, 13.607526960000037 ], [ 20.287779119999868, 13.749245010000021 ], [ 20.251099079999939, 13.841361 ], [ 20.053038959999885, 13.954733010000041 ], [ 20.045230919916595, 14.063987970040902 ], [ 20.309783039967115, 14.35862501994135 ], [ 20.427154919971251, 14.401140029921265 ], [ 20.632555080215717, 14.401140029921265 ], [ 20.874627000157346, 14.301938969880844 ], [ 20.992002840018905, 14.160222000199539 ], [ 21.091356720057668, 14.107940819883545 ], [ 21.124643399925951, 14.035164120140951 ] ] ] } },
{ "type": "Feature", "properties": { "loc": "TD-A1-0019" }, "geometry": { "type": "Polygon", "coordinates": [ [ [ 19.888454879999866, 12.028614030000048 ], [ 19.923236999999876, 11.954081970000038 ], [ 20.015160119999891, 11.973957030000046 ], [ 20.031031079999888, 12.020301990000023 ], [ 20.082171959999933, 12.018558960000044 ], [ 20.128200119999903, 12.032341020000045 ], [ 20.303349839999889, 12.034825020000048 ], [ 20.603963159999935, 11.888244990000038 ], [ 20.830619159999912, 11.793555990000057 ], [ 21.094698959999896, 11.644754039999968 ], [ 21.102035039999905, 11.545551990000055 ], [ 21.948027119928412, 11.691977039579479 ], [ 22.004322839999872, 11.651840009779443 ], [ 22.165706879941354, 11.637667980363839 ], [ 22.457854758263259, 10.988735117202738 ], [ 22.442825317007546, 10.988476752770756 ], [ 22.424322128336343, 10.970659255790801 ], [ 22.384347916296115, 10.961900710719993 ], [ 22.376617432121542, 10.969437598736972 ], [ 22.370176314957732, 10.958361625759258 ], [ 22.326904297068481, 10.955780029195802 ], [ 22.265613556193458, 10.923018456407471 ], [ 22.245273590376677, 10.925466536921954 ], [ 22.195543289064354, 10.908557892103795 ], [ 22.174676895195304, 10.883804320783538 ], [ 22.151803969950009, 10.876023292911471 ], [ 22.10499572784331, 10.880659102906106 ], [ 22.074163437365506, 10.895833014852515 ], [ 22.036104202120015, 10.883130073864619 ], [ 22.016544342420268, 10.885048865583466 ], [ 21.98251724184999, 10.863633155916238 ], [ 21.962211608551634, 10.871290206848391 ], [ 21.960227965820764, 10.858171463413088 ], [ 21.941520691299651, 10.869286537114794 ], [ 21.940036773950737, 10.852261543406291 ], [ 21.921024322587165, 10.871880530832664 ], [ 21.899232863578604, 10.862738609270236 ], [ 21.880790710095951, 10.869944571955189 ], [ 21.865173339750648, 10.846596718334686 ], [ 21.844429016258879, 10.847533226448055 ], [ 21.841707229777612, 10.837747573762288 ], [ 21.832616806093505, 10.839483260814594 ], [ 21.814121246371236, 10.810308455941295 ], [ 21.788494109588257, 10.79461288504738 ], [ 21.783170700440273, 10.703373908849597 ], [ 21.788591384757424, 10.669397353775642 ], [ 21.758613586020985, 10.642243384895108 ], [ 21.73363113364271, 10.653979301074687 ], [ 21.726945876623724, 10.597140312246397 ], [ 21.732915877638419, 10.554205893557919 ], [ 21.717540740585477, 10.507866859238954 ], [ 21.732685089118391, 10.477886199759142 ], [ 21.750854491714193, 10.463861464905508 ], [ 21.758525848162144, 10.443951607051835 ], [ 21.754085540887743, 10.426891326644169 ], [ 21.770988464219059, 10.411687851284087 ], [ 21.742940902873173, 10.381697655393237 ], [ 21.740795134860385, 10.35433483065867 ], [ 21.727996826165338, 10.356713294653582 ], [ 21.723140717342986, 10.347060203836142 ], [ 21.737379073558202, 10.320242881774385 ], [ 21.728260039741784, 10.301774978902975 ], [ 21.705509185773124, 10.276290893680637 ], [ 21.676471710074168, 10.278100967256639 ], [ 21.682636261427106, 10.264365196267574 ], [ 21.660688400422131, 10.253135681137534 ], [ 21.673791885060183, 10.241991043122963 ], [ 21.67270851136152, 10.233706474045364 ], [ 21.636796950691547, 10.226716995263926 ], [ 21.622360229213982, 10.231411933884468 ], [ 21.610881805124009, 10.218205451691039 ], [ 21.588665009055745, 10.211335181644129 ], [ 21.5612850189612, 10.210390091300455 ], [ 21.536750793187295, 10.226938248272374 ], [ 21.510120391615558, 10.189856529326166 ], [ 21.493841170606295, 10.187005996800144 ], [ 21.487634658685359, 10.164634705298189 ], [ 21.468076706447619, 10.152205466679773 ], [ 21.46898269696667, 10.136131286600433 ], [ 21.450120926112589, 10.123710632010882 ], [ 21.455011368352736, 10.087001800763259 ], [ 21.441406249971244, 10.080853462388214 ], [ 21.432035445552152, 10.048724174152154 ], [ 21.407756805305119, 10.041130065870648 ], [ 21.393789290716008, 10.001232146916847 ], [ 21.377256393440618, 9.985208511434459 ], [ 21.362375259383519, 9.988965987760897 ], [ 21.347547530666752, 9.965604781905965 ], [ 21.320808410952168, 9.972226142992943 ], [ 21.309486388858531, 9.99003601102387 ], [ 21.297893524239505, 9.968084335094781 ], [ 21.282630920253517, 9.985622406419678 ], [ 21.254053115931342, 9.990380286791586 ], [ 21.242498397855577, 9.965437889317949 ], [ 21.214826584052368, 9.951356888380522 ], [ 21.211751937774523, 9.93569660238712 ], [ 21.202764510746327, 9.93077468927129 ], [ 21.19898414577451, 9.895343781161378 ], [ 21.183828354267916, 9.891759872191161 ], [ 21.133071898621999, 9.847903251804388 ], [ 21.117425919043669, 9.818687438745085 ], [ 21.115306853701092, 9.79194545738776 ], [ 21.092538834372462, 9.776758194106202 ], [ 21.074209213057479, 9.778622627203267 ], [ 21.063238144197776, 9.765401840393414 ], [ 21.030464171557014, 9.773996352720301 ], [ 21.024852752725103, 9.758536338551979 ], [ 21.038536071655209, 9.737550735049213 ], [ 21.030532836593956, 9.728498458807641 ], [ 21.010332108312895, 9.732175827123543 ], [ 20.99498557959361, 9.747046470588957 ], [ 20.993013381635066, 9.727152823914528 ], [ 21.004388809069034, 9.705682754726149 ], [ 20.967823029382053, 9.702276229834913 ], [ 20.998609542569099, 9.684936522872997 ], [ 20.981466293407522, 9.665438651643251 ], [ 20.993747711360541, 9.64558887479757 ], [ 20.967145919921023, 9.64252662657333 ], [ 20.987396240416949, 9.63425731719226 ], [ 20.988019942738916, 9.620707511613199 ], [ 20.951477050798033, 9.616380691586487 ], [ 20.9515953062512, 9.567901610741577 ], [ 20.944238663056666, 9.563450812875493 ], [ 20.927473068000495, 9.571067809802377 ], [ 20.915290832678565, 9.525432586715285 ], [ 20.874500275440141, 9.523101806573949 ], [ 20.866441726677095, 9.487405777425492 ], [ 20.844718932705391, 9.484390258874184 ], [ 20.826931000038392, 9.462809563181581 ], [ 20.827333450251281, 9.43041992211254 ], [ 20.817411422571901, 9.42800331067509 ], [ 20.798238754287887, 9.443393707424471 ], [ 20.768110275041956, 9.428092956895226 ], [ 20.768135071149437, 9.407876014737079 ], [ 20.760814667036058, 9.401124001042612 ], [ 20.666893005080915, 9.398346900859552 ], [ 20.647724151721008, 9.342278480837981 ], [ 20.623529434408624, 9.334619522443818 ], [ 20.640569686914283, 9.323120117170477 ], [ 20.637863159230179, 9.317802428609964 ], [ 20.604335784941327, 9.316454887154121 ], [ 20.580848693785008, 9.342800139785398 ], [ 20.567365645780704, 9.33022022155677 ], [ 20.52863502525895, 9.337066649676936 ], [ 20.523942947381876, 9.307600021094883 ], [ 20.495775223120809, 9.307105063918394 ], [ 20.491533279310197, 9.2922401428391 ], [ 20.498052597022536, 9.272110939439079 ], [ 20.450252533100674, 9.165577888379625 ], [ 20.434228896719006, 9.153878212180574 ], [ 20.392887115320931, 9.150562285891558 ], [ 20.353202820426638, 9.128197670057267 ], [ 20.336715697744076, 9.13325309832261 ], [ 20.318126677776753, 9.123578072141155 ], [ 20.273635863577049, 9.122096062254256 ], [ 20.221244811871379, 9.151800155923281 ], [ 20.191186905124319, 9.13910770372833 ], [ 20.130638122923799, 9.138138770558632 ], [ 20.101459503126389, 9.156547545703505 ], [ 20.081462859795955, 9.133283615017648 ], [ 20.052654266054297, 9.142504692208616 ], [ 20.035762786596116, 9.12824249316729 ], [ 20.012443542208462, 9.126055716968592 ], [ 20.009071349835743, 9.104872704182773 ], [ 19.997886657815815, 9.116397857945588 ], [ 19.981679964431613, 9.092862147640831 ], [ 19.70585099979834, 9.895753979966523 ], [ 19.618896959999859, 10.060966980000016 ], [ 19.686255119999867, 10.192158990000019 ], [ 19.702123919999863, 10.259719020000032 ], [ 19.634906879999896, 10.291361040000021 ], [ 19.693590839999935, 10.503936 ], [ 19.700926919999855, 10.58896602000002 ], [ 19.722935159999881, 10.688166990000022 ], [ 19.697204879999912, 10.814515019999979 ], [ 19.693590839999935, 10.87948503000001 ], [ 19.737602999999897, 10.87948503000001 ], [ 19.700926919999855, 10.992858030000038 ], [ 19.48085495999992, 11.042459010000035 ], [ 19.392827039999876, 11.106231029999977 ], [ 18.901338839999919, 11.32589196 ], [ 18.864663119999907, 11.46760803 ], [ 18.905873039999914, 11.675828970000021 ], [ 19.062722879999932, 11.680182990000029 ], [ 19.084749839999908, 11.607507990000018 ], [ 19.224106919999855, 11.637667980000041 ], [ 19.34064395999993, 11.838556980000034 ], [ 19.319470919999908, 11.986644960000023 ], [ 19.466187119999905, 12.119504040000026 ], [ 19.618896959999859, 12.057184980000043 ], [ 19.888454879999866, 12.028614030000048 ] ] ] } },
{ "type": "Feature", "properties": { "loc": "TD-A1-0020" }, "geometry": { "type": "Polygon", "coordinates": [ [ [ 20.757259079999884, 13.026490020000056 ], [ 20.77926695999988, 12.906029970000018 ], [ 20.926304999999864, 12.849690960000023 ], [ 20.925978839999878, 12.70054197 ], [ 21.080027159999908, 12.636770039999975 ], [ 21.256083, 12.679283970000052 ], [ 21.380786999909226, 12.643856009929108 ], [ 21.490827119974014, 12.799744020281464 ], [ 21.674219039875169, 12.856429979571024 ], [ 21.813594119771182, 12.803286959736523 ], [ 21.839709783578058, 12.808996549462334 ], [ 21.865875243745933, 12.719527244797687 ], [ 21.880283355990464, 12.709113120685108 ], [ 21.887805939391022, 12.68643855980279 ], [ 21.941078186407545, 12.635530472164666 ], [ 22.03283882065346, 12.63720226328496 ], [ 22.136251449942876, 12.665860175617757 ], [ 22.164518355935741, 12.67881298064569 ], [ 22.195062636729709, 12.706912040769177 ], [ 22.197887420766257, 12.750157355988309 ], [ 22.359443664691788, 12.661378860157443 ], [ 22.458375930902882, 12.624130248623219 ], [ 22.420154572174127, 12.509069442811635 ], [ 22.371755600239126, 12.433518410357477 ], [ 22.378141402801859, 12.423673629945172 ], [ 22.393842696981267, 12.420325278599828 ], [ 22.421903609662216, 12.387853622058151 ], [ 22.418809890562379, 12.360704422282373 ], [ 22.443952559861096, 12.272038460417741 ], [ 22.475507736191496, 12.219590186648896 ], [ 22.486162186134337, 12.182243346664231 ], [ 22.492456435914207, 12.148483276393248 ], [ 22.488685608252617, 12.0804052351246 ], [ 22.471487045389246, 12.029718398696273 ], [ 22.457256317223688, 12.026413918078957 ], [ 22.491672515772336, 12.020497322404674 ], [ 22.551408767698859, 12.052981377000046 ], [ 22.611003876426125, 12.050506592016704 ], [ 22.635002135938258, 12.057836533440399 ], [ 22.639062880745783, 12.047755241222577 ], [ 22.554687499826613, 11.694128990171867 ], [ 22.566087723368149, 11.620658874718467 ], [ 22.662080765013641, 11.515588759824555 ], [ 22.754213332777503, 11.475112914940174 ], [ 22.787782669433007, 11.438345909247468 ], [ 22.789005279768197, 11.403181076356747 ], [ 22.945281981676473, 11.417244911034915 ], [ 22.953313827769314, 11.31201076519582 ], [ 22.98208999555527, 11.296127318731871 ], [ 22.986078262200387, 11.199601173366633 ], [ 22.881338120256416, 10.930897713369911 ], [ 22.76869583064645, 10.944091796610275 ], [ 22.744577408219229, 10.971097945724781 ], [ 22.65576744061331, 10.97948074325282 ], [ 22.612274169715526, 10.997042655605179 ], [ 22.568689346034873, 10.984187125746411 ], [ 22.509042740328574, 11.007270813408473 ], [ 22.493976593243552, 10.997293472027211 ], [ 22.468591689753111, 10.999210358082697 ], [ 22.457854758488679, 10.988735116943213 ], [ 22.165706880166773, 11.637667980104313 ], [ 22.004322840225292, 11.651840010419287 ], [ 21.948027120153832, 11.691977040219323 ], [ 21.102035039583797, 11.545551990443167 ], [ 21.094698960287225, 11.644754039778279 ], [ 20.830619159999912, 11.793555990000057 ], [ 20.603963159999935, 11.888244990000038 ], [ 20.303349839999889, 12.034825020000048 ], [ 20.128200119999903, 12.032341020000045 ], [ 20.082171959999933, 12.018558960000044 ], [ 20.031031079999888, 12.020301990000023 ], [ 20.015160119999891, 11.973957030000046 ], [ 19.923236999999876, 11.954081970000038 ], [ 19.888454879999866, 12.028614030000048 ], [ 19.884318839999864, 12.09824604 ], [ 20.023694999999879, 12.417108030000032 ], [ 20.148398999999877, 12.544653959999982 ], [ 20.126395079999853, 12.615512040000029 ], [ 20.170406879999874, 12.721799970000033 ], [ 20.243763, 12.771399960000037 ], [ 20.008438919999865, 12.933820980000052 ], [ 20.361134879999895, 13.019403960000039 ], [ 20.503482839999862, 13.013226 ], [ 20.757259079999884, 13.026490020000056 ] ] ] } },
{ "type": "Feature", "properties": { "loc": "TD-A1-0021" }, "geometry": { "type": "Polygon", "coordinates": [ [ [ 17.595595079954389, 9.681980039929824 ], [ 17.557368119838017, 9.582830009943097 ], [ 17.479555919920458, 9.623783970143171 ], [ 17.346183120162877, 9.589865040085884 ], [ 17.237927880069375, 9.574640009930432 ], [ 17.201067839790145, 9.537780960177619 ], [ 17.258403960072837, 9.484541009895983 ], [ 17.225639999828672, 9.439491960159016 ], [ 17.237927880069375, 9.369870030204938 ], [ 17.074764000014824, 9.263916989954732 ], [ 17.221476959832565, 9.164715029803657 ], [ 17.118777959835434, 9.079685009895874 ], [ 17.016775919772069, 9.050429969999682 ], [ 16.902200879918876, 9.036150030016129 ], [ 16.787433959940206, 9.054525960068579 ], [ 16.685975159948345, 9.122199030196606 ], [ 16.656630840006219, 9.100943009872195 ], [ 16.561269000067629, 9.150543000095753 ], [ 16.429227119900407, 9.115115040154217 ], [ 16.361516160128247, 9.222435990054775 ], [ 16.231164839778227, 9.157628970223572 ], [ 16.177223880270546, 9.083194019810866 ], [ 16.125716159671182, 9.058033979958177 ], [ 16.0551089999786, 9.129285000276552 ], [ 15.816516840257737, 9.033666029951112 ], [ 15.653012039751673, 9.050430959958552 ], [ 15.570955079794384, 9.022998959368186 ], [ 15.40957103990193, 9.07968500965953 ], [ 15.424242840040208, 9.221400989786884 ], [ 15.56362115968744, 9.441062999976898 ], [ 15.673655159821802, 9.490662989750861 ], [ 15.680990880055372, 9.568607039839824 ], [ 15.761860919765773, 9.716876999585308 ], [ 15.781736880069346, 9.724329989716937 ], [ 15.820755119976297, 9.706874039932275 ], [ 15.868690919923427, 9.70942401003739 ], [ 15.915731040078889, 9.660723029571491 ], [ 16.011095040020145, 9.660723029789272 ], [ 16.077116880355806, 9.752839020349787 ], [ 16.171079039682006, 9.831625020323672 ], [ 16.267844879553621, 10.01501297961059 ], [ 16.238500920156778, 10.192160970237149 ], [ 16.495250040139968, 10.20633003000467 ], [ 16.583273999827934, 10.248846030117983 ], [ 16.61995404017949, 10.227588030061282 ], [ 16.61995404017949, 10.149643979883502 ], [ 16.663970159827706, 10.085871960020695 ], [ 16.876702080169519, 10.007928000224839 ], [ 16.959440159868127, 9.939129030028523 ], [ 17.133450120159637, 9.922897979855646 ], [ 17.266596120097581, 9.824457959814778 ], [ 17.37716904000191, 9.820362959830517 ], [ 17.595595079954389, 9.681980039929824 ] ] ] } },
{ "type": "Feature", "properties": { "loc": "TD-A1-0022" }, "geometry": { "type": "Polygon", "coordinates": [ [ [ 16.81550216670427, 23.075262070436807 ], [ 19.098266564769499, 21.985365372461217 ], [ 18.916009920240988, 21.936915989928206 ], [ 18.916009920240988, 21.858972030582034 ], [ 18.875666160584252, 21.855429990448926 ], [ 18.80964611979195, 21.76331399988841 ], [ 18.794973960299437, 21.703084020158624 ], [ 18.765630000143734, 21.391308000211261 ], [ 18.538225920309319, 21.168105030469984 ], [ 18.468537839868819, 21.164562000183405 ], [ 18.395182080408095, 21.111418980348905 ], [ 18.189781919919028, 21.090160980292293 ], [ 18.079746120106748, 21.047645970332539 ], [ 17.822999160202428, 20.746497960259923 ], [ 17.837670959966161, 20.56935204061142 ], [ 17.874351000317805, 20.572895970220127 ], [ 17.951375160054965, 20.378034989970072 ], [ 17.914695120602691, 20.261118960119116 ], [ 17.98438284041513, 20.002485960006254 ], [ 17.874351000317805, 19.864313010184485 ], [ 17.76064715995787, 19.970600040007046 ], [ 17.705630880180383, 20.09105901021243 ], [ 17.661615120260947, 20.098144979954068 ], [ 17.507567879973056, 20.395748970485826 ], [ 17.573587919865989, 20.427635970570833 ], [ 17.584592040609586, 20.494951019820938 ], [ 17.481891960365008, 20.583523980094874 ], [ 17.437880159907486, 20.5303799699576 ], [ 17.390195999458395, 20.349692010026864 ], [ 17.298500039957503, 20.204432999631848 ], [ 17.199471959975625, 20.020201020309468 ], [ 16.688841479763088, 19.13533874983203 ], [ 15.516010443639665, 17.128615384441069 ], [ 15.593797684428239, 18.731866836933563 ], [ 15.745819092090034, 19.910709381381452 ], [ 15.753550528646603, 19.947784423760716 ], [ 15.995642661692138, 20.348470688420171 ], [ 15.865157126612743, 20.462463379330075 ], [ 15.745673179786017, 20.629545211690768 ], [ 15.590104103134443, 20.774473189734564 ], [ 15.546156883246169, 20.88041877665384 ], [ 15.561099051592535, 20.910017013822767 ], [ 15.625593184790247, 20.963241576985801 ], [ 15.288578986643557, 21.432321547649945 ], [ 15.198430060711381, 21.4913063053903 ], [ 15.191866874968945, 21.989744185594283 ], [ 14.995866775643822, 23.001893996559307 ], [ 15.998169898734442, 23.45036888126749 ], [ 16.81550216670427, 23.075262070436807 ] ] ] } },
{ "type": "Feature", "properties": { "loc": "TD-A1-0023" }, "geometry": { "type": "Polygon", "coordinates": [ [ [ 21.761282160040793, 15.950130029877073 ], [ 21.96605015979037, 15.892793999921238 ], [ 22.088913839595641, 15.950130029576425 ], [ 22.322742120346177, 15.886943999864865 ], [ 22.365388079689716, 15.8140479603443 ], [ 22.449481919748386, 15.7958700303768 ], [ 22.777436159644701, 15.671529990016207 ], [ 22.80173688004659, 15.603708959699901 ], [ 22.85249471974911, 15.551376030278728 ], [ 22.885670159643809, 15.529107509703032 ], [ 22.927846156668416, 15.515182283934458 ], [ 22.922130584652386, 15.488599776657562 ], [ 22.930292130071344, 15.465232849315701 ], [ 22.990156173861983, 15.415927886861645 ], [ 22.996940612612775, 15.398428917160022 ], [ 22.991067885867871, 15.340583801000772 ], [ 23.003845215178117, 15.308549881371146 ], [ 22.986833571905393, 15.259480475642594 ], [ 22.999732970693628, 15.237209320053267 ], [ 22.975334166632138, 15.196256638432303 ], [ 22.931743622363925, 15.165776252671069 ], [ 22.940061568879941, 15.107514380783226 ], [ 22.920986175764995, 15.093429564921689 ], [ 22.892858504609919, 15.094452857612449 ], [ 22.870702743730291, 15.083105087029335 ], [ 22.852178573875719, 15.054786682258779 ], [ 22.814155578610666, 15.029470443805103 ], [ 22.756910323746013, 14.972212790886751 ], [ 22.74964904825854, 14.950371742361167 ], [ 22.757080077976859, 14.902823448142787 ], [ 22.704013824272167, 14.890615463432098 ], [ 22.674678801579056, 14.858780861446817 ], [ 22.671072005762113, 14.848718642950175 ], [ 22.711324691974596, 14.738497733882504 ], [ 22.720699310418432, 14.691276550071951 ], [ 22.617265700845017, 14.650245667003091 ], [ 22.481985092131914, 14.623757361911892 ], [ 22.451951980593051, 14.596915244642027 ], [ 22.442913054787255, 14.605100631987732 ], [ 22.411163329917358, 14.595857620332119 ], [ 22.384214400640516, 14.506741523810827 ], [ 22.410161972163664, 14.505373001171616 ], [ 22.447631835806966, 14.482519149647587 ], [ 22.443574905024271, 14.36535739893333 ], [ 22.455440521429345, 14.356737137217689 ], [ 22.461832047277568, 14.329004288225843 ], [ 22.435369491575216, 14.312458991997389 ], [ 22.428262710621979, 14.292182922112705 ], [ 22.479246139863903, 14.232004165968025 ], [ 22.51681709270111, 14.243821144338874 ], [ 22.558164597384675, 14.229709624907848 ], [ 22.553409575957581, 14.208996773191039 ], [ 22.579067230334786, 14.184409142076802 ], [ 22.536352158092029, 14.118576049653552 ], [ 22.503715514625696, 14.109560965774502 ], [ 22.431053162140095, 14.051090239831275 ], [ 22.392715453621719, 14.04998111674368 ], [ 22.358440399171528, 14.017501831253064 ], [ 22.328149796442339, 14.011014937697773 ], [ 22.291749954263359, 13.974822043910727 ], [ 22.231857300340501, 13.94737052893532 ], [ 22.174882346609408, 13.881587033223518 ], [ 22.099682879827469, 13.975991009685927 ], [ 21.710891160065401, 14.096449979891222 ], [ 21.432138840086594, 14.131879020030468 ], [ 21.270755160000462, 14.039763030064588 ], [ 21.168342360045393, 14.012339670146844 ], [ 21.124643399925951, 14.035164120140951 ], [ 21.091356720057668, 14.107940819883545 ], [ 20.992002840018905, 14.160222000199539 ], [ 20.874627000157346, 14.301938969880844 ], [ 20.632555080215717, 14.401140029921265 ], [ 20.427154919971251, 14.401140029921265 ], [ 20.309783039967115, 14.35862501994135 ], [ 20.045230919916595, 14.063987970040902 ], [ 20.041728840348476, 15.734495970103644 ], [ 20.100718080064066, 15.722647019901391 ], [ 20.237793839902437, 15.622497989847727 ], [ 20.313453960120839, 15.623445959820558 ], [ 20.500509959955409, 15.665960969780311 ], [ 20.639145959906799, 15.622497989847727 ], [ 20.786576039894008, 15.729234029722804 ], [ 21.130593839856346, 15.933745980023449 ], [ 21.335361839877969, 15.851837970050152 ], [ 21.388123080147352, 15.874992990094171 ], [ 21.761282160040793, 15.950130029877073 ] ] ] } }
]
}
