{
"type": "FeatureCollection",
"name": "border_DK",
"crs": { "type": "name", "properties": { "name": "urn:ogc:def:crs:OGC:1.3:CRS84" } },
"features": [
{ "type": "Feature", "properties": { }, "geometry": { "type": "Polygon", "coordinates": [ [ [ 9.921906365609118, 54.983104153048032 ], [ 9.282048780971138, 54.830865383516176 ], [ 8.526229282270208, 54.962743638725158 ], [ 8.120310906617533, 55.517722683323598 ], [ 8.089976840862221, 56.540011705137587 ], [ 8.543437534223415, 57.110002753316948 ], [ 9.424469028367554, 57.172066148499503 ], [ 9.775558709358535, 57.447940782289663 ], [ 10.580005730846125, 57.73001658795485 ], [ 10.546105991262664, 57.215732733786119 ], [ 10.250000034230226, 56.890016181050441 ], [ 10.369992710011957, 56.609981594460791 ], [ 10.912181837618306, 56.458621324277885 ], [ 10.667803989310016, 56.081383368547208 ], [ 10.369992710011957, 56.190007229224733 ], [ 9.649984978889279, 55.469999498102055 ], [ 9.921906365609118, 54.983104153048032 ] ] ] } },
{ "type": "Feature", "properties": { }, "geometry": { "type": "Polygon", "coordinates": [ [ [ 12.370904168353292, 56.111407375708794 ], [ 12.690006137755603, 55.609990953180741 ], [ 12.089991082414684, 54.800014553437919 ], [ 11.043543328504226, 55.36486379660424 ], [ 10.903913608451603, 55.779954738988721 ], [ 12.370904168353292, 56.111407375708794 ] ] ] } }
]
}
