{
"type": "FeatureCollection",
"name": "regions_DK",
"crs": { "type": "name", "properties": { "name": "urn:ogc:def:crs:OGC:1.3:CRS84" } },
"features": [
{ "type": "Feature", "properties": { "loc": "DK011" }, "geometry": { "type": "MultiPolygon", "coordinates": [ [ [ [ 12.789494, 55.611229 ], [ 12.763711, 55.607133 ], [ 12.746968, 55.619755 ], [ 12.735369, 55.634806 ], [ 12.745579, 55.665445 ], [ 12.76824, 55.671236 ], [ 12.776645, 55.666199 ], [ 12.789494, 55.611229 ] ] ], [ [ [ 12.763971, 55.59017 ], [ 12.754197, 55.588408 ], [ 12.751184, 55.603541 ], [ 12.765223, 55.599502 ], [ 12.763971, 55.59017 ] ] ], [ [ [ 12.50479, 55.63734 ], [ 12.480248, 55.657144 ], [ 12.459969, 55.715332 ], [ 12.567745, 55.729671 ], [ 12.605837, 55.717685 ], [ 12.601143, 55.693166 ], [ 12.628086, 55.69004 ], [ 12.640737, 55.676039 ], [ 12.649401, 55.644285 ], [ 12.677948, 55.626071 ], [ 12.672964, 55.5884 ], [ 12.598874, 55.558388 ], [ 12.570701, 55.559366 ], [ 12.516509, 55.589644 ], [ 12.511296, 55.607045 ], [ 12.526993, 55.63154 ], [ 12.50479, 55.63734 ] ] ] ] } },
{ "type": "Feature", "properties": { "loc": "DK012" }, "geometry": { "type": "Polygon", "coordinates": [ [ [ 12.246269, 55.706637 ], [ 12.306907, 55.695869 ], [ 12.335424, 55.70574 ], [ 12.326751, 55.738756 ], [ 12.286365, 55.751138 ], [ 12.290174, 55.75889 ], [ 12.409376, 55.756242 ], [ 12.418559, 55.789839 ], [ 12.432291, 55.799004 ], [ 12.582754, 55.807968 ], [ 12.59903, 55.761483 ], [ 12.584126, 55.722001 ], [ 12.567745, 55.729671 ], [ 12.459969, 55.715332 ], [ 12.480248, 55.657144 ], [ 12.50479, 55.63734 ], [ 12.487696, 55.601324 ], [ 12.394402, 55.613007 ], [ 12.363471, 55.593807 ], [ 12.27601, 55.620307 ], [ 12.224224, 55.61907 ], [ 12.203956, 55.60591 ], [ 12.165373, 55.613077 ], [ 12.155293, 55.667173 ], [ 12.246269, 55.706637 ] ] ] } },
{ "type": "Feature", "properties": { "loc": "DK013" }, "geometry": { "type": "MultiPolygon", "coordinates": [ [ [ [ 12.246269, 55.706637 ], [ 12.219942, 55.726665 ], [ 12.215099, 55.745475 ], [ 12.163986, 55.749455 ], [ 12.077876, 55.786385 ], [ 12.062654, 55.824799 ], [ 12.044724, 55.842529 ], [ 12.064591, 55.874867 ], [ 12.016363, 55.956527 ], [ 12.002654, 55.96574 ], [ 11.978525, 55.96604 ], [ 11.885743, 55.942197 ], [ 11.854665, 55.947046 ], [ 11.845685, 55.966889 ], [ 11.859735, 55.978588 ], [ 12.001838, 56.02851 ], [ 12.207069, 56.115234 ], [ 12.288405, 56.129345 ], [ 12.388935, 56.102418 ], [ 12.533868, 56.08234 ], [ 12.616508, 56.040232 ], [ 12.600404, 56.014556 ], [ 12.558203, 55.985906 ], [ 12.521368, 55.922904 ], [ 12.572584, 55.846285 ], [ 12.582754, 55.807968 ], [ 12.432291, 55.799004 ], [ 12.418559, 55.789839 ], [ 12.409376, 55.756242 ], [ 12.290174, 55.75889 ], [ 12.286365, 55.751138 ], [ 12.326751, 55.738756 ], [ 12.335424, 55.70574 ], [ 12.306907, 55.695869 ], [ 12.246269, 55.706637 ] ] ], [ [ [ 12.089871, 55.72928 ], [ 12.077359, 55.726371 ], [ 12.068214, 55.733203 ], [ 12.078412, 55.744338 ], [ 12.089871, 55.72928 ] ] ], [ [ [ 11.980779, 55.730123 ], [ 11.930958, 55.744318 ], [ 11.903288, 55.733118 ], [ 11.856777, 55.746887 ], [ 11.86771, 55.794782 ], [ 11.888285, 55.813798 ], [ 11.939919, 55.824606 ], [ 11.953845, 55.852342 ], [ 11.904031, 55.918612 ], [ 11.90654, 55.932135 ], [ 11.959011, 55.929377 ], [ 12.019306, 55.905167 ], [ 12.000411, 55.865528 ], [ 12.031005, 55.842384 ], [ 12.06004, 55.776191 ], [ 12.06, 55.740821 ], [ 12.054338, 55.732258 ], [ 12.021737, 55.723796 ], [ 11.993281, 55.734202 ], [ 11.980779, 55.730123 ] ] ], [ [ [ 11.718352, 56.198802 ], [ 11.720008, 56.19094 ], [ 11.695093, 56.197594 ], [ 11.699346, 56.201454 ], [ 11.718352, 56.198802 ] ] ] ] } },
{ "type": "Feature", "properties": { "loc": "DK014" }, "geometry": { "type": "MultiPolygon", "coordinates": [ [ [ [ 15.199298, 55.319186 ], [ 15.192363, 55.312184 ], [ 15.180637, 55.320238 ], [ 15.194407, 55.327685 ], [ 15.199298, 55.319186 ] ] ], [ [ [ 14.828869, 55.253307 ], [ 14.943732, 55.211305 ], [ 14.973729, 55.212341 ], [ 15.022938, 55.17782 ], [ 15.145187, 55.136558 ], [ 15.152679, 55.126178 ], [ 15.153634, 55.089058 ], [ 15.118574, 55.041422 ], [ 15.115491, 55.013495 ], [ 15.085367, 54.992042 ], [ 14.973729, 55.00267 ], [ 14.873502, 55.034646 ], [ 14.767461, 55.056042 ], [ 14.68981, 55.099243 ], [ 14.707166, 55.134058 ], [ 14.702262, 55.1886 ], [ 14.710847, 55.217602 ], [ 14.766772, 55.294761 ], [ 14.803808, 55.277946 ], [ 14.828869, 55.253307 ] ] ] ] } },
{ "type": "Feature", "properties": { "loc": "DK021" }, "geometry": { "type": "Polygon", "coordinates": [ [ [ 12.246269, 55.706637 ], [ 12.155293, 55.667173 ], [ 12.165373, 55.613077 ], [ 12.203956, 55.60591 ], [ 12.224224, 55.61907 ], [ 12.27601, 55.620307 ], [ 12.363471, 55.593807 ], [ 12.305605, 55.57619 ], [ 12.236103, 55.536104 ], [ 12.198839, 55.48654 ], [ 12.202053, 55.444151 ], [ 12.224044, 55.417329 ], [ 12.193771, 55.402253 ], [ 12.18448, 55.377223 ], [ 12.080772, 55.370475 ], [ 12.04775, 55.392698 ], [ 11.961115, 55.404995 ], [ 11.953932, 55.422689 ], [ 11.932757, 55.440481 ], [ 11.938653, 55.463753 ], [ 11.921093, 55.491155 ], [ 11.909514, 55.534371 ], [ 11.849648, 55.559861 ], [ 11.852751, 55.578682 ], [ 11.824322, 55.592189 ], [ 11.779395, 55.659028 ], [ 11.805279, 55.664581 ], [ 11.83144, 55.68797 ], [ 11.855109, 55.727371 ], [ 11.875298, 55.737656 ], [ 11.903288, 55.733118 ], [ 11.930958, 55.744318 ], [ 11.980779, 55.730123 ], [ 11.95462, 55.674038 ], [ 11.981967, 55.679116 ], [ 12.002572, 55.697977 ], [ 12.018375, 55.690597 ], [ 12.016512, 55.672623 ], [ 12.075583, 55.65732 ], [ 12.082197, 55.684428 ], [ 12.104036, 55.710808 ], [ 12.089595, 55.780847 ], [ 12.163986, 55.749455 ], [ 12.215099, 55.745475 ], [ 12.219942, 55.726665 ], [ 12.246269, 55.706637 ] ] ] } },
{ "type": "Feature", "properties": { "loc": "DK022" }, "geometry": { "type": "MultiPolygon", "coordinates": [ [ [ [ 12.541051, 54.989605 ], [ 12.552761, 54.964491 ], [ 12.540081, 54.947417 ], [ 12.514132, 54.943928 ], [ 12.419316, 54.961934 ], [ 12.358813, 54.964161 ], [ 12.286039, 54.939236 ], [ 12.204347, 54.882267 ], [ 12.147456, 54.882006 ], [ 12.116485, 54.90357 ], [ 12.114983, 54.92397 ], [ 12.135119, 54.940847 ], [ 12.125846, 54.957494 ], [ 12.173948, 54.972932 ], [ 12.172223, 54.985649 ], [ 12.211507, 54.969749 ], [ 12.275041, 54.984607 ], [ 12.281549, 55.017152 ], [ 12.26061, 55.034702 ], [ 12.237243, 55.040312 ], [ 12.244443, 55.052724 ], [ 12.263923, 55.05783 ], [ 12.304364, 55.031872 ], [ 12.458988, 55.023165 ], [ 12.513191, 55.010785 ], [ 12.541051, 54.989605 ] ] ], [ [ [ 12.219571, 55.425062 ], [ 12.347744, 55.397378 ], [ 12.404326, 55.37029 ], [ 12.444586, 55.332848 ], [ 12.445683, 55.295267 ], [ 12.416958, 55.266318 ], [ 12.372288, 55.247973 ], [ 12.261628, 55.237325 ], [ 12.171746, 55.212216 ], [ 12.126117, 55.183846 ], [ 12.096067, 55.152723 ], [ 12.069192, 55.164862 ], [ 12.03626, 55.154999 ], [ 12.034078, 55.143711 ], [ 12.048546, 55.132387 ], [ 12.125151, 55.126742 ], [ 12.162743, 55.109156 ], [ 12.157726, 55.089223 ], [ 12.133242, 55.062522 ], [ 12.143845, 54.99741 ], [ 12.044305, 54.969696 ], [ 11.939344, 54.99316 ], [ 11.885711, 54.996094 ], [ 11.796228, 55.039715 ], [ 11.794283, 55.065929 ], [ 11.753677, 55.090775 ], [ 11.737183, 55.112715 ], [ 11.776128, 55.143385 ], [ 11.720529, 55.167827 ], [ 11.698191, 55.195469 ], [ 11.647074, 55.173478 ], [ 11.467457, 55.208188 ], [ 11.389823, 55.195674 ], [ 11.294788, 55.200738 ], [ 11.263116, 55.211738 ], [ 11.221022, 55.283813 ], [ 11.119243, 55.351946 ], [ 11.1247, 55.362921 ], [ 11.169009, 55.381635 ], [ 11.196719, 55.406717 ], [ 11.193684, 55.446972 ], [ 11.168166, 55.489822 ], [ 11.118466, 55.524416 ], [ 11.138646, 55.55195 ], [ 11.134833, 55.589695 ], [ 11.097168, 55.622237 ], [ 11.020033, 55.653061 ], [ 11.049341, 55.667483 ], [ 11.053663, 55.68056 ], [ 10.947926, 55.73925 ], [ 11.061011, 55.73673 ], [ 11.153614, 55.748212 ], [ 11.206509, 55.739042 ], [ 11.276315, 55.740692 ], [ 11.358031, 55.771997 ], [ 11.395908, 55.831274 ], [ 11.480965, 55.851842 ], [ 11.512403, 55.874 ], [ 11.51708, 55.910167 ], [ 11.498948, 55.933327 ], [ 11.453127, 55.94827 ], [ 11.351893, 55.963175 ], [ 11.328546, 55.971286 ], [ 11.329261, 55.978236 ], [ 11.494435, 55.956054 ], [ 11.584157, 55.957087 ], [ 11.640066, 55.944768 ], [ 11.764144, 55.963023 ], [ 11.768596, 55.951434 ], [ 11.745337, 55.916075 ], [ 11.693659, 55.908049 ], [ 11.680164, 55.895859 ], [ 11.709958, 55.851108 ], [ 11.713231, 55.823135 ], [ 11.663675, 55.807618 ], [ 11.638048, 55.786375 ], [ 11.658751, 55.777382 ], [ 11.740378, 55.773157 ], [ 11.744674, 55.751205 ], [ 11.710529, 55.726536 ], [ 11.783199, 55.706637 ], [ 11.793885, 55.686514 ], [ 11.779395, 55.659028 ], [ 11.824322, 55.592189 ], [ 11.852751, 55.578682 ], [ 11.849648, 55.559861 ], [ 11.909514, 55.534371 ], [ 11.921093, 55.491155 ], [ 11.938653, 55.463753 ], [ 11.932757, 55.440481 ], [ 11.953932, 55.422689 ], [ 11.961115, 55.404995 ], [ 12.04775, 55.392698 ], [ 12.080772, 55.370475 ], [ 12.18448, 55.377223 ], [ 12.193771, 55.402253 ], [ 12.224044, 55.417329 ], [ 12.219571, 55.425062 ] ] ], [ [ [ 12.236376, 55.060621 ], [ 12.221343, 55.034257 ], [ 12.184496, 55.04454 ], [ 12.209295, 55.057249 ], [ 12.236376, 55.060621 ] ] ], [ [ [ 11.509762, 54.832253 ], [ 11.567803, 54.831659 ], [ 11.582351, 54.85035 ], [ 11.632215, 54.862327 ], [ 11.646707, 54.890442 ], [ 11.669987, 54.892992 ], [ 11.733757, 54.869949 ], [ 11.793723, 54.806947 ], [ 11.807404, 54.801982 ], [ 11.798645, 54.838199 ], [ 11.757862, 54.869032 ], [ 11.746563, 54.913168 ], [ 11.723392, 54.93492 ], [ 11.75444, 54.956617 ], [ 11.807329, 54.945071 ], [ 11.840217, 54.957225 ], [ 11.905867, 54.92231 ], [ 11.93363, 54.935303 ], [ 11.963509, 54.93602 ], [ 12.00669, 54.898072 ], [ 12.117719, 54.882225 ], [ 12.156268, 54.833645 ], [ 12.045725, 54.75887 ], [ 11.97411, 54.685956 ], [ 11.964951, 54.655576 ], [ 11.967525, 54.571284 ], [ 11.962184, 54.563579 ], [ 11.924619, 54.576617 ], [ 11.911704, 54.606909 ], [ 11.873405, 54.648885 ], [ 11.880322, 54.68599 ], [ 11.903801, 54.713988 ], [ 11.877565, 54.727935 ], [ 11.876322, 54.750191 ], [ 11.860912, 54.764863 ], [ 11.855542, 54.736777 ], [ 11.821921, 54.728521 ], [ 11.81448, 54.718309 ], [ 11.85231, 54.688171 ], [ 11.822371, 54.652878 ], [ 11.804513, 54.646462 ], [ 11.683876, 54.662648 ], [ 11.595925, 54.661871 ], [ 11.455646, 54.614199 ], [ 11.352982, 54.651597 ], [ 11.255847, 54.702102 ], [ 11.05452, 54.747944 ], [ 10.991406, 54.778176 ], [ 10.977582, 54.79352 ], [ 11.017449, 54.812528 ], [ 11.066015, 54.805564 ], [ 11.099208, 54.826324 ], [ 11.054796, 54.850175 ], [ 11.052622, 54.865281 ], [ 11.026085, 54.883272 ], [ 11.036732, 54.915812 ], [ 11.081771, 54.941197 ], [ 11.17709, 54.958344 ], [ 11.283918, 54.947246 ], [ 11.351345, 54.914928 ], [ 11.386794, 54.885207 ], [ 11.509762, 54.832253 ] ] ], [ [ [ 12.099156, 54.955761 ], [ 12.075276, 54.947953 ], [ 12.069457, 54.951248 ], [ 12.095931, 54.963318 ], [ 12.099156, 54.955761 ] ] ], [ [ [ 12.010551, 54.934279 ], [ 12.069385, 54.938661 ], [ 12.086481, 54.928076 ], [ 12.072127, 54.90881 ], [ 12.010169, 54.920147 ], [ 11.993284, 54.935849 ], [ 11.998745, 54.940888 ], [ 12.010551, 54.934279 ] ] ], [ [ [ 11.998598, 54.955616 ], [ 11.996645, 54.941364 ], [ 11.978495, 54.952509 ], [ 11.992101, 54.958726 ], [ 11.998598, 54.955616 ] ] ], [ [ [ 11.845591, 55.787679 ], [ 11.83144, 55.757213 ], [ 11.813764, 55.751775 ], [ 11.792837, 55.759921 ], [ 11.778218, 55.779816 ], [ 11.79347, 55.78938 ], [ 11.816869, 55.786281 ], [ 11.828576, 55.805013 ], [ 11.845591, 55.787679 ] ] ], [ [ [ 11.704499, 55.154953 ], [ 11.695644, 55.146861 ], [ 11.679988, 55.158604 ], [ 11.686112, 55.163095 ], [ 11.704499, 55.154953 ] ] ], [ [ [ 11.567928, 54.97255 ], [ 11.534357, 54.951029 ], [ 11.500374, 54.981348 ], [ 11.515409, 54.990607 ], [ 11.550955, 54.987539 ], [ 11.567928, 54.97255 ] ] ], [ [ [ 11.506732, 54.888782 ], [ 11.48138, 54.885286 ], [ 11.472456, 54.910401 ], [ 11.491552, 54.913967 ], [ 11.506732, 54.888782 ] ] ], [ [ [ 11.409949, 54.968227 ], [ 11.45412, 54.963523 ], [ 11.470046, 54.952211 ], [ 11.469485, 54.943401 ], [ 11.435432, 54.944298 ], [ 11.399981, 54.922464 ], [ 11.37159, 54.936224 ], [ 11.3632, 54.948645 ], [ 11.379945, 54.95534 ], [ 11.405591, 54.948174 ], [ 11.409949, 54.968227 ] ] ], [ [ [ 11.373017, 55.03345 ], [ 11.346559, 55.022762 ], [ 11.341942, 55.025891 ], [ 11.369313, 55.040316 ], [ 11.373017, 55.03345 ] ] ], [ [ [ 11.366794, 54.964395 ], [ 11.366534, 54.954987 ], [ 11.353927, 54.956593 ], [ 11.348077, 54.966815 ], [ 11.366794, 54.964395 ] ] ], [ [ [ 11.322421, 54.966759 ], [ 11.310107, 54.95927 ], [ 11.298297, 54.97134 ], [ 11.311497, 54.974059 ], [ 11.322421, 54.966759 ] ] ], [ [ [ 11.303392, 55.776918 ], [ 11.303635, 55.76552 ], [ 11.292261, 55.770726 ], [ 11.279057, 55.789271 ], [ 11.283413, 55.796233 ], [ 11.303392, 55.776918 ] ] ], [ [ [ 11.205782, 55.19839 ], [ 11.194094, 55.191445 ], [ 11.174398, 55.199361 ], [ 11.173487, 55.25065 ], [ 11.189083, 55.241221 ], [ 11.177703, 55.231545 ], [ 11.194284, 55.221218 ], [ 11.205782, 55.19839 ] ] ], [ [ [ 11.192887, 55.865528 ], [ 11.150271, 55.872891 ], [ 11.088266, 55.904098 ], [ 11.082015, 55.914007 ], [ 11.114833, 55.910413 ], [ 11.192887, 55.865528 ] ] ], [ [ [ 11.178256, 55.167048 ], [ 11.150381, 55.140175 ], [ 11.133147, 55.160447 ], [ 11.176471, 55.174866 ], [ 11.178256, 55.167048 ] ] ], [ [ [ 11.025747, 54.842339 ], [ 11.018266, 54.829591 ], [ 11.014383, 54.851541 ], [ 11.025747, 54.842339 ] ] ], [ [ [ 10.991419, 55.342962 ], [ 10.985558, 55.331032 ], [ 10.966225, 55.334658 ], [ 10.97241, 55.341112 ], [ 10.991419, 55.342962 ] ] ], [ [ [ 10.969536, 54.825453 ], [ 10.954412, 54.822612 ], [ 10.952654, 54.831411 ], [ 10.967125, 54.836267 ], [ 10.969536, 54.825453 ] ] ] ] } },
{ "type": "Feature", "properties": { "loc": "DK031" }, "geometry": { "type": "MultiPolygon", "coordinates": [ [ [ [ 10.733489, 54.745509 ], [ 10.695828, 54.725147 ], [ 10.672209, 54.740695 ], [ 10.65627, 54.795261 ], [ 10.617178, 54.830572 ], [ 10.647971, 54.836165 ], [ 10.675341, 54.877939 ], [ 10.714696, 54.879883 ], [ 10.705698, 54.89896 ], [ 10.680902, 54.906108 ], [ 10.695194, 54.928076 ], [ 10.733233, 54.959942 ], [ 10.8127, 54.999524 ], [ 10.845074, 55.036301 ], [ 10.878127, 55.102679 ], [ 10.90667, 55.140261 ], [ 10.940266, 55.161516 ], [ 10.95428, 55.150406 ], [ 10.947068, 55.123376 ], [ 10.892638, 54.995624 ], [ 10.837007, 54.941199 ], [ 10.733489, 54.745509 ] ] ], [ [ [ 10.412384, 55.58914 ], [ 10.487604, 55.549644 ], [ 10.481207, 55.52611 ], [ 10.493006, 55.50125 ], [ 10.44506, 55.472049 ], [ 10.431667, 55.442747 ], [ 10.450585, 55.439728 ], [ 10.476551, 55.444271 ], [ 10.501597, 55.467888 ], [ 10.6144, 55.488718 ], [ 10.611751, 55.503301 ], [ 10.579271, 55.521066 ], [ 10.620398, 55.525527 ], [ 10.606452, 55.57175 ], [ 10.626132, 55.570325 ], [ 10.620673, 55.599907 ], [ 10.626921, 55.60663 ], [ 10.695653, 55.545271 ], [ 10.738996, 55.489313 ], [ 10.677348, 55.460928 ], [ 10.673494, 55.448102 ], [ 10.762667, 55.385741 ], [ 10.841808, 55.297685 ], [ 10.829718, 55.292069 ], [ 10.797332, 55.302061 ], [ 10.784933, 55.296591 ], [ 10.811544, 55.221953 ], [ 10.806194, 55.184795 ], [ 10.76847, 55.100698 ], [ 10.715611, 55.057171 ], [ 10.705314, 55.034643 ], [ 10.676474, 55.032771 ], [ 10.647777, 55.04475 ], [ 10.652781, 55.02494 ], [ 10.631593, 54.989121 ], [ 10.652254, 54.982453 ], [ 10.681232, 54.992011 ], [ 10.682701, 54.980023 ], [ 10.614813, 54.952372 ], [ 10.559906, 54.948627 ], [ 10.531247, 54.9749 ], [ 10.521237, 54.999204 ], [ 10.524538, 55.008082 ], [ 10.596839, 55.050149 ], [ 10.507592, 55.030367 ], [ 10.410567, 55.044093 ], [ 10.376093, 55.058187 ], [ 10.328316, 55.055694 ], [ 10.230584, 55.095103 ], [ 10.206988, 55.070121 ], [ 10.133901, 55.087007 ], [ 10.081751, 55.083784 ], [ 10.091311, 55.105024 ], [ 10.156051, 55.127969 ], [ 10.120718, 55.175219 ], [ 10.105176, 55.184749 ], [ 10.02849, 55.183413 ], [ 9.903519, 55.237497 ], [ 9.887851, 55.262676 ], [ 9.888849, 55.307041 ], [ 9.874884, 55.343495 ], [ 9.797092, 55.366226 ], [ 9.831198, 55.387271 ], [ 9.815049, 55.419955 ], [ 9.75275, 55.436504 ], [ 9.731801, 55.459503 ], [ 9.792242, 55.440185 ], [ 9.801111, 55.447684 ], [ 9.723489, 55.490193 ], [ 9.690578, 55.482207 ], [ 9.683417, 55.500854 ], [ 9.690395, 55.511287 ], [ 9.743269, 55.511277 ], [ 9.770829, 55.541907 ], [ 9.825073, 55.551815 ], [ 9.846083, 55.544888 ], [ 9.866633, 55.517524 ], [ 9.93576, 55.513642 ], [ 10.038839, 55.555289 ], [ 10.146875, 55.573093 ], [ 10.224312, 55.601456 ], [ 10.268625, 55.604613 ], [ 10.299758, 55.58675 ], [ 10.299307, 55.613146 ], [ 10.311061, 55.619137 ], [ 10.412384, 55.58914 ] ] ], [ [ [ 10.796358, 55.509228 ], [ 10.776958, 55.506856 ], [ 10.776572, 55.51634 ], [ 10.790195, 55.520451 ], [ 10.796358, 55.509228 ] ] ], [ [ [ 10.70355, 54.956047 ], [ 10.704286, 54.94661 ], [ 10.677427, 54.957426 ], [ 10.681362, 54.961721 ], [ 10.70355, 54.956047 ] ] ], [ [ [ 10.625125, 54.898986 ], [ 10.605571, 54.891524 ], [ 10.591592, 54.91445 ], [ 10.621665, 54.915953 ], [ 10.625125, 54.898986 ] ] ], [ [ [ 10.59955, 55.61451 ], [ 10.595625, 55.606663 ], [ 10.582634, 55.611826 ], [ 10.589877, 55.627217 ], [ 10.59955, 55.61451 ] ] ], [ [ [ 10.590427, 54.899187 ], [ 10.578422, 54.891523 ], [ 10.56616, 54.900245 ], [ 10.573111, 54.906718 ], [ 10.590427, 54.899187 ] ] ], [ [ [ 10.56298, 55.516021 ], [ 10.558135, 55.513056 ], [ 10.531554, 55.530019 ], [ 10.543294, 55.5296 ], [ 10.56298, 55.516021 ] ] ], [ [ [ 10.282882, 54.939143 ], [ 10.373557, 54.886743 ], [ 10.401921, 54.895154 ], [ 10.405177, 54.910492 ], [ 10.416856, 54.902064 ], [ 10.409444, 54.892505 ], [ 10.446441, 54.864986 ], [ 10.473601, 54.884304 ], [ 10.515464, 54.860988 ], [ 10.520173, 54.850656 ], [ 10.454737, 54.83736 ], [ 10.417376, 54.818542 ], [ 10.282922, 54.892576 ], [ 10.247631, 54.920247 ], [ 10.231732, 54.949982 ], [ 10.282882, 54.939143 ] ] ], [ [ [ 10.512871, 54.927336 ], [ 10.497315, 54.925315 ], [ 10.49208, 54.934933 ], [ 10.499924, 54.941828 ], [ 10.512871, 54.927336 ] ] ], [ [ [ 10.48956, 54.956862 ], [ 10.481661, 54.956733 ], [ 10.469524, 54.964876 ], [ 10.491411, 54.967337 ], [ 10.48956, 54.956862 ] ] ], [ [ [ 10.487255, 54.927973 ], [ 10.485914, 54.912899 ], [ 10.469232, 54.916229 ], [ 10.475326, 54.926148 ], [ 10.487255, 54.927973 ] ] ], [ [ [ 10.478304, 55.005001 ], [ 10.467477, 54.998185 ], [ 10.451831, 55.004337 ], [ 10.463769, 55.015659 ], [ 10.478304, 55.005001 ] ] ], [ [ [ 10.472705, 55.479882 ], [ 10.476089, 55.4658 ], [ 10.454241, 55.466072 ], [ 10.455184, 55.473625 ], [ 10.472705, 55.479882 ] ] ], [ [ [ 10.427584, 54.981547 ], [ 10.441638, 54.971021 ], [ 10.423356, 54.961876 ], [ 10.399052, 54.975723 ], [ 10.427584, 54.981547 ] ] ], [ [ [ 10.383665, 54.975413 ], [ 10.366436, 54.968904 ], [ 10.357711, 54.977284 ], [ 10.380748, 54.981863 ], [ 10.383665, 54.975413 ] ] ], [ [ [ 10.341625, 55.003646 ], [ 10.33055, 55.003609 ], [ 10.320511, 55.010366 ], [ 10.3384, 55.01831 ], [ 10.341625, 55.003646 ] ] ], [ [ [ 10.275802, 55.021414 ], [ 10.256068, 55.018184 ], [ 10.235029, 55.032089 ], [ 10.251839, 55.040098 ], [ 10.275802, 55.021414 ] ] ], [ [ [ 10.264123, 55.059412 ], [ 10.259992, 55.052278 ], [ 10.239901, 55.066666 ], [ 10.247009, 55.071159 ], [ 10.264123, 55.059412 ] ] ], [ [ [ 10.195925, 55.608498 ], [ 10.1817, 55.600926 ], [ 10.173658, 55.609528 ], [ 10.182515, 55.617197 ], [ 10.195925, 55.608498 ] ] ], [ [ [ 10.189753, 55.642852 ], [ 10.182078, 55.628366 ], [ 10.162025, 55.644803 ], [ 10.189753, 55.642852 ] ] ], [ [ [ 10.18099, 55.042583 ], [ 10.146088, 55.031284 ], [ 10.125266, 55.043713 ], [ 10.123655, 55.053736 ], [ 10.139576, 55.060866 ], [ 10.138091, 55.054878 ], [ 10.148125, 55.050816 ], [ 10.175998, 55.048472 ], [ 10.18099, 55.042583 ] ] ], [ [ [ 10.038775, 55.13613 ], [ 10.02695, 55.120743 ], [ 9.981634, 55.133935 ], [ 9.987617, 55.173757 ], [ 10.038775, 55.13613 ] ] ], [ [ [ 9.888714, 55.248285 ], [ 9.8788, 55.238588 ], [ 9.867489, 55.250925 ], [ 9.872582, 55.256469 ], [ 9.888714, 55.248285 ] ] ], [ [ [ 9.819981, 55.326432 ], [ 9.830163, 55.309274 ], [ 9.824948, 55.299496 ], [ 9.798821, 55.294841 ], [ 9.789196, 55.315413 ], [ 9.794988, 55.325862 ], [ 9.819981, 55.326432 ] ] ], [ [ [ 9.723051, 55.357369 ], [ 9.702735, 55.350341 ], [ 9.688555, 55.35714 ], [ 9.697871, 55.364381 ], [ 9.723051, 55.357369 ] ] ] ] } },
{ "type": "Feature", "properties": { "loc": "DK032" }, "geometry": { "type": "MultiPolygon", "coordinates": [ [ [ [ 9.672057, 55.712057 ], [ 9.649221, 55.695449 ], [ 9.809192, 55.608565 ], [ 9.719224, 55.527763 ], [ 9.599751, 55.517566 ], [ 9.581875, 55.506992 ], [ 9.664178, 55.464763 ], [ 9.653511, 55.443088 ], [ 9.613871, 55.41669 ], [ 9.603184, 55.372492 ], [ 9.642781, 55.328182 ], [ 9.693924, 55.232202 ], [ 9.659265, 55.192731 ], [ 9.584952, 55.183234 ], [ 9.524281, 55.157202 ], [ 9.507018, 55.123553 ], [ 9.528301, 55.094876 ], [ 9.529327, 55.073406 ], [ 9.449664, 55.0327 ], [ 9.495265, 55.020491 ], [ 9.598627, 55.029534 ], [ 9.749293, 54.968079 ], [ 9.824901, 54.952381 ], [ 9.821171, 54.970785 ], [ 9.787939, 54.994552 ], [ 9.698933, 55.014218 ], [ 9.665054, 55.043742 ], [ 9.671698, 55.059599 ], [ 9.693943, 55.070124 ], [ 9.779715, 55.071332 ], [ 9.967881, 54.995865 ], [ 10.032854, 54.934121 ], [ 10.051929, 54.893625 ], [ 10.000635, 54.871528 ], [ 9.931916, 54.887256 ], [ 9.971305, 54.862674 ], [ 9.964235, 54.854589 ], [ 9.878843, 54.873077 ], [ 9.878453, 54.898322 ], [ 9.744281, 54.900586 ], [ 9.726883, 54.886802 ], [ 9.742041, 54.853303 ], [ 9.721264, 54.845111 ], [ 9.650648, 54.869157 ], [ 9.633243, 54.893461 ], [ 9.635249, 54.915904 ], [ 9.627384, 54.920141 ], [ 9.554949, 54.8818 ], [ 9.420152, 54.831956 ], [ 9.407875, 54.840709 ], [ 9.383699, 54.837676 ], [ 9.340035, 54.80249 ], [ 9.254556, 54.810862 ], [ 9.239261, 54.827391 ], [ 9.236713, 54.850099 ], [ 9.113097, 54.873601 ], [ 9.049887, 54.873236 ], [ 8.944252, 54.901587 ], [ 8.812118, 54.903985 ], [ 8.731498, 54.893746 ], [ 8.682189, 54.909174 ], [ 8.635926, 54.911683 ], [ 8.657659, 54.973938 ], [ 8.636765, 55.052724 ], [ 8.678505, 55.138172 ], [ 8.664854, 55.151399 ], [ 8.679709, 55.167826 ], [ 8.64946, 55.274322 ], [ 8.665815, 55.340467 ], [ 8.61723, 55.428063 ], [ 8.546432, 55.455101 ], [ 8.447709, 55.458092 ], [ 8.303978, 55.557261 ], [ 8.298406, 55.569067 ], [ 8.313034, 55.582692 ], [ 8.292948, 55.59311 ], [ 8.262466, 55.589962 ], [ 8.23849, 55.559914 ], [ 8.263707, 55.534095 ], [ 8.26029, 55.523043 ], [ 8.302477, 55.495809 ], [ 8.300665, 55.478341 ], [ 8.077004, 55.557311 ], [ 8.076003, 55.564718 ], [ 8.130396, 55.653038 ], [ 8.175465, 55.754512 ], [ 8.170786, 55.815377 ], [ 8.195808, 55.83232 ], [ 8.271381, 55.799492 ], [ 8.322372, 55.80082 ], [ 8.352003, 55.819546 ], [ 8.461955, 55.774894 ], [ 8.506783, 55.784043 ], [ 8.514269, 55.807916 ], [ 8.543035, 55.821987 ], [ 8.536203, 55.840666 ], [ 8.557657, 55.847307 ], [ 8.594116, 55.836876 ], [ 8.676649, 55.846795 ], [ 8.704113, 55.836869 ], [ 8.728578, 55.81265 ], [ 8.759672, 55.806701 ], [ 8.813529, 55.819516 ], [ 8.803502, 55.837904 ], [ 8.823862, 55.852342 ], [ 8.839166, 55.878532 ], [ 8.870019, 55.894385 ], [ 8.958525, 55.886817 ], [ 8.966012, 55.875792 ], [ 8.963026, 55.843574 ], [ 9.009742, 55.83297 ], [ 9.070513, 55.847312 ], [ 9.095606, 55.874459 ], [ 9.118126, 55.871439 ], [ 9.149449, 55.885079 ], [ 9.191146, 55.916357 ], [ 9.223081, 55.953683 ], [ 9.254677, 55.952622 ], [ 9.292036, 55.936806 ], [ 9.354173, 55.936331 ], [ 9.387012, 55.924148 ], [ 9.451, 55.867246 ], [ 9.44592, 55.852342 ], [ 9.450873, 55.835977 ], [ 9.500738, 55.825496 ], [ 9.522923, 55.788291 ], [ 9.544398, 55.775937 ], [ 9.591489, 55.775551 ], [ 9.588136, 55.761354 ], [ 9.597262, 55.753266 ], [ 9.655051, 55.757734 ], [ 9.676331, 55.750549 ], [ 9.682882, 55.736034 ], [ 9.672057, 55.712057 ] ] ], [ [ [ 9.763513, 55.250704 ], [ 9.74161, 55.246536 ], [ 9.723389, 55.258006 ], [ 9.729738, 55.261664 ], [ 9.724633, 55.269938 ], [ 9.757407, 55.273982 ], [ 9.760929, 55.266198 ], [ 9.772448, 55.265644 ], [ 9.763513, 55.250704 ] ] ], [ [ [ 9.571829, 55.113088 ], [ 9.553025, 55.111636 ], [ 9.544449, 55.123335 ], [ 9.562475, 55.129192 ], [ 9.571829, 55.113088 ] ] ], [ [ [ 8.543437, 55.069375 ], [ 8.521356, 55.0616 ], [ 8.495188, 55.065445 ], [ 8.479046, 55.077298 ], [ 8.464285, 55.107436 ], [ 8.481227, 55.185691 ], [ 8.516661, 55.211262 ], [ 8.591946, 55.191467 ], [ 8.572581, 55.169497 ], [ 8.567047, 55.149576 ], [ 8.551687, 55.141011 ], [ 8.559263, 55.120449 ], [ 8.55305, 55.102019 ], [ 8.569823, 55.08536 ], [ 8.542832, 55.075613 ], [ 8.543437, 55.069375 ] ] ], [ [ [ 8.569496, 55.267033 ], [ 8.540695, 55.26548 ], [ 8.531017, 55.280653 ], [ 8.545341, 55.292895 ], [ 8.590534, 55.294275 ], [ 8.569496, 55.267033 ] ] ], [ [ [ 8.504592, 55.346267 ], [ 8.465343, 55.340352 ], [ 8.428763, 55.353345 ], [ 8.375831, 55.414451 ], [ 8.338367, 55.44173 ], [ 8.336644, 55.457836 ], [ 8.397575, 55.466213 ], [ 8.415463, 55.433128 ], [ 8.452421, 55.427259 ], [ 8.460938, 55.410799 ], [ 8.454643, 55.38958 ], [ 8.468285, 55.369255 ], [ 8.504592, 55.346267 ] ] ], [ [ [ 8.328307, 55.508554 ], [ 8.314673, 55.50638 ], [ 8.300987, 55.517311 ], [ 8.312872, 55.521991 ], [ 8.328307, 55.508554 ] ] ] ] } },
{ "type": "Feature", "properties": { "loc": "DK041" }, "geometry": { "type": "MultiPolygon", "coordinates": [ [ [ [ 8.183599, 55.820198 ], [ 8.170786, 55.815377 ], [ 8.138392, 55.945115 ], [ 8.100415, 56.042973 ], [ 8.128922, 56.229001 ], [ 8.116359, 56.38112 ], [ 8.117309, 56.524785 ], [ 8.13101, 56.576777 ], [ 8.166459, 56.653352 ], [ 8.211067, 56.701473 ], [ 8.223612, 56.682268 ], [ 8.194708, 56.637781 ], [ 8.244986, 56.605115 ], [ 8.290535, 56.593094 ], [ 8.301847, 56.561947 ], [ 8.329359, 56.574425 ], [ 8.381241, 56.576881 ], [ 8.51373, 56.545838 ], [ 8.562928, 56.562375 ], [ 8.59474, 56.525689 ], [ 8.596286, 56.4991 ], [ 8.630104, 56.476234 ], [ 8.665035, 56.469923 ], [ 8.733409, 56.487414 ], [ 8.740735, 56.531045 ], [ 8.752963, 56.551362 ], [ 8.704191, 56.58727 ], [ 8.684693, 56.617181 ], [ 8.735852, 56.631249 ], [ 8.815285, 56.689258 ], [ 8.895496, 56.699922 ], [ 8.887992, 56.709883 ], [ 8.84267, 56.720344 ], [ 8.874166, 56.762249 ], [ 8.950103, 56.79421 ], [ 9.021124, 56.789482 ], [ 9.060783, 56.798702 ], [ 9.09519, 56.789617 ], [ 9.163164, 56.714267 ], [ 9.106961, 56.668133 ], [ 9.092842, 56.644241 ], [ 9.056366, 56.620023 ], [ 9.049419, 56.589554 ], [ 9.06414, 56.563304 ], [ 9.088814, 56.571747 ], [ 9.105791, 56.60132 ], [ 9.136999, 56.610004 ], [ 9.128828, 56.625945 ], [ 9.149282, 56.644256 ], [ 9.173946, 56.626569 ], [ 9.254468, 56.626659 ], [ 9.299886, 56.615002 ], [ 9.318352, 56.643387 ], [ 9.319507, 56.671649 ], [ 9.38267, 56.66338 ], [ 9.440638, 56.641777 ], [ 9.476791, 56.671305 ], [ 9.510293, 56.679792 ], [ 9.581542, 56.633171 ], [ 9.667314, 56.624659 ], [ 9.667688, 56.614707 ], [ 9.646907, 56.6011 ], [ 9.64679, 56.584032 ], [ 9.698697, 56.587405 ], [ 9.753288, 56.558119 ], [ 9.795824, 56.56161 ], [ 9.7845, 56.542229 ], [ 9.781048, 56.456993 ], [ 9.737802, 56.399948 ], [ 9.701231, 56.374014 ], [ 9.713995, 56.331245 ], [ 9.614793, 56.310177 ], [ 9.580403, 56.317766 ], [ 9.498192, 56.31383 ], [ 9.470058, 56.333072 ], [ 9.472634, 56.353639 ], [ 9.440585, 56.36557 ], [ 9.405691, 56.352962 ], [ 9.375133, 56.356153 ], [ 9.362971, 56.344835 ], [ 9.314412, 56.334811 ], [ 9.229705, 56.264918 ], [ 9.224957, 56.239758 ], [ 9.236526, 56.225191 ], [ 9.275935, 56.208357 ], [ 9.330199, 56.201666 ], [ 9.383781, 56.172934 ], [ 9.392903, 56.150187 ], [ 9.408367, 56.137457 ], [ 9.404781, 56.093755 ], [ 9.328104, 56.097158 ], [ 9.318867, 56.089692 ], [ 9.315507, 56.075 ], [ 9.34428, 56.052896 ], [ 9.35047, 56.030681 ], [ 9.420475, 56.023793 ], [ 9.495655, 55.974068 ], [ 9.539396, 55.911529 ], [ 9.503886, 55.904367 ], [ 9.387012, 55.924148 ], [ 9.354173, 55.936331 ], [ 9.292036, 55.936806 ], [ 9.254677, 55.952622 ], [ 9.223081, 55.953683 ], [ 9.191146, 55.916357 ], [ 9.149449, 55.885079 ], [ 9.118126, 55.871439 ], [ 9.095606, 55.874459 ], [ 9.070513, 55.847312 ], [ 9.009742, 55.83297 ], [ 8.963026, 55.843574 ], [ 8.966012, 55.875792 ], [ 8.958525, 55.886817 ], [ 8.870019, 55.894385 ], [ 8.839166, 55.878532 ], [ 8.823862, 55.852342 ], [ 8.803502, 55.837904 ], [ 8.813529, 55.819516 ], [ 8.759672, 55.806701 ], [ 8.728578, 55.81265 ], [ 8.704113, 55.836869 ], [ 8.676649, 55.846795 ], [ 8.594116, 55.836876 ], [ 8.557657, 55.847307 ], [ 8.536203, 55.840666 ], [ 8.543035, 55.821987 ], [ 8.514269, 55.807916 ], [ 8.506783, 55.784043 ], [ 8.461955, 55.774894 ], [ 8.352003, 55.819546 ], [ 8.322372, 55.80082 ], [ 8.271381, 55.799492 ], [ 8.195808, 55.83232 ], [ 8.177166, 55.832662 ], [ 8.183599, 55.820198 ] ] ], [ [ [ 9.073251, 56.823845 ], [ 9.033389, 56.819895 ], [ 9.008613, 56.796817 ], [ 8.950958, 56.834199 ], [ 9.026487, 56.846922 ], [ 9.062473, 56.84401 ], [ 9.059699, 56.835283 ], [ 9.073251, 56.823845 ] ] ], [ [ [ 8.636199, 56.524097 ], [ 8.628805, 56.521458 ], [ 8.612632, 56.55381 ], [ 8.63736, 56.578523 ], [ 8.650278, 56.567419 ], [ 8.633097, 56.552048 ], [ 8.636199, 56.524097 ] ] ], [ [ [ 8.630385, 56.646861 ], [ 8.631754, 56.625883 ], [ 8.599237, 56.638669 ], [ 8.598396, 56.649057 ], [ 8.588625, 56.65373 ], [ 8.592618, 56.661378 ], [ 8.640772, 56.659658 ], [ 8.630385, 56.646861 ] ] ], [ [ [ 8.405272, 56.675926 ], [ 8.426269, 56.672861 ], [ 8.468761, 56.683256 ], [ 8.504942, 56.667654 ], [ 8.545634, 56.684312 ], [ 8.5821, 56.687952 ], [ 8.586405, 56.680437 ], [ 8.576401, 56.655035 ], [ 8.593042, 56.634296 ], [ 8.591026, 56.610808 ], [ 8.54279, 56.595742 ], [ 8.531631, 56.583182 ], [ 8.483458, 56.631836 ], [ 8.405272, 56.675926 ] ] ] ] } },
{ "type": "Feature", "properties": { "loc": "DK042" }, "geometry": { "type": "MultiPolygon", "coordinates": [ [ [ [ 11.645571, 56.730699 ], [ 11.580739, 56.690775 ], [ 11.545676, 56.686685 ], [ 11.511327, 56.715709 ], [ 11.52642, 56.726936 ], [ 11.585945, 56.726363 ], [ 11.64401, 56.735818 ], [ 11.645571, 56.730699 ] ] ], [ [ [ 10.194362, 56.684663 ], [ 10.320418, 56.698372 ], [ 10.342104, 56.691261 ], [ 10.352039, 56.677766 ], [ 10.339733, 56.630703 ], [ 10.241229, 56.566558 ], [ 10.234751, 56.532123 ], [ 10.320981, 56.594337 ], [ 10.38761, 56.548068 ], [ 10.465724, 56.521816 ], [ 10.546223, 56.514996 ], [ 10.818216, 56.530566 ], [ 10.851439, 56.517816 ], [ 10.948286, 56.441988 ], [ 10.929482, 56.41366 ], [ 10.904182, 56.34126 ], [ 10.806396, 56.25688 ], [ 10.751969, 56.22452 ], [ 10.731271, 56.173589 ], [ 10.706368, 56.149906 ], [ 10.68201, 56.151434 ], [ 10.652128, 56.173052 ], [ 10.662835, 56.201743 ], [ 10.657969, 56.21295 ], [ 10.601211, 56.217011 ], [ 10.547403, 56.173371 ], [ 10.546985, 56.114181 ], [ 10.52579, 56.103837 ], [ 10.496899, 56.12916 ], [ 10.510399, 56.154221 ], [ 10.505362, 56.168391 ], [ 10.454821, 56.17704 ], [ 10.400228, 56.169004 ], [ 10.366274, 56.188835 ], [ 10.411297, 56.21182 ], [ 10.460967, 56.210144 ], [ 10.470103, 56.237998 ], [ 10.491821, 56.263615 ], [ 10.433213, 56.289723 ], [ 10.386007, 56.282303 ], [ 10.327187, 56.232839 ], [ 10.249047, 56.185228 ], [ 10.235422, 56.164919 ], [ 10.244381, 56.150083 ], [ 10.222884, 56.129111 ], [ 10.269644, 56.025656 ], [ 10.259962, 55.947467 ], [ 10.250609, 55.920841 ], [ 10.20812, 55.885557 ], [ 10.188563, 55.848824 ], [ 10.062587, 55.881263 ], [ 10.004371, 55.876717 ], [ 10.00343, 55.865939 ], [ 9.983342, 55.873465 ], [ 9.88972, 55.854113 ], [ 9.901189, 55.842991 ], [ 10.011489, 55.828494 ], [ 10.048437, 55.812703 ], [ 10.048227, 55.799233 ], [ 10.027135, 55.77 ], [ 10.049121, 55.746869 ], [ 10.015063, 55.727437 ], [ 10.012443, 55.701641 ], [ 9.816655, 55.672359 ], [ 9.747558, 55.68328 ], [ 9.672057, 55.712057 ], [ 9.682882, 55.736034 ], [ 9.676331, 55.750549 ], [ 9.655051, 55.757734 ], [ 9.597262, 55.753266 ], [ 9.588136, 55.761354 ], [ 9.591489, 55.775551 ], [ 9.544398, 55.775937 ], [ 9.522923, 55.788291 ], [ 9.500738, 55.825496 ], [ 9.450873, 55.835977 ], [ 9.44592, 55.852342 ], [ 9.451, 55.867246 ], [ 9.387012, 55.924148 ], [ 9.503886, 55.904367 ], [ 9.539396, 55.911529 ], [ 9.495655, 55.974068 ], [ 9.420475, 56.023793 ], [ 9.35047, 56.030681 ], [ 9.34428, 56.052896 ], [ 9.315507, 56.075 ], [ 9.318867, 56.089692 ], [ 9.328104, 56.097158 ], [ 9.404781, 56.093755 ], [ 9.408367, 56.137457 ], [ 9.392903, 56.150187 ], [ 9.383781, 56.172934 ], [ 9.330199, 56.201666 ], [ 9.275935, 56.208357 ], [ 9.236526, 56.225191 ], [ 9.224957, 56.239758 ], [ 9.229705, 56.264918 ], [ 9.314412, 56.334811 ], [ 9.362971, 56.344835 ], [ 9.375133, 56.356153 ], [ 9.405691, 56.352962 ], [ 9.440585, 56.36557 ], [ 9.472634, 56.353639 ], [ 9.470058, 56.333072 ], [ 9.498192, 56.31383 ], [ 9.580403, 56.317766 ], [ 9.614793, 56.310177 ], [ 9.713995, 56.331245 ], [ 9.701231, 56.374014 ], [ 9.737802, 56.399948 ], [ 9.781048, 56.456993 ], [ 9.7845, 56.542229 ], [ 9.795824, 56.56161 ], [ 9.833014, 56.551958 ], [ 9.871447, 56.556092 ], [ 9.886478, 56.571539 ], [ 9.943728, 56.580546 ], [ 9.962153, 56.594401 ], [ 10.053062, 56.60473 ], [ 10.11321, 56.62648 ], [ 10.125064, 56.644568 ], [ 10.15278, 56.651133 ], [ 10.164397, 56.667467 ], [ 10.194362, 56.684663 ] ] ], [ [ [ 10.815997, 56.134675 ], [ 10.797332, 56.12703 ], [ 10.80461, 56.140833 ], [ 10.815997, 56.134675 ] ] ], [ [ [ 10.768447, 55.939952 ], [ 10.758987, 55.937551 ], [ 10.748873, 55.94514 ], [ 10.767198, 55.949973 ], [ 10.768447, 55.939952 ] ] ], [ [ [ 10.64147, 55.796506 ], [ 10.616579, 55.766445 ], [ 10.552753, 55.769848 ], [ 10.53125, 55.789527 ], [ 10.530811, 55.850276 ], [ 10.583451, 55.870566 ], [ 10.599219, 55.905119 ], [ 10.580691, 55.928789 ], [ 10.528577, 55.945115 ], [ 10.522391, 55.977436 ], [ 10.559008, 55.999481 ], [ 10.583523, 55.945115 ], [ 10.637969, 55.919466 ], [ 10.618646, 55.902768 ], [ 10.634491, 55.88027 ], [ 10.675393, 55.878587 ], [ 10.645318, 55.842057 ], [ 10.64147, 55.796506 ] ] ], [ [ [ 10.653605, 55.888151 ], [ 10.637467, 55.885249 ], [ 10.632299, 55.893614 ], [ 10.644358, 55.900526 ], [ 10.653605, 55.888151 ] ] ], [ [ [ 10.445124, 55.945115 ], [ 10.412438, 55.95177 ], [ 10.405265, 55.958041 ], [ 10.453838, 55.954087 ], [ 10.445124, 55.945115 ] ] ], [ [ [ 10.32991, 55.764915 ], [ 10.320726, 55.744221 ], [ 10.307759, 55.740716 ], [ 10.233688, 55.753554 ], [ 10.246627, 55.760622 ], [ 10.2972, 55.763033 ], [ 10.31235, 55.790501 ], [ 10.32991, 55.764915 ] ] ], [ [ [ 10.103546, 55.824889 ], [ 10.069063, 55.817841 ], [ 10.057055, 55.83047 ], [ 10.077402, 55.834857 ], [ 10.103546, 55.824889 ] ] ], [ [ [ 10.077767, 55.84919 ], [ 10.037437, 55.844364 ], [ 10.036649, 55.849052 ], [ 10.059874, 55.869058 ], [ 10.102291, 55.865668 ], [ 10.077767, 55.84919 ] ] ] ] } },
{ "type": "Feature", "properties": { "loc": "DK050" }, "geometry": { "type": "MultiPolygon", "coordinates": [ [ [ [ 11.197918, 57.314603 ], [ 11.193658, 57.299208 ], [ 11.18078, 57.303995 ], [ 11.083307, 57.288783 ], [ 11.078338, 57.282803 ], [ 11.09169, 57.27271 ], [ 11.08331, 57.255038 ], [ 11.051186, 57.233271 ], [ 11.001386, 57.218515 ], [ 10.986419, 57.218139 ], [ 10.876256, 57.260348 ], [ 10.929757, 57.297142 ], [ 11.005002, 57.306362 ], [ 11.033988, 57.318592 ], [ 11.149797, 57.326699 ], [ 11.190637, 57.32315 ], [ 11.197918, 57.314603 ] ] ], [ [ [ 11.027934, 57.202743 ], [ 11.001299, 57.20158 ], [ 10.989076, 57.206156 ], [ 11.039372, 57.210811 ], [ 11.027934, 57.202743 ] ] ], [ [ [ 8.404351, 56.671649 ], [ 8.350786, 56.688928 ], [ 8.297675, 56.751844 ], [ 8.275405, 56.765913 ], [ 8.25725, 56.760402 ], [ 8.247502, 56.721839 ], [ 8.235634, 56.719711 ], [ 8.227784, 56.756549 ], [ 8.245894, 56.810858 ], [ 8.364877, 56.956608 ], [ 8.587752, 57.114093 ], [ 8.638774, 57.121788 ], [ 8.770374, 57.10466 ], [ 8.866201, 57.119473 ], [ 8.988709, 57.154378 ], [ 9.160503, 57.141198 ], [ 9.411741, 57.172161 ], [ 9.567002, 57.250772 ], [ 9.67756, 57.345345 ], [ 9.794673, 57.471876 ], [ 9.946297, 57.580703 ], [ 10.103445, 57.591658 ], [ 10.240243, 57.612033 ], [ 10.330918, 57.640952 ], [ 10.531566, 57.729054 ], [ 10.583844, 57.733742 ], [ 10.459696, 57.630415 ], [ 10.436095, 57.589236 ], [ 10.436535, 57.568036 ], [ 10.450059, 57.540986 ], [ 10.537039, 57.449315 ], [ 10.523572, 57.374273 ], [ 10.538159, 57.257375 ], [ 10.432037, 57.151723 ], [ 10.352506, 57.023653 ], [ 10.319792, 57.007169 ], [ 10.219894, 56.998295 ], [ 10.033814, 57.069892 ], [ 10.178222, 56.996935 ], [ 10.283043, 56.967202 ], [ 10.271377, 56.860005 ], [ 10.284113, 56.796674 ], [ 10.312466, 56.727511 ], [ 10.188689, 56.706538 ], [ 10.194362, 56.684663 ], [ 10.164397, 56.667467 ], [ 10.15278, 56.651133 ], [ 10.125064, 56.644568 ], [ 10.11321, 56.62648 ], [ 10.053062, 56.60473 ], [ 9.962153, 56.594401 ], [ 9.943728, 56.580546 ], [ 9.886478, 56.571539 ], [ 9.871447, 56.556092 ], [ 9.833014, 56.551958 ], [ 9.795824, 56.56161 ], [ 9.753288, 56.558119 ], [ 9.698697, 56.587405 ], [ 9.64679, 56.584032 ], [ 9.646907, 56.6011 ], [ 9.667688, 56.614707 ], [ 9.667314, 56.624659 ], [ 9.581542, 56.633171 ], [ 9.510293, 56.679792 ], [ 9.476791, 56.671305 ], [ 9.440638, 56.641777 ], [ 9.38267, 56.66338 ], [ 9.319507, 56.671649 ], [ 9.282496, 56.692164 ], [ 9.197313, 56.672274 ], [ 9.175116, 56.678114 ], [ 9.221295, 56.720354 ], [ 9.234521, 56.744536 ], [ 9.226561, 56.758653 ], [ 9.183939, 56.785081 ], [ 9.179376, 56.810283 ], [ 9.203672, 56.854535 ], [ 9.176163, 56.8848 ], [ 9.173483, 56.89915 ], [ 9.193062, 56.926297 ], [ 9.26561, 56.985542 ], [ 9.127457, 57.033488 ], [ 9.054739, 57.014514 ], [ 9.008575, 57.018157 ], [ 8.961031, 57.008974 ], [ 8.904731, 56.982398 ], [ 8.84556, 56.98957 ], [ 8.828064, 56.970303 ], [ 8.774072, 56.950954 ], [ 8.672686, 56.945767 ], [ 8.635704, 56.898399 ], [ 8.626494, 56.864377 ], [ 8.612152, 56.846536 ], [ 8.576289, 56.822917 ], [ 8.531149, 56.812348 ], [ 8.480533, 56.784706 ], [ 8.491708, 56.753949 ], [ 8.48327, 56.72333 ], [ 8.510254, 56.708676 ], [ 8.512831, 56.692898 ], [ 8.452862, 56.694079 ], [ 8.404351, 56.671649 ] ] ], [ [ [ 9.103108, 56.889164 ], [ 9.09681, 56.879781 ], [ 9.067151, 56.893583 ], [ 9.088404, 56.906179 ], [ 9.103108, 56.889164 ] ] ], [ [ [ 8.929633, 56.980622 ], [ 8.92655, 56.961843 ], [ 8.915103, 56.962911 ], [ 8.919073, 56.977721 ], [ 8.929633, 56.980622 ] ] ], [ [ [ 8.831311, 56.744359 ], [ 8.774089, 56.700155 ], [ 8.650778, 56.672648 ], [ 8.594803, 56.723274 ], [ 8.569204, 56.707288 ], [ 8.557063, 56.730987 ], [ 8.516457, 56.736415 ], [ 8.547567, 56.759828 ], [ 8.555603, 56.787123 ], [ 8.620802, 56.794217 ], [ 8.655003, 56.806615 ], [ 8.653406, 56.814721 ], [ 8.628394, 56.826144 ], [ 8.643094, 56.842125 ], [ 8.65185, 56.884756 ], [ 8.807692, 56.904241 ], [ 8.858615, 56.949977 ], [ 8.906154, 56.94987 ], [ 8.917004, 56.919379 ], [ 8.897019, 56.884303 ], [ 8.852409, 56.883878 ], [ 8.834168, 56.867096 ], [ 8.84588, 56.831047 ], [ 8.873081, 56.798382 ], [ 8.843014, 56.771067 ], [ 8.831311, 56.744359 ] ] ], [ [ [ 8.549914, 56.701065 ], [ 8.538887, 56.692289 ], [ 8.525948, 56.700455 ], [ 8.546714, 56.70764 ], [ 8.549914, 56.701065 ] ] ] ] } }
]
}
