{
"type": "FeatureCollection",
"name": "border_HR",
"crs": { "type": "name", "properties": { "name": "urn:ogc:def:crs:OGC:1.3:CRS84" } },
"features": [
{ "type": "Feature", "properties": { }, "geometry": { "type": "Polygon", "coordinates": [ [ [ 16.564808383864857, 46.50375092221983 ], [ 17.630066359129557, 45.951769110694187 ], [ 18.456062452882861, 45.75948110613615 ], [ 18.829824792873946, 45.908872358025285 ], [ 19.072768995854176, 45.521511135432092 ], [ 19.390475701584592, 45.236515611342384 ], [ 19.005484597557594, 44.86023449354299 ], [ 18.553214145591653, 45.081589667331457 ], [ 17.861783481526402, 45.067740383477144 ], [ 17.002146030351014, 45.233776760430942 ], [ 16.534939406000206, 45.211607570977719 ], [ 16.318156772535872, 45.004126695325908 ], [ 15.959367303133376, 45.233776760430942 ], [ 15.750026075918981, 44.818711656262565 ], [ 16.456442905348865, 44.041239732431279 ], [ 17.297373488034452, 43.446340643887368 ], [ 17.674921502358984, 43.02856252702361 ], [ 18.56, 42.65 ], [ 18.450016310304818, 42.479991360029317 ], [ 17.509970330483327, 42.849994615239154 ], [ 16.930005730871642, 43.20999848080038 ], [ 16.015384555737683, 43.507215481127218 ], [ 15.174453973052096, 44.243191229827914 ], [ 15.376250441151797, 44.317915350922078 ], [ 14.920309279040509, 44.738483995129457 ], [ 14.901602410550879, 45.076060289076111 ], [ 14.258747592839995, 45.233776760430942 ], [ 13.952254672917036, 44.802123521496867 ], [ 13.656975538801191, 45.136935126315961 ], [ 13.715059848697223, 45.500323798192376 ], [ 14.411968214585414, 45.46616567644746 ], [ 14.595109490627806, 45.634940904312714 ], [ 14.935243767972935, 45.471695054702685 ], [ 15.327674594797429, 45.452316392593332 ], [ 15.323953891672405, 45.73178253842768 ], [ 15.671529575267556, 45.834153550797879 ], [ 15.768732944408553, 46.238108222023449 ], [ 16.564808383864857, 46.50375092221983 ] ] ] } }
]
}
