{
"type": "FeatureCollection",
"name": "regions_HR",
"crs": { "type": "name", "properties": { "name": "urn:ogc:def:crs:OGC:1.3:CRS84" } },
"features": [
{ "type": "Feature", "properties": { "loc": "HR03" }, "geometry": { "type": "MultiPolygon", "coordinates": [ [ [ [ 18.438104, 42.555705 ], [ 18.436933, 42.520657 ], [ 18.446091, 42.510206 ], [ 18.434995, 42.484034 ], [ 18.473714, 42.464454 ], [ 18.525213, 42.420463 ], [ 18.502064, 42.41254 ], [ 18.460009, 42.442478 ], [ 18.283768, 42.528491 ], [ 18.226624, 42.571377 ], [ 18.222953, 42.59561 ], [ 18.2064, 42.615442 ], [ 18.109012, 42.632819 ], [ 18.076914, 42.651491 ], [ 18.06971, 42.674907 ], [ 17.982425, 42.707493 ], [ 17.884315, 42.763454 ], [ 17.877134, 42.779091 ], [ 17.838884, 42.800772 ], [ 17.80548, 42.804118 ], [ 17.779917, 42.794032 ], [ 17.755846, 42.800777 ], [ 17.748168, 42.781602 ], [ 17.723429, 42.796853 ], [ 17.462982, 42.865732 ], [ 17.425333, 42.904829 ], [ 17.35857, 42.91712 ], [ 17.218411, 42.977402 ], [ 17.141617, 42.975556 ], [ 17.061935, 42.988372 ], [ 17.028547, 43.004188 ], [ 17.021932, 43.034321 ], [ 17.080056, 43.022168 ], [ 17.166167, 43.023409 ], [ 17.272827, 43.00818 ], [ 17.427517, 42.955552 ], [ 17.477988, 42.916497 ], [ 17.514871, 42.909814 ], [ 17.543649, 42.915023 ], [ 17.646323, 42.879829 ], [ 17.689312, 42.92182 ], [ 17.754388, 42.910631 ], [ 17.786887, 42.894053 ], [ 17.809675, 42.913841 ], [ 17.833956, 42.906508 ], [ 17.853921, 42.889805 ], [ 17.873113, 42.845231 ], [ 17.895522, 42.831906 ], [ 17.892518, 42.81261 ], [ 17.948355, 42.798585 ], [ 17.991629, 42.775846 ], [ 18.00893, 42.75566 ], [ 18.04481, 42.745712 ], [ 18.098896, 42.714739 ], [ 18.106997, 42.688905 ], [ 18.140744, 42.677883 ], [ 18.157428, 42.656748 ], [ 18.188004, 42.655503 ], [ 18.248385, 42.605107 ], [ 18.287619, 42.61627 ], [ 18.362118, 42.615981 ], [ 18.438104, 42.555705 ] ] ], [ [ [ 18.025647, 42.665125 ], [ 18.018644, 42.659301 ], [ 18.000306, 42.675785 ], [ 18.012315, 42.682781 ], [ 18.025647, 42.665125 ] ] ], [ [ [ 17.951765, 42.67449 ], [ 17.93899, 42.674313 ], [ 17.933683, 42.682828 ], [ 17.943577, 42.698693 ], [ 17.960817, 42.687932 ], [ 17.951765, 42.67449 ] ] ], [ [ [ 17.919222, 42.715922 ], [ 17.90311, 42.700818 ], [ 17.863683, 42.7206 ], [ 17.836902, 42.752247 ], [ 17.853526, 42.754459 ], [ 17.903301, 42.728982 ], [ 17.919222, 42.715922 ] ] ], [ [ [ 17.843027, 42.737653 ], [ 17.833836, 42.726875 ], [ 17.822906, 42.734927 ], [ 17.828826, 42.744245 ], [ 17.843027, 42.737653 ] ] ], [ [ [ 17.815489, 42.740196 ], [ 17.801942, 42.739107 ], [ 17.791686, 42.750183 ], [ 17.809205, 42.751316 ], [ 17.815489, 42.740196 ] ] ], [ [ [ 17.787865, 42.758466 ], [ 17.779633, 42.753699 ], [ 17.763767, 42.763995 ], [ 17.776672, 42.769448 ], [ 17.787865, 42.758466 ] ] ], [ [ [ 17.437243, 42.785185 ], [ 17.600953, 42.748146 ], [ 17.60309, 42.738163 ], [ 17.686392, 42.728112 ], [ 17.743519, 42.708664 ], [ 17.752599, 42.691847 ], [ 17.740076, 42.689909 ], [ 17.737651, 42.698473 ], [ 17.707197, 42.694273 ], [ 17.643132, 42.716915 ], [ 17.507204, 42.734707 ], [ 17.404904, 42.762406 ], [ 17.380936, 42.758916 ], [ 17.330183, 42.777472 ], [ 17.36714, 42.801093 ], [ 17.391012, 42.799028 ], [ 17.384928, 42.786931 ], [ 17.437243, 42.785185 ] ] ], [ [ [ 15.226438, 45.427088 ], [ 15.222755, 45.39244 ], [ 15.183742, 45.344591 ], [ 15.169585, 45.31272 ], [ 15.126544, 45.302199 ], [ 15.102835, 45.283645 ], [ 15.038881, 45.303043 ], [ 15.01984, 45.31957 ], [ 14.989779, 45.308965 ], [ 14.98374, 45.284252 ], [ 14.966792, 45.272419 ], [ 14.985832, 45.247291 ], [ 14.979296, 45.228547 ], [ 14.988099, 45.205446 ], [ 14.976754, 45.174295 ], [ 14.980864, 45.149725 ], [ 15.01663, 45.123035 ], [ 15.110694, 45.090558 ], [ 15.138608, 45.088469 ], [ 15.191589, 45.109284 ], [ 15.239693, 45.076664 ], [ 15.299295, 45.050656 ], [ 15.329894, 45.023415 ], [ 15.374873, 45.010197 ], [ 15.443328, 44.934913 ], [ 15.466984, 44.927971 ], [ 15.513957, 44.930625 ], [ 15.524104, 44.910927 ], [ 15.559323, 44.885201 ], [ 15.570434, 44.891946 ], [ 15.530804, 44.921303 ], [ 15.536474, 44.937863 ], [ 15.582093, 44.927303 ], [ 15.600298, 44.93086 ], [ 15.603251, 44.939089 ], [ 15.623806, 44.933535 ], [ 15.659091, 44.946067 ], [ 15.708656, 44.921347 ], [ 15.736722, 44.935631 ], [ 15.761377, 44.87374 ], [ 15.785004, 44.847717 ], [ 15.736445, 44.818717 ], [ 15.780596, 44.754703 ], [ 15.832774, 44.719168 ], [ 15.899386, 44.741993 ], [ 15.928375, 44.714804 ], [ 15.955245, 44.703365 ], [ 15.977318, 44.67181 ], [ 16.029566, 44.651511 ], [ 16.055404, 44.614605 ], [ 16.04434, 44.59357 ], [ 16.021568, 44.584224 ], [ 16.021362, 44.564981 ], [ 16.053689, 44.540911 ], [ 16.116575, 44.518388 ], [ 16.138304, 44.477872 ], [ 16.132175, 44.454534 ], [ 16.14399, 44.425229 ], [ 16.168171, 44.404291 ], [ 16.132118, 44.392743 ], [ 16.131254, 44.37958 ], [ 16.158385, 44.377179 ], [ 16.215673, 44.347762 ], [ 16.189008, 44.300242 ], [ 16.193244, 44.268532 ], [ 16.21765, 44.227582 ], [ 16.172449, 44.209218 ], [ 16.203254, 44.214783 ], [ 16.228215, 44.206236 ], [ 16.296506, 44.153806 ], [ 16.319182, 44.118143 ], [ 16.375626, 44.083945 ], [ 16.426056, 44.078775 ], [ 16.441466, 44.031443 ], [ 16.4995, 44.022615 ], [ 16.553364, 43.954844 ], [ 16.591178, 43.939757 ], [ 16.627822, 43.901227 ], [ 16.708167, 43.854604 ], [ 16.721535, 43.804853 ], [ 16.744381, 43.777742 ], [ 16.807787, 43.757602 ], [ 16.82681, 43.732398 ], [ 16.868518, 43.708555 ], [ 17.014031, 43.573016 ], [ 17.066123, 43.550656 ], [ 17.155746, 43.494653 ], [ 17.221896, 43.497649 ], [ 17.276549, 43.471818 ], [ 17.284496, 43.458866 ], [ 17.28295, 43.436031 ], [ 17.25482, 43.402396 ], [ 17.272035, 43.362253 ], [ 17.338832, 43.258259 ], [ 17.416786, 43.232723 ], [ 17.430001, 43.210423 ], [ 17.430466, 43.183799 ], [ 17.641756, 43.086942 ], [ 17.707402, 42.973496 ], [ 17.581335, 42.938423 ], [ 17.517771, 42.952507 ], [ 17.477202, 42.988969 ], [ 17.477466, 43.001024 ], [ 17.461301, 43.018457 ], [ 17.42911, 43.028063 ], [ 17.42225, 43.040492 ], [ 17.407489, 43.043486 ], [ 17.30823, 43.124396 ], [ 17.123565, 43.203899 ], [ 16.95367, 43.350642 ], [ 16.894422, 43.391039 ], [ 16.73502, 43.415864 ], [ 16.691793, 43.436699 ], [ 16.640344, 43.442994 ], [ 16.526297, 43.499334 ], [ 16.416725, 43.508183 ], [ 16.417386, 43.517392 ], [ 16.436881, 43.530159 ], [ 16.431185, 43.536947 ], [ 16.353587, 43.547523 ], [ 16.30039, 43.524893 ], [ 16.354957, 43.491577 ], [ 16.349631, 43.485523 ], [ 16.243988, 43.484895 ], [ 16.234785, 43.492279 ], [ 16.247274, 43.503028 ], [ 16.23687, 43.511827 ], [ 16.154705, 43.514623 ], [ 16.144943, 43.50861 ], [ 16.154992, 43.489747 ], [ 16.091885, 43.474483 ], [ 16.049449, 43.480478 ], [ 16.016526, 43.50191 ], [ 15.975174, 43.507729 ], [ 15.938187, 43.553198 ], [ 15.923752, 43.611924 ], [ 15.937251, 43.6682 ], [ 15.886125, 43.703982 ], [ 15.880804, 43.729418 ], [ 15.82892, 43.734788 ], [ 15.673777, 43.786059 ], [ 15.635025, 43.780503 ], [ 15.613486, 43.806001 ], [ 15.632477, 43.813285 ], [ 15.635418, 43.826224 ], [ 15.534339, 43.889106 ], [ 15.459969, 43.921673 ], [ 15.438441, 43.950239 ], [ 15.343384, 44.02867 ], [ 15.312365, 44.038272 ], [ 15.305519, 44.052146 ], [ 15.288184, 44.058141 ], [ 15.274017, 44.085325 ], [ 15.232438, 44.106677 ], [ 15.208156, 44.130856 ], [ 15.206505, 44.148275 ], [ 15.160853, 44.17994 ], [ 15.152008, 44.193974 ], [ 15.163516, 44.226229 ], [ 15.118269, 44.25865 ], [ 15.128394, 44.273414 ], [ 15.143793, 44.275457 ], [ 15.188778, 44.245777 ], [ 15.206522, 44.253664 ], [ 15.200236, 44.27913 ], [ 15.213848, 44.288046 ], [ 15.292426, 44.247617 ], [ 15.297199, 44.255066 ], [ 15.285235, 44.277032 ], [ 15.304166, 44.286481 ], [ 15.265426, 44.317298 ], [ 15.27282, 44.329503 ], [ 15.404312, 44.258305 ], [ 15.445512, 44.261467 ], [ 15.522324, 44.246174 ], [ 15.536035, 44.25562 ], [ 15.515154, 44.270306 ], [ 15.483566, 44.270505 ], [ 15.453034, 44.28279 ], [ 15.407147, 44.316318 ], [ 15.289482, 44.363242 ], [ 15.213597, 44.424608 ], [ 15.141955, 44.46913 ], [ 15.099462, 44.510197 ], [ 14.98971, 44.577818 ], [ 14.957862, 44.629439 ], [ 14.933759, 44.649939 ], [ 14.892903, 44.708853 ], [ 14.895749, 44.741734 ], [ 14.880287, 44.794056 ], [ 14.884318, 44.849383 ], [ 14.925615, 44.951423 ], [ 14.837415, 45.110995 ], [ 14.736646, 45.142284 ], [ 14.621139, 45.214926 ], [ 14.600321, 45.238026 ], [ 14.556409, 45.249566 ], [ 14.569225, 45.28255 ], [ 14.56373, 45.292143 ], [ 14.538227, 45.282264 ], [ 14.460483, 45.318823 ], [ 14.338832, 45.350309 ], [ 14.325298, 45.3467 ], [ 14.280868, 45.300128 ], [ 14.226404, 45.15378 ], [ 14.155791, 45.063238 ], [ 14.151613, 45.040202 ], [ 14.164052, 44.994737 ], [ 14.154549, 44.973816 ], [ 14.138022, 44.964607 ], [ 14.084962, 44.960609 ], [ 14.078056, 44.990852 ], [ 14.048752, 45.014392 ], [ 14.061524, 44.972633 ], [ 14.02428, 44.912363 ], [ 13.996122, 44.888267 ], [ 13.986804, 44.814501 ], [ 13.956316, 44.807967 ], [ 13.919757, 44.81336 ], [ 13.904624, 44.794059 ], [ 13.81455, 44.858113 ], [ 13.825166, 44.87959 ], [ 13.81082, 44.892784 ], [ 13.800189, 44.923061 ], [ 13.768802, 44.969462 ], [ 13.73031, 44.996398 ], [ 13.681739, 45.048238 ], [ 13.638581, 45.068856 ], [ 13.634236, 45.092334 ], [ 13.618637, 45.111719 ], [ 13.627245, 45.131888 ], [ 13.603339, 45.146532 ], [ 13.586018, 45.198867 ], [ 13.594529, 45.239599 ], [ 13.582676, 45.262671 ], [ 13.589177, 45.281555 ], [ 13.579465, 45.29603 ], [ 13.590372, 45.310011 ], [ 13.546847, 45.332615 ], [ 13.544966, 45.363268 ], [ 13.499534, 45.486628 ], [ 13.521831, 45.498777 ], [ 13.676923, 45.44468 ], [ 13.783013, 45.465997 ], [ 13.800637, 45.459393 ], [ 13.818792, 45.435026 ], [ 13.881173, 45.426298 ], [ 13.920381, 45.452174 ], [ 13.979051, 45.453221 ], [ 13.993103, 45.476772 ], [ 13.964897, 45.50546 ], [ 14.006725, 45.519011 ], [ 14.07052, 45.486903 ], [ 14.203566, 45.472116 ], [ 14.22075, 45.496136 ], [ 14.239066, 45.504504 ], [ 14.263971, 45.486903 ], [ 14.288693, 45.486903 ], [ 14.326182, 45.473261 ], [ 14.431558, 45.510244 ], [ 14.493737, 45.543197 ], [ 14.504636, 45.60522 ], [ 14.541969, 45.621334 ], [ 14.563592, 45.64982 ], [ 14.570013, 45.672944 ], [ 14.603726, 45.659157 ], [ 14.607087, 45.62241 ], [ 14.689792, 45.577112 ], [ 14.693213, 45.532422 ], [ 14.726443, 45.530678 ], [ 14.785709, 45.505187 ], [ 14.821691, 45.464934 ], [ 14.902995, 45.478987 ], [ 14.916505, 45.517234 ], [ 14.929652, 45.525233 ], [ 14.989338, 45.497761 ], [ 15.074335, 45.484829 ], [ 15.159852, 45.426034 ], [ 15.226438, 45.427088 ] ] ], [ [ [ 16.693011, 42.991367 ], [ 16.853764, 42.958755 ], [ 16.924328, 42.971399 ], [ 17.044749, 42.977182 ], [ 17.157295, 42.956512 ], [ 17.161333, 42.936601 ], [ 17.182113, 42.921307 ], [ 17.117173, 42.9091 ], [ 16.971679, 42.924899 ], [ 16.872694, 42.896 ], [ 16.85072, 42.903694 ], [ 16.655861, 42.921197 ], [ 16.644275, 42.931973 ], [ 16.689887, 42.963438 ], [ 16.651338, 42.979418 ], [ 16.651101, 42.985906 ], [ 16.693011, 42.991367 ] ] ], [ [ [ 16.559577, 43.230968 ], [ 16.581469, 43.211603 ], [ 16.658417, 43.212007 ], [ 16.693044, 43.168987 ], [ 16.713821, 43.16067 ], [ 17.14314, 43.137343 ], [ 17.16181, 43.128224 ], [ 17.115148, 43.1151 ], [ 16.962474, 43.11291 ], [ 16.758093, 43.124334 ], [ 16.670323, 43.122072 ], [ 16.54103, 43.141605 ], [ 16.488291, 43.160262 ], [ 16.451339, 43.162943 ], [ 16.391719, 43.187918 ], [ 16.391719, 43.193682 ], [ 16.487461, 43.207519 ], [ 16.573019, 43.182131 ], [ 16.575486, 43.190476 ], [ 16.560709, 43.207662 ], [ 16.53657, 43.221577 ], [ 16.559577, 43.230968 ] ] ], [ [ [ 16.986595, 42.765882 ], [ 16.978842, 42.764577 ], [ 16.980039, 42.780137 ], [ 16.992441, 42.785385 ], [ 16.996673, 42.778805 ], [ 16.985553, 42.773292 ], [ 16.986595, 42.765882 ] ] ], [ [ [ 16.978087, 42.759942 ], [ 16.972212, 42.752264 ], [ 16.957297, 42.760401 ], [ 16.968273, 42.769818 ], [ 16.978087, 42.759942 ] ] ], [ [ [ 16.940082, 42.763448 ], [ 16.922918, 42.737171 ], [ 16.904631, 42.727421 ], [ 16.884539, 42.724466 ], [ 16.871068, 42.736632 ], [ 16.845625, 42.731188 ], [ 16.843352, 42.723446 ], [ 16.825516, 42.732467 ], [ 16.8228, 42.763448 ], [ 16.80969, 42.756643 ], [ 16.799256, 42.763448 ], [ 16.812724, 42.772911 ], [ 16.858188, 42.775707 ], [ 16.92077, 42.771893 ], [ 16.940082, 42.763448 ] ] ], [ [ [ 16.807552, 43.350542 ], [ 16.821487, 43.3376 ], [ 16.848061, 43.338014 ], [ 16.894882, 43.313047 ], [ 16.877975, 43.285347 ], [ 16.850136, 43.271652 ], [ 16.781065, 43.26266 ], [ 16.631712, 43.258884 ], [ 16.535439, 43.270474 ], [ 16.423156, 43.320578 ], [ 16.446042, 43.349812 ], [ 16.440543, 43.387965 ], [ 16.553141, 43.385963 ], [ 16.807552, 43.350542 ] ] ], [ [ [ 16.796108, 42.776738 ], [ 16.790225, 42.757941 ], [ 16.781493, 42.759874 ], [ 16.785209, 42.777001 ], [ 16.796108, 42.776738 ] ] ], [ [ [ 16.740146, 43.083372 ], [ 16.684304, 43.082001 ], [ 16.668915, 43.087581 ], [ 16.688461, 43.099465 ], [ 16.734174, 43.094501 ], [ 16.740146, 43.083372 ] ] ], [ [ [ 16.53786, 42.765501 ], [ 16.526535, 42.758009 ], [ 16.498638, 42.764516 ], [ 16.506911, 42.774729 ], [ 16.53786, 42.765501 ] ] ], [ [ [ 16.42416, 43.162263 ], [ 16.423741, 43.150465 ], [ 16.407388, 43.152403 ], [ 16.416054, 43.167597 ], [ 16.42416, 43.162263 ] ] ], [ [ [ 16.399263, 43.157509 ], [ 16.346871, 43.162426 ], [ 16.334391, 43.17097 ], [ 16.349126, 43.175685 ], [ 16.399263, 43.157509 ] ] ], [ [ [ 16.250535, 43.41381 ], [ 16.312686, 43.397273 ], [ 16.315132, 43.383567 ], [ 16.330899, 43.392123 ], [ 16.391759, 43.339788 ], [ 16.391759, 43.330684 ], [ 16.380013, 43.327274 ], [ 16.318719, 43.348673 ], [ 16.284658, 43.368817 ], [ 16.210969, 43.383348 ], [ 16.201279, 43.411239 ], [ 16.250535, 43.41381 ] ] ], [ [ [ 16.19725, 43.073802 ], [ 16.185245, 43.062364 ], [ 16.197174, 43.059172 ], [ 16.212171, 43.071237 ], [ 16.238746, 43.076106 ], [ 16.255557, 43.06395 ], [ 16.250209, 43.04979 ], [ 16.212173, 43.018062 ], [ 16.111831, 43.00735 ], [ 16.070924, 43.006529 ], [ 16.091512, 43.023738 ], [ 16.092043, 43.037114 ], [ 16.085284, 43.04679 ], [ 16.064155, 43.04183 ], [ 16.050997, 43.053554 ], [ 16.082979, 43.070014 ], [ 16.123462, 43.076766 ], [ 16.182369, 43.080305 ], [ 16.19725, 43.073802 ] ] ], [ [ [ 16.164416, 43.409958 ], [ 16.188159, 43.397526 ], [ 16.167786, 43.398026 ], [ 16.164416, 43.409958 ] ] ], [ [ [ 16.167675, 43.454284 ], [ 16.174805, 43.442485 ], [ 16.167396, 43.43284 ], [ 16.153524, 43.437746 ], [ 16.144386, 43.430177 ], [ 16.110144, 43.430472 ], [ 16.133838, 43.457647 ], [ 16.167675, 43.454284 ] ] ], [ [ [ 16.092159, 43.438232 ], [ 16.080661, 43.437731 ], [ 16.080549, 43.445014 ], [ 16.064493, 43.448756 ], [ 16.072352, 43.456202 ], [ 16.090303, 43.455085 ], [ 16.092159, 43.438232 ] ] ], [ [ [ 16.024579, 42.976191 ], [ 16.017431, 42.959565 ], [ 16.002156, 42.960952 ], [ 15.998969, 42.982137 ], [ 16.005251, 42.993702 ], [ 16.024579, 42.976191 ] ] ], [ [ [ 15.869245, 43.677632 ], [ 15.86172, 43.665135 ], [ 15.822166, 43.697886 ], [ 15.834992, 43.699852 ], [ 15.834992, 43.709247 ], [ 15.844288, 43.706446 ], [ 15.869245, 43.677632 ] ] ], [ [ [ 15.821744, 43.668065 ], [ 15.811095, 43.656576 ], [ 15.800698, 43.667718 ], [ 15.807084, 43.673764 ], [ 15.821744, 43.668065 ] ] ], [ [ [ 15.804322, 43.727483 ], [ 15.796794, 43.717922 ], [ 15.780223, 43.7396 ], [ 15.78352, 43.743991 ], [ 15.804322, 43.727483 ] ] ], [ [ [ 15.79189, 43.686847 ], [ 15.798989, 43.672342 ], [ 15.782656, 43.673995 ], [ 15.780196, 43.691549 ], [ 15.79189, 43.686847 ] ] ], [ [ [ 15.746792, 43.702564 ], [ 15.778401, 43.684796 ], [ 15.754075, 43.684414 ], [ 15.736842, 43.700242 ], [ 15.746792, 43.702564 ] ] ], [ [ [ 15.777612, 43.716214 ], [ 15.765922, 43.71463 ], [ 15.750344, 43.729352 ], [ 15.754345, 43.732957 ], [ 15.777612, 43.716214 ] ] ], [ [ [ 15.771001, 43.03166 ], [ 15.740023, 43.01539 ], [ 15.727741, 43.022429 ], [ 15.758385, 43.035903 ], [ 15.771001, 43.03166 ] ] ], [ [ [ 15.724261, 43.687973 ], [ 15.718825, 43.674437 ], [ 15.69728, 43.682267 ], [ 15.698312, 43.693023 ], [ 15.682265, 43.702212 ], [ 15.680638, 43.71424 ], [ 15.724261, 43.687973 ] ] ], [ [ [ 15.605284, 43.676118 ], [ 15.663091, 43.664708 ], [ 15.686989, 43.645539 ], [ 15.714515, 43.638256 ], [ 15.710826, 43.63043 ], [ 15.654957, 43.641609 ], [ 15.603365, 43.670807 ], [ 15.605284, 43.676118 ] ] ], [ [ [ 15.687672, 43.683677 ], [ 15.677943, 43.679095 ], [ 15.649632, 43.696555 ], [ 15.675877, 43.693852 ], [ 15.687672, 43.683677 ] ] ], [ [ [ 15.555876, 43.850945 ], [ 15.5469, 43.846026 ], [ 15.535444, 43.859207 ], [ 15.550335, 43.86241 ], [ 15.555876, 43.850945 ] ] ], [ [ [ 15.523992, 43.824625 ], [ 15.515029, 43.822794 ], [ 15.507906, 43.830465 ], [ 15.515008, 43.839161 ], [ 15.524019, 43.835709 ], [ 15.523992, 43.824625 ] ] ], [ [ [ 15.513207, 43.852455 ], [ 15.499996, 43.845412 ], [ 15.487664, 43.856027 ], [ 15.500303, 43.862031 ], [ 15.513207, 43.852455 ] ] ], [ [ [ 15.485324, 43.722855 ], [ 15.471391, 43.722855 ], [ 15.465235, 43.731764 ], [ 15.472789, 43.736243 ], [ 15.485324, 43.722855 ] ] ], [ [ [ 15.46774, 43.720132 ], [ 15.466229, 43.708865 ], [ 15.446815, 43.723861 ], [ 15.450425, 43.729035 ], [ 15.46774, 43.720132 ] ] ], [ [ [ 15.393743, 43.937753 ], [ 15.449462, 43.899788 ], [ 15.453761, 43.889088 ], [ 15.429827, 43.89148 ], [ 15.433246, 43.882166 ], [ 15.424467, 43.875361 ], [ 15.415298, 43.88532 ], [ 15.424134, 43.892331 ], [ 15.388625, 43.911532 ], [ 15.363519, 43.910973 ], [ 15.354916, 43.928703 ], [ 15.310196, 43.955238 ], [ 15.261426, 44.010607 ], [ 15.281814, 44.013049 ], [ 15.381121, 43.961032 ], [ 15.393743, 43.937753 ] ] ], [ [ [ 15.413617, 43.952613 ], [ 15.400145, 43.948757 ], [ 15.391667, 43.959996 ], [ 15.405712, 43.963427 ], [ 15.413617, 43.952613 ] ] ], [ [ [ 15.381062, 43.754176 ], [ 15.374261, 43.74354 ], [ 15.36187, 43.747811 ], [ 15.365178, 43.758155 ], [ 15.381062, 43.754176 ] ] ], [ [ [ 15.264246, 43.854284 ], [ 15.375668, 43.779915 ], [ 15.374957, 43.774949 ], [ 15.325566, 43.790602 ], [ 15.276256, 43.823367 ], [ 15.259626, 43.823266 ], [ 15.253754, 43.838701 ], [ 15.224858, 43.855551 ], [ 15.225573, 43.873016 ], [ 15.256297, 43.868141 ], [ 15.264246, 43.854284 ] ] ], [ [ [ 15.362563, 43.765385 ], [ 15.357823, 43.757408 ], [ 15.335996, 43.76258 ], [ 15.340814, 43.769467 ], [ 15.362563, 43.765385 ] ] ], [ [ [ 15.343578, 43.844534 ], [ 15.263624, 43.878442 ], [ 15.262244, 43.889337 ], [ 15.28666, 43.889337 ], [ 15.293768, 43.878953 ], [ 15.324687, 43.875099 ], [ 15.343578, 43.844534 ] ] ], [ [ [ 15.330903, 43.772338 ], [ 15.318855, 43.767052 ], [ 15.307369, 43.773974 ], [ 15.32189, 43.782271 ], [ 15.330903, 43.772338 ] ] ], [ [ [ 15.322339, 43.916264 ], [ 15.30976, 43.910579 ], [ 15.284226, 43.933105 ], [ 15.2895, 43.936938 ], [ 15.322339, 43.916264 ] ] ], [ [ [ 15.262253, 43.899101 ], [ 15.249266, 43.892737 ], [ 15.240813, 43.902639 ], [ 15.248888, 43.905984 ], [ 15.262253, 43.899101 ] ] ], [ [ [ 15.177444, 44.095864 ], [ 15.247962, 44.03985 ], [ 15.255176, 44.023499 ], [ 15.249561, 44.015892 ], [ 15.242625, 44.015572 ], [ 15.221579, 44.042653 ], [ 15.193869, 44.037497 ], [ 15.115576, 44.10408 ], [ 15.070605, 44.130124 ], [ 15.066162, 44.152341 ], [ 15.177444, 44.095864 ] ] ], [ [ [ 15.254675, 43.824814 ], [ 15.241421, 43.816034 ], [ 15.232289, 43.829142 ], [ 15.235352, 43.833429 ], [ 15.254675, 43.824814 ] ] ], [ [ [ 14.915488, 44.538431 ], [ 14.934069, 44.532878 ], [ 15.035147, 44.453444 ], [ 15.04542, 44.452951 ], [ 15.056971, 44.469166 ], [ 15.108736, 44.442768 ], [ 15.186672, 44.379343 ], [ 15.237335, 44.352597 ], [ 15.245718, 44.337365 ], [ 15.223346, 44.336831 ], [ 15.224457, 44.322234 ], [ 15.210185, 44.315766 ], [ 15.15832, 44.32203 ], [ 15.164556, 44.299962 ], [ 15.102253, 44.334104 ], [ 15.096423, 44.359536 ], [ 15.103833, 44.383125 ], [ 15.080226, 44.39396 ], [ 15.043417, 44.396501 ], [ 14.985659, 44.449574 ], [ 14.913966, 44.481948 ], [ 14.906419, 44.493898 ], [ 14.913923, 44.508972 ], [ 14.788411, 44.635702 ], [ 14.784811, 44.64791 ], [ 14.858606, 44.600111 ], [ 14.90064, 44.599048 ], [ 14.938294, 44.582538 ], [ 15.041339, 44.512987 ], [ 15.051187, 44.497554 ], [ 15.016457, 44.501137 ], [ 14.947015, 44.534487 ], [ 14.915488, 44.538431 ] ] ], [ [ [ 15.059499, 44.004506 ], [ 15.125234, 43.971933 ], [ 15.14144, 43.97267 ], [ 15.152372, 43.948013 ], [ 15.215866, 43.905794 ], [ 15.221389, 43.882951 ], [ 15.151783, 43.913038 ], [ 15.138932, 43.904405 ], [ 15.11723, 43.917849 ], [ 15.00469, 44.038737 ], [ 14.864892, 44.141385 ], [ 14.872968, 44.158108 ], [ 14.957825, 44.098028 ], [ 15.001367, 44.083206 ], [ 15.059499, 44.004506 ] ] ], [ [ [ 15.217703, 43.931609 ], [ 15.213264, 43.924487 ], [ 15.194863, 43.944823 ], [ 15.204131, 43.944209 ], [ 15.217703, 43.931609 ] ] ], [ [ [ 15.167717, 43.8949 ], [ 15.197177, 43.871731 ], [ 15.157292, 43.889061 ], [ 15.167717, 43.8949 ] ] ], [ [ [ 15.149911, 44.022661 ], [ 15.151454, 44.010662 ], [ 15.127499, 44.017821 ], [ 15.076496, 44.058141 ], [ 15.076813, 44.077395 ], [ 15.09964, 44.067495 ], [ 15.149911, 44.022661 ] ] ], [ [ [ 15.047002, 44.325255 ], [ 15.10073, 44.30941 ], [ 15.134646, 44.285982 ], [ 15.120074, 44.28192 ], [ 15.116784, 44.29109 ], [ 15.094657, 44.297572 ], [ 15.079247, 44.295226 ], [ 15.073957, 44.286053 ], [ 15.045822, 44.28646 ], [ 15.023552, 44.306421 ], [ 15.018286, 44.322522 ], [ 15.047002, 44.325255 ] ] ], [ [ [ 15.08718, 44.009465 ], [ 15.060292, 44.018739 ], [ 15.056668, 44.033674 ], [ 15.073321, 44.028191 ], [ 15.08718, 44.009465 ] ] ], [ [ [ 15.054544, 44.152676 ], [ 15.057481, 44.1407 ], [ 15.036115, 44.148188 ], [ 15.018311, 44.166166 ], [ 15.054544, 44.152676 ] ] ], [ [ [ 15.031868, 44.134112 ], [ 15.025892, 44.127134 ], [ 15.002809, 44.136935 ], [ 14.975432, 44.157186 ], [ 14.954031, 44.185993 ], [ 15.002809, 44.160539 ], [ 15.031868, 44.134112 ] ] ], [ [ [ 14.96291, 44.407935 ], [ 14.958804, 44.403984 ], [ 14.904201, 44.433324 ], [ 14.889953, 44.450051 ], [ 14.902467, 44.452615 ], [ 14.96291, 44.407935 ] ] ], [ [ [ 14.93449, 44.157813 ], [ 14.935253, 44.150782 ], [ 14.923691, 44.152059 ], [ 14.891661, 44.172435 ], [ 14.93449, 44.157813 ] ] ], [ [ [ 14.93514, 44.17824 ], [ 14.930544, 44.172166 ], [ 14.905346, 44.189406 ], [ 14.914162, 44.192008 ], [ 14.93514, 44.17824 ] ] ], [ [ [ 14.806311, 44.262031 ], [ 14.8776, 44.22227 ], [ 14.896105, 44.225284 ], [ 14.90979, 44.212081 ], [ 14.89529, 44.198757 ], [ 14.827655, 44.23037 ], [ 14.811039, 44.229946 ], [ 14.792267, 44.25831 ], [ 14.806311, 44.262031 ] ] ], [ [ [ 14.868704, 44.477901 ], [ 14.866531, 44.468729 ], [ 14.844444, 44.486911 ], [ 14.850535, 44.48934 ], [ 14.868704, 44.477901 ] ] ], [ [ [ 14.749237, 44.812565 ], [ 14.828394, 44.754324 ], [ 14.861329, 44.708849 ], [ 14.838488, 44.701273 ], [ 14.837724, 44.688609 ], [ 14.808815, 44.714279 ], [ 14.813272, 44.724069 ], [ 14.763994, 44.755872 ], [ 14.703179, 44.759792 ], [ 14.67209, 44.776418 ], [ 14.667631, 44.794002 ], [ 14.696971, 44.793078 ], [ 14.714276, 44.808003 ], [ 14.693003, 44.839193 ], [ 14.732354, 44.846931 ], [ 14.749955, 44.842472 ], [ 14.749237, 44.812565 ] ] ], [ [ [ 14.839307, 44.204466 ], [ 14.828817, 44.199423 ], [ 14.818336, 44.217645 ], [ 14.824082, 44.219714 ], [ 14.839307, 44.204466 ] ] ], [ [ [ 14.839158, 44.846872 ], [ 14.825266, 44.828498 ], [ 14.804607, 44.839503 ], [ 14.801465, 44.849127 ], [ 14.839158, 44.846872 ] ] ], [ [ [ 14.834378, 44.891145 ], [ 14.771214, 44.911468 ], [ 14.769314, 44.933157 ], [ 14.812766, 44.917766 ], [ 14.834378, 44.891145 ] ] ], [ [ [ 14.834218, 44.145382 ], [ 14.822131, 44.144437 ], [ 14.816319, 44.157399 ], [ 14.822174, 44.160729 ], [ 14.834218, 44.145382 ] ] ], [ [ [ 14.817118, 44.357007 ], [ 14.810713, 44.343005 ], [ 14.792102, 44.344133 ], [ 14.753098, 44.366723 ], [ 14.775539, 44.37958 ], [ 14.765171, 44.412459 ], [ 14.786213, 44.419361 ], [ 14.805184, 44.405196 ], [ 14.7974, 44.37958 ], [ 14.817118, 44.357007 ] ] ], [ [ [ 14.606851, 45.165637 ], [ 14.603554, 45.153315 ], [ 14.638995, 45.158188 ], [ 14.67285, 45.143131 ], [ 14.663597, 45.11712 ], [ 14.67448, 45.082334 ], [ 14.734668, 45.061148 ], [ 14.753813, 45.027735 ], [ 14.812043, 44.978737 ], [ 14.798627, 44.966091 ], [ 14.759175, 44.964597 ], [ 14.754094, 44.944096 ], [ 14.736943, 44.938614 ], [ 14.621753, 44.978649 ], [ 14.623245, 45.03704 ], [ 14.612424, 45.031297 ], [ 14.614422, 45.016635 ], [ 14.579423, 45.024227 ], [ 14.549021, 45.014359 ], [ 14.495465, 45.024517 ], [ 14.436881, 45.069286 ], [ 14.434068, 45.086768 ], [ 14.46734, 45.101115 ], [ 14.475682, 45.125787 ], [ 14.506315, 45.118063 ], [ 14.523369, 45.124044 ], [ 14.525967, 45.150693 ], [ 14.540975, 45.168075 ], [ 14.536008, 45.214704 ], [ 14.559978, 45.239312 ], [ 14.587887, 45.231395 ], [ 14.624862, 45.174295 ], [ 14.625547, 45.168418 ], [ 14.606851, 45.165637 ] ] ], [ [ [ 14.794643, 44.272648 ], [ 14.781762, 44.264254 ], [ 14.76544, 44.271501 ], [ 14.768938, 44.256687 ], [ 14.760821, 44.256707 ], [ 14.735959, 44.278723 ], [ 14.757797, 44.279532 ], [ 14.756522, 44.294204 ], [ 14.794643, 44.272648 ] ] ], [ [ [ 14.783627, 44.227391 ], [ 14.78283, 44.21445 ], [ 14.764063, 44.223953 ], [ 14.774241, 44.231502 ], [ 14.783627, 44.227391 ] ] ], [ [ [ 14.782122, 44.858007 ], [ 14.747201, 44.859175 ], [ 14.735125, 44.874327 ], [ 14.746936, 44.87477 ], [ 14.74762, 44.884619 ], [ 14.782122, 44.858007 ] ] ], [ [ [ 14.720678, 44.363635 ], [ 14.725697, 44.349557 ], [ 14.696067, 44.359404 ], [ 14.68818, 44.37958 ], [ 14.664274, 44.395028 ], [ 14.666294, 44.40821 ], [ 14.679146, 44.41243 ], [ 14.697408, 44.406132 ], [ 14.700741, 44.37958 ], [ 14.720678, 44.363635 ] ] ], [ [ [ 14.722156, 44.283093 ], [ 14.715197, 44.272067 ], [ 14.68765, 44.288592 ], [ 14.710748, 44.289677 ], [ 14.722156, 44.283093 ] ] ], [ [ [ 14.658705, 44.311567 ], [ 14.641451, 44.310459 ], [ 14.585781, 44.351035 ], [ 14.593007, 44.353772 ], [ 14.638994, 44.329047 ], [ 14.658705, 44.311567 ] ] ], [ [ [ 14.59142, 44.551753 ], [ 14.581171, 44.540396 ], [ 14.572616, 44.55061 ], [ 14.582102, 44.559765 ], [ 14.59142, 44.551753 ] ] ], [ [ [ 14.57626, 44.447662 ], [ 14.538266, 44.443935 ], [ 14.529727, 44.455507 ], [ 14.544705, 44.473697 ], [ 14.57626, 44.447662 ] ] ], [ [ [ 14.564658, 44.49314 ], [ 14.552315, 44.49134 ], [ 14.54734, 44.505423 ], [ 14.56373, 44.504212 ], [ 14.564658, 44.49314 ] ] ], [ [ [ 14.55493, 44.956716 ], [ 14.537641, 44.953435 ], [ 14.496046, 44.977041 ], [ 14.521711, 44.987474 ], [ 14.55493, 44.956716 ] ] ], [ [ [ 14.536124, 44.482835 ], [ 14.514666, 44.479333 ], [ 14.446357, 44.541623 ], [ 14.468748, 44.540489 ], [ 14.51881, 44.514387 ], [ 14.539582, 44.493883 ], [ 14.536124, 44.482835 ] ] ], [ [ [ 14.46336, 44.941362 ], [ 14.449446, 44.87475 ], [ 14.467406, 44.805742 ], [ 14.45559, 44.783767 ], [ 14.473435, 44.752096 ], [ 14.469338, 44.725056 ], [ 14.476846, 44.703365 ], [ 14.505709, 44.66724 ], [ 14.513418, 44.644864 ], [ 14.534773, 44.629392 ], [ 14.515054, 44.612954 ], [ 14.487936, 44.609994 ], [ 14.400156, 44.682381 ], [ 14.398527, 44.623416 ], [ 14.431192, 44.568211 ], [ 14.390349, 44.559711 ], [ 14.372995, 44.570813 ], [ 14.386927, 44.609944 ], [ 14.351388, 44.653397 ], [ 14.340556, 44.697882 ], [ 14.347051, 44.706179 ], [ 14.38734, 44.698673 ], [ 14.392115, 44.740176 ], [ 14.374697, 44.758779 ], [ 14.360758, 44.806395 ], [ 14.334976, 44.826247 ], [ 14.318307, 44.886401 ], [ 14.302655, 44.911422 ], [ 14.305008, 44.92834 ], [ 14.318027, 44.941603 ], [ 14.362405, 44.908426 ], [ 14.384967, 44.905521 ], [ 14.396224, 44.914893 ], [ 14.390109, 44.96609 ], [ 14.356402, 45.005191 ], [ 14.350775, 45.047068 ], [ 14.308522, 45.071762 ], [ 14.279648, 45.109689 ], [ 14.301347, 45.15678 ], [ 14.320756, 45.170671 ], [ 14.350168, 45.166034 ], [ 14.363736, 45.15324 ], [ 14.359956, 45.102036 ], [ 14.381549, 45.05078 ], [ 14.420453, 44.992614 ], [ 14.464417, 44.979937 ], [ 14.478038, 44.965367 ], [ 14.46336, 44.941362 ] ] ], [ [ [ 14.441104, 44.550216 ], [ 14.434436, 44.541864 ], [ 14.421614, 44.54989 ], [ 14.431218, 44.560442 ], [ 14.441104, 44.550216 ] ] ], [ [ [ 14.347354, 44.559621 ], [ 14.331651, 44.554775 ], [ 14.324445, 44.565444 ], [ 14.337167, 44.569224 ], [ 14.347354, 44.559621 ] ] ], [ [ [ 14.311986, 44.762446 ], [ 14.303291, 44.759497 ], [ 14.303291, 44.771004 ], [ 14.318746, 44.790728 ], [ 14.311986, 44.762446 ] ] ], [ [ [ 14.315044, 44.506076 ], [ 14.309494, 44.499172 ], [ 14.287519, 44.514005 ], [ 14.290671, 44.520847 ], [ 14.309234, 44.515826 ], [ 14.315044, 44.506076 ] ] ], [ [ [ 14.287129, 44.666007 ], [ 14.26011, 44.654657 ], [ 14.264635, 44.642364 ], [ 14.259003, 44.638199 ], [ 14.27998, 44.60446 ], [ 14.252357, 44.619228 ], [ 14.236274, 44.619162 ], [ 14.231442, 44.628567 ], [ 14.246826, 44.635212 ], [ 14.238834, 44.658553 ], [ 14.263333, 44.681918 ], [ 14.278427, 44.687568 ], [ 14.287129, 44.666007 ] ] ], [ [ [ 13.956638, 44.77167 ], [ 13.943146, 44.762765 ], [ 13.938553, 44.772164 ], [ 13.945625, 44.782776 ], [ 13.956638, 44.77167 ] ] ], [ [ [ 13.779606, 44.90946 ], [ 13.758483, 44.905618 ], [ 13.752902, 44.889844 ], [ 13.747264, 44.906078 ], [ 13.754661, 44.916237 ], [ 13.728657, 44.933134 ], [ 13.728794, 44.945289 ], [ 13.744111, 44.941555 ], [ 13.757334, 44.920415 ], [ 13.775628, 44.917922 ], [ 13.779606, 44.90946 ] ] ] ] } },
{ "type": "Feature", "properties": { "loc": "HR04" }, "geometry": { "type": "MultiPolygon", "coordinates": [ [ [ [ 16.596805, 46.475902 ], [ 16.659136, 46.460061 ], [ 16.716105, 46.396089 ], [ 16.733264, 46.398138 ], [ 16.758093, 46.384162 ], [ 16.807115, 46.380491 ], [ 16.833868, 46.370379 ], [ 16.875618, 46.336656 ], [ 16.892273, 46.279758 ], [ 16.982352, 46.224891 ], [ 17.159036, 46.164819 ], [ 17.17959, 46.143182 ], [ 17.182069, 46.112076 ], [ 17.213782, 46.105817 ], [ 17.225734, 46.081127 ], [ 17.262178, 46.056493 ], [ 17.265101, 46.035665 ], [ 17.28163, 46.02945 ], [ 17.269428, 46.013161 ], [ 17.296495, 46.000885 ], [ 17.294325, 45.988544 ], [ 17.313717, 45.985557 ], [ 17.318048, 45.971037 ], [ 17.336496, 45.989198 ], [ 17.363808, 45.979161 ], [ 17.348697, 45.948049 ], [ 17.426675, 45.931145 ], [ 17.446536, 45.94788 ], [ 17.571028, 45.933385 ], [ 17.623752, 45.899798 ], [ 17.651499, 45.847835 ], [ 17.670644, 45.836494 ], [ 17.73862, 45.828783 ], [ 17.759485, 45.814431 ], [ 17.824871, 45.806236 ], [ 17.86317, 45.770739 ], [ 17.91209, 45.79078 ], [ 17.997297, 45.793728 ], [ 18.080887, 45.765832 ], [ 18.101821, 45.7688 ], [ 18.127891, 45.788126 ], [ 18.168014, 45.778386 ], [ 18.190232, 45.78488 ], [ 18.226809, 45.77815 ], [ 18.24768, 45.761854 ], [ 18.338053, 45.750176 ], [ 18.370053, 45.768487 ], [ 18.38783, 45.762011 ], [ 18.405751, 45.741721 ], [ 18.442148, 45.73928 ], [ 18.450058, 45.763065 ], [ 18.479918, 45.769393 ], [ 18.493122, 45.793138 ], [ 18.518622, 45.784662 ], [ 18.572741, 45.802727 ], [ 18.57782, 45.81384 ], [ 18.6187, 45.839856 ], [ 18.630366, 45.87032 ], [ 18.650849, 45.87375 ], [ 18.644605, 45.888114 ], [ 18.659281, 45.89773 ], [ 18.662106, 45.91252 ], [ 18.703232, 45.916665 ], [ 18.797813, 45.879263 ], [ 18.80888, 45.88455 ], [ 18.821306, 45.914383 ], [ 18.830271, 45.905206 ], [ 18.889734, 45.92118 ], [ 18.88707, 45.871895 ], [ 18.863529, 45.850399 ], [ 18.85913, 45.822398 ], [ 18.908646, 45.810491 ], [ 18.910777, 45.79459 ], [ 18.897859, 45.770496 ], [ 18.905176, 45.756218 ], [ 18.954432, 45.756553 ], [ 18.963895, 45.747172 ], [ 18.947871, 45.724524 ], [ 18.961227, 45.706298 ], [ 18.942085, 45.692848 ], [ 18.958855, 45.653214 ], [ 18.940847, 45.625564 ], [ 18.916327, 45.619792 ], [ 18.929664, 45.609363 ], [ 18.911889, 45.573978 ], [ 18.945737, 45.542011 ], [ 19.019906, 45.546835 ], [ 19.085917, 45.510548 ], [ 19.075273, 45.492888 ], [ 19.033732, 45.486903 ], [ 19.008548, 45.496633 ], [ 18.998648, 45.492039 ], [ 18.990506, 45.446904 ], [ 19.02441, 45.421971 ], [ 19.026877, 45.410259 ], [ 18.976368, 45.392708 ], [ 18.973537, 45.379635 ], [ 18.983605, 45.368943 ], [ 19.088057, 45.335945 ], [ 19.109199, 45.297854 ], [ 19.142518, 45.281247 ], [ 19.215586, 45.265415 ], [ 19.265136, 45.277889 ], [ 19.272122, 45.271894 ], [ 19.261785, 45.251643 ], [ 19.265606, 45.242542 ], [ 19.419754, 45.230546 ], [ 19.443447, 45.197835 ], [ 19.425168, 45.167692 ], [ 19.353118, 45.168711 ], [ 19.308055, 45.203759 ], [ 19.290368, 45.199563 ], [ 19.274652, 45.174969 ], [ 19.240981, 45.17715 ], [ 19.184041, 45.196916 ], [ 19.175887, 45.190184 ], [ 19.181242, 45.171861 ], [ 19.153015, 45.142878 ], [ 19.088013, 45.131043 ], [ 19.083876, 45.115534 ], [ 19.100483, 45.074489 ], [ 19.100258, 45.031614 ], [ 19.078227, 44.983284 ], [ 19.132461, 44.974061 ], [ 19.143628, 44.955605 ], [ 19.078059, 44.9122 ], [ 19.02895, 44.916914 ], [ 19.006059, 44.909588 ], [ 19.001546, 44.890735 ], [ 19.02207, 44.855354 ], [ 18.935424, 44.850602 ], [ 18.841224, 44.861389 ], [ 18.768289, 44.911124 ], [ 18.765248, 44.93525 ], [ 18.797311, 44.946947 ], [ 18.788769, 44.987111 ], [ 18.735831, 44.999619 ], [ 18.72514, 45.022255 ], [ 18.678372, 45.05735 ], [ 18.675293, 45.08539 ], [ 18.662371, 45.083423 ], [ 18.641253, 45.061733 ], [ 18.620447, 45.067347 ], [ 18.619764, 45.08563 ], [ 18.581379, 45.088635 ], [ 18.568639, 45.07839 ], [ 18.529673, 45.087509 ], [ 18.541653, 45.069771 ], [ 18.52354, 45.054671 ], [ 18.473357, 45.06754 ], [ 18.419546, 45.105323 ], [ 18.324831, 45.104545 ], [ 18.253382, 45.135344 ], [ 18.220528, 45.12389 ], [ 18.21371, 45.096385 ], [ 18.199734, 45.083974 ], [ 18.126775, 45.082596 ], [ 18.084037, 45.10378 ], [ 18.067981, 45.135127 ], [ 18.035596, 45.13403 ], [ 18.005635, 45.146273 ], [ 17.940081, 45.107209 ], [ 17.917672, 45.072129 ], [ 17.852719, 45.048002 ], [ 17.671563, 45.128967 ], [ 17.594986, 45.108659 ], [ 17.562437, 45.112018 ], [ 17.546674, 45.123978 ], [ 17.528191, 45.11134 ], [ 17.501664, 45.111281 ], [ 17.487837, 45.115195 ], [ 17.482621, 45.13146 ], [ 17.455793, 45.131127 ], [ 17.445191, 45.154908 ], [ 17.412977, 45.137496 ], [ 17.366601, 45.138595 ], [ 17.273027, 45.185301 ], [ 17.241378, 45.146787 ], [ 17.179209, 45.147895 ], [ 17.076274, 45.189296 ], [ 17.036044, 45.220311 ], [ 17.015316, 45.21881 ], [ 17.013395, 45.234073 ], [ 16.991158, 45.225169 ], [ 16.975629, 45.247013 ], [ 16.967218, 45.245621 ], [ 16.969733, 45.230531 ], [ 16.942081, 45.231074 ], [ 16.939204, 45.241886 ], [ 16.94901, 45.256797 ], [ 16.929893, 45.273654 ], [ 16.880831, 45.243923 ], [ 16.880068, 45.231138 ], [ 16.868746, 45.23035 ], [ 16.859245, 45.21155 ], [ 16.840084, 45.215903 ], [ 16.84093, 45.195178 ], [ 16.823147, 45.186232 ], [ 16.733397, 45.205759 ], [ 16.686729, 45.198347 ], [ 16.600286, 45.229334 ], [ 16.559399, 45.220015 ], [ 16.523252, 45.224045 ], [ 16.487617, 45.198676 ], [ 16.463781, 45.144175 ], [ 16.397349, 45.112495 ], [ 16.398271, 45.095351 ], [ 16.358952, 45.032546 ], [ 16.351374, 45.004195 ], [ 16.294115, 44.997935 ], [ 16.268085, 45.013923 ], [ 16.242077, 45.014092 ], [ 16.195174, 45.033367 ], [ 16.16109, 45.078896 ], [ 16.090495, 45.105598 ], [ 16.081734, 45.136334 ], [ 16.048321, 45.174295 ], [ 16.023686, 45.181854 ], [ 16.01652, 45.210273 ], [ 15.983415, 45.226168 ], [ 15.934042, 45.215213 ], [ 15.9134, 45.227041 ], [ 15.882451, 45.219578 ], [ 15.840023, 45.224472 ], [ 15.782408, 45.18672 ], [ 15.768199, 45.166113 ], [ 15.787475, 45.115215 ], [ 15.768706, 45.077205 ], [ 15.744957, 45.062052 ], [ 15.782936, 44.982472 ], [ 15.77774, 44.971714 ], [ 15.750215, 44.964719 ], [ 15.736722, 44.935631 ], [ 15.708656, 44.921347 ], [ 15.659091, 44.946067 ], [ 15.623806, 44.933535 ], [ 15.603251, 44.939089 ], [ 15.600298, 44.93086 ], [ 15.582093, 44.927303 ], [ 15.536474, 44.937863 ], [ 15.530804, 44.921303 ], [ 15.570434, 44.891946 ], [ 15.559323, 44.885201 ], [ 15.524104, 44.910927 ], [ 15.513957, 44.930625 ], [ 15.466984, 44.927971 ], [ 15.443328, 44.934913 ], [ 15.374873, 45.010197 ], [ 15.329894, 45.023415 ], [ 15.299295, 45.050656 ], [ 15.239693, 45.076664 ], [ 15.191589, 45.109284 ], [ 15.138608, 45.088469 ], [ 15.110694, 45.090558 ], [ 15.01663, 45.123035 ], [ 14.980864, 45.149725 ], [ 14.976754, 45.174295 ], [ 14.988099, 45.205446 ], [ 14.979296, 45.228547 ], [ 14.985832, 45.247291 ], [ 14.966792, 45.272419 ], [ 14.98374, 45.284252 ], [ 14.989779, 45.308965 ], [ 15.01984, 45.31957 ], [ 15.038881, 45.303043 ], [ 15.102835, 45.283645 ], [ 15.126544, 45.302199 ], [ 15.169585, 45.31272 ], [ 15.183742, 45.344591 ], [ 15.222755, 45.39244 ], [ 15.226438, 45.427088 ], [ 15.262636, 45.456034 ], [ 15.331674, 45.458492 ], [ 15.371631, 45.486903 ], [ 15.309729, 45.534514 ], [ 15.286564, 45.601524 ], [ 15.317357, 45.631375 ], [ 15.394631, 45.650835 ], [ 15.376301, 45.675993 ], [ 15.35766, 45.68103 ], [ 15.353576, 45.707541 ], [ 15.314417, 45.688842 ], [ 15.266479, 45.721556 ], [ 15.274152, 45.73474 ], [ 15.404425, 45.792717 ], [ 15.466849, 45.796071 ], [ 15.468961, 45.816463 ], [ 15.482109, 45.827701 ], [ 15.522804, 45.82357 ], [ 15.542696, 45.846012 ], [ 15.559468, 45.839507 ], [ 15.579702, 45.850333 ], [ 15.641985, 45.824145 ], [ 15.667258, 45.840137 ], [ 15.704858, 45.84794 ], [ 15.680648, 45.870839 ], [ 15.683257, 45.904435 ], [ 15.708172, 45.929139 ], [ 15.703576, 45.999111 ], [ 15.726697, 46.047852 ], [ 15.660922, 46.073431 ], [ 15.648315, 46.085704 ], [ 15.627262, 46.085953 ], [ 15.607237, 46.110978 ], [ 15.610481, 46.131568 ], [ 15.599802, 46.145394 ], [ 15.609542, 46.153238 ], [ 15.609256, 46.166261 ], [ 15.644181, 46.190031 ], [ 15.64605, 46.213546 ], [ 15.679258, 46.225937 ], [ 15.774443, 46.212059 ], [ 15.797907, 46.238728 ], [ 15.791476, 46.259327 ], [ 15.856942, 46.267102 ], [ 15.873495, 46.279319 ], [ 15.953032, 46.293979 ], [ 15.981818, 46.312404 ], [ 16.012055, 46.309867 ], [ 16.03162, 46.332461 ], [ 16.070353, 46.342208 ], [ 16.072389, 46.360897 ], [ 16.053419, 46.381899 ], [ 16.060171, 46.391846 ], [ 16.089571, 46.390042 ], [ 16.144794, 46.40421 ], [ 16.193417, 46.380207 ], [ 16.301549, 46.378288 ], [ 16.304361, 46.398135 ], [ 16.274229, 46.417972 ], [ 16.261485, 46.460529 ], [ 16.242149, 46.490075 ], [ 16.269514, 46.514016 ], [ 16.30499, 46.515569 ], [ 16.371052, 46.552908 ], [ 16.38282, 46.539085 ], [ 16.481321, 46.509819 ], [ 16.52971, 46.473007 ], [ 16.557059, 46.476972 ], [ 16.593911, 46.468556 ], [ 16.596805, 46.475902 ] ], [ [ 17.194113, 46.080077 ], [ 17.206227, 46.072938 ], [ 17.215759, 46.083682 ], [ 17.204598, 46.086421 ], [ 17.194113, 46.080077 ] ] ], [ [ [ 17.396147, 45.958973 ], [ 17.384947, 45.953717 ], [ 17.372553, 45.959753 ], [ 17.38895, 45.968976 ], [ 17.396147, 45.958973 ] ] ] ] } }
]
}
