{
"type": "FeatureCollection",
"name": "border_PT",
"crs": { "type": "name", "properties": { "name": "urn:ogc:def:crs:OGC:1.3:CRS84" } },
"features": [
{ "type": "Feature", "properties": { }, "geometry": { "type": "Polygon", "coordinates": [ [ [ -9.034817674180246, 41.880570583659676 ], [ -8.67194576662672, 42.134689439454959 ], [ -8.263856980817792, 42.28046865495034 ], [ -8.013174607769912, 41.790886135417125 ], [ -7.422512986673795, 41.792074693359837 ], [ -7.251308966490824, 41.918346055665047 ], [ -6.668605515967656, 41.883386949219584 ], [ -6.389087693700915, 41.381815497394655 ], [ -6.851126674822552, 41.111082668617527 ], [ -6.864019944679385, 40.330871893874829 ], [ -7.026413133156595, 40.184524237624245 ], [ -7.066591559263529, 39.711891587882775 ], [ -7.498632371439726, 39.629571031241809 ], [ -7.098036668313128, 39.030072740223787 ], [ -7.374092169616318, 38.373058580064921 ], [ -7.029281175148796, 38.075764065089771 ], [ -7.166507941099865, 37.803894354802225 ], [ -7.537105475281024, 37.428904323876239 ], [ -7.453725551778092, 37.097787583966067 ], [ -7.855613165711986, 36.838268540996268 ], [ -8.382816127953689, 36.978880113262463 ], [ -8.898856980820327, 36.868809312480778 ], [ -8.746101446965554, 37.651345526676607 ], [ -8.83999752443988, 38.266243394517616 ], [ -9.287463751655224, 38.358485826158599 ], [ -9.526570603869715, 38.737429104154913 ], [ -9.446988898140233, 39.39206614842837 ], [ -9.048305223008427, 39.755093085278773 ], [ -8.768684047877102, 40.760638943030187 ], [ -8.79085323733031, 41.184334011391257 ], [ -8.990789353867569, 41.543459377603639 ], [ -9.034817674180246, 41.880570583659676 ] ] ] } }
]
}
