{
"type": "FeatureCollection",
"name": "border_CZ",
"crs": { "type": "name", "properties": { "name": "urn:ogc:def:crs:OGC:1.3:CRS84" } },
"features": [
{ "type": "Feature", "properties": { }, "geometry": { "type": "Polygon", "coordinates": [ [ [ 15.016995883858669, 51.10667409932158 ], [ 15.490972120839729, 50.784729926143207 ], [ 16.238626743238569, 50.697732652379841 ], [ 16.176253289462267, 50.422607326857907 ], [ 16.719475945714436, 50.215746568393541 ], [ 16.868769158605659, 50.47397370055603 ], [ 17.554567091551121, 50.362145901076417 ], [ 17.649445021238989, 50.049038397819956 ], [ 18.392913852622172, 49.988628648470751 ], [ 18.853144158613617, 49.496229763377642 ], [ 18.554971144289482, 49.495015367218784 ], [ 18.399993523846177, 49.315000515330041 ], [ 18.170498488037964, 49.271514797556435 ], [ 18.104972771891852, 49.043983466175312 ], [ 17.913511590250465, 48.996492824899086 ], [ 17.886484816161811, 48.903475246773709 ], [ 17.545006951577108, 48.80001902932537 ], [ 17.101984897538898, 48.816968899117114 ], [ 16.960288120194576, 48.5969823268506 ], [ 16.499282667718774, 48.785808010445109 ], [ 16.029647251050221, 48.73389903420793 ], [ 15.253415561593982, 49.039074205107582 ], [ 14.901447381254057, 48.964401760445824 ], [ 14.338897739324722, 48.555305284207208 ], [ 13.595945672264437, 48.877171942737149 ], [ 13.031328973043431, 49.307068182973239 ], [ 12.521024204161193, 49.547415269562734 ], [ 12.415190870827445, 49.969120795280567 ], [ 12.240111118222558, 50.266337795607285 ], [ 12.966836785543194, 50.484076443069085 ], [ 13.338131951560285, 50.733234361364353 ], [ 14.056227654688172, 50.9269176295943 ], [ 14.307013380600637, 51.117267767941414 ], [ 14.570718214586066, 51.002339382524276 ], [ 15.016995883858669, 51.10667409932158 ] ] ] } }
]
}
