{
"type": "FeatureCollection",
"name": "regions_LS",
"crs": { "type": "name", "properties": { "name": "urn:ogc:def:crs:OGC:1.3:CRS84" } },
"features": [
{ "type": "Feature", "properties": { "loc": "LS-A1-0001" }, "geometry": { "type": "Polygon", "coordinates": [ [ [ 27.98776883885095, -28.947425500486407 ], [ 27.992016605771912, -28.95653448437891 ], [ 28.013268937401552, -28.955483647252528 ], [ 28.031967220500924, -28.964424829342356 ], [ 28.035528287590488, -28.98431352794692 ], [ 28.081019848387427, -29.015331069952882 ], [ 28.08145086466574, -29.033970521202551 ], [ 28.099456699467211, -29.062298793154756 ], [ 28.094638542035071, -29.07750711046479 ], [ 28.108598834168834, -29.083825828998794 ], [ 28.137412156545842, -29.073587835310327 ], [ 28.192352985901596, -29.11403861339123 ], [ 28.220403299172929, -29.118795335436371 ], [ 28.227712443774227, -29.131705459539287 ], [ 28.267167149079668, -29.13511569885538 ], [ 28.267012626666492, -29.14251388128552 ], [ 28.232005916175211, -29.164662577540884 ], [ 28.231654929666377, -29.172293444711656 ], [ 28.243223294954127, -29.191482214907211 ], [ 28.26622467486402, -29.205540537191016 ], [ 28.261343607156846, -29.209801300214838 ], [ 28.270573514790858, -29.221349661882318 ], [ 28.278874547757287, -29.22209922657299 ], [ 28.27418420107513, -29.23273017363352 ], [ 28.283204327452864, -29.2335998962931 ], [ 28.293963920733471, -29.262998126037626 ], [ 28.277653657825201, -29.270787258150438 ], [ 28.271864630983039, -29.285936456277412 ], [ 28.25521295934557, -29.288156444439334 ], [ 28.249082521076545, -29.29843645760139 ], [ 28.23850214019668, -29.295995164270344 ], [ 28.237161188972841, -29.310385292322344 ], [ 28.225333362979459, -29.308394104279451 ], [ 28.22766227882612, -29.317533607564922 ], [ 28.217121929468618, -29.323243862339371 ], [ 28.221251449030298, -29.328666157342237 ], [ 28.209612456384896, -29.326673062286929 ], [ 28.205301680218469, -29.338051651212677 ], [ 28.172490551997402, -29.309105379209871 ], [ 28.106408409420585, -29.315694737921788 ], [ 28.119889926778701, -29.327283165285806 ], [ 28.110148786937099, -29.330924064294134 ], [ 28.115798496203652, -29.340723481103787 ], [ 28.082907131459116, -29.351842616143781 ], [ 28.074487759402604, -29.376310589761928 ], [ 28.055817992006808, -29.397120451347675 ], [ 28.055426991062919, -29.391610431076515 ], [ 28.04254816786365, -29.394652449051279 ], [ 28.047177473062028, -29.385861986141698 ], [ 28.037827385425533, -29.378829965830228 ], [ 28.040526401072601, -29.367731737329844 ], [ 28.026527959697649, -29.361399663863391 ], [ 28.036934790308337, -29.356171941681758 ], [ 28.027025821684486, -29.352462334469148 ], [ 28.035807577357801, -29.335480282489041 ], [ 28.024975413284707, -29.335272367325821 ], [ 28.03107722703249, -29.329432410977002 ], [ 28.027506600149525, -29.31697430591948 ], [ 28.015205737954556, -29.314962136693218 ], [ 28.024136265776161, -29.299725212848266 ], [ 28.011755291073897, -29.298264236305499 ], [ 28.008274305914576, -29.287885024774013 ], [ 27.965843883488599, -29.335211191843008 ], [ 27.949762527718551, -29.337223291821463 ], [ 27.931790888738632, -29.352570815190976 ], [ 27.905882587011792, -29.349534424274232 ], [ 27.88641365146896, -29.359011455714018 ], [ 27.848538384239134, -29.322604043042183 ], [ 27.830360800510494, -29.320612838811439 ], [ 27.79636898407654, -29.294165049167592 ], [ 27.735267013686897, -29.322161282427167 ], [ 27.739749331891232, -29.349471074140737 ], [ 27.7242097106347, -29.34204233229773 ], [ 27.701625964191905, -29.356222611194521 ], [ 27.703657444560452, -29.32796303017961 ], [ 27.676936554103708, -29.335252437360055 ], [ 27.652224251772921, -29.315882438933411 ], [ 27.651844640742667, -29.327001651315094 ], [ 27.641233712590889, -29.334092745393864 ], [ 27.635954102225195, -29.30568438233831 ], [ 27.624713783539327, -29.296014644170437 ], [ 27.615035590844954, -29.29892316138471 ], [ 27.60444366266988, -29.328439590824424 ], [ 27.582855561060331, -29.349150264383134 ], [ 27.559302906628851, -29.346590687719981 ], [ 27.53743072177544, -29.330789142514874 ], [ 27.552323833003616, -29.307482699077209 ], [ 27.542681924356387, -29.297193112182324 ], [ 27.530213164131272, -29.309473802583902 ], [ 27.511409958927473, -29.305243495101191 ], [ 27.512213718113614, -29.275349630990672 ], [ 27.550331116068243, -29.246511458277208 ], [ 27.531690598222518, -29.231163024793755 ], [ 27.529251099039058, -29.216651916792497 ], [ 27.590974808620654, -29.164632796806117 ], [ 27.61965560959883, -29.15863799968394 ], [ 27.616834641385584, -29.130125045474514 ], [ 27.633914947896514, -29.127073287841959 ], [ 27.662799319323188, -29.0978832802891 ], [ 27.670196527338025, -29.104245575472948 ], [ 27.675716582244618, -29.098403714359961 ], [ 27.681236584091167, -29.108924062795211 ], [ 27.687937337328421, -29.098794728793681 ], [ 27.69960874333897, -29.104062553543958 ], [ 27.701577212708344, -29.09621617463673 ], [ 27.716807791836189, -29.116774349256808 ], [ 27.725847008122955, -29.112185553120757 ], [ 27.729148776384953, -29.097717240258397 ], [ 27.764199369295532, -29.071927632853928 ], [ 27.782069830048766, -29.082997295288976 ], [ 27.788917485743507, -29.062597477791336 ], [ 27.79298977604741, -29.069927009124136 ], [ 27.802177763583007, -29.067518188513603 ], [ 27.811640476916537, -29.046460380242362 ], [ 27.816408979181055, -29.05117127283598 ], [ 27.832782182042131, -29.044299529699508 ], [ 27.839782311494492, -29.061478052969786 ], [ 27.860374636070677, -29.074517899781277 ], [ 27.87634535904127, -29.073087509181178 ], [ 27.881932132851777, -29.079987916409195 ], [ 27.889023895126801, -29.072667947567727 ], [ 27.895953476362028, -29.081576681218863 ], [ 27.919294532007104, -29.04465830073994 ], [ 27.942934976458105, -29.031099793320831 ], [ 27.945685578117079, -28.992752845167619 ], [ 27.973606326960514, -28.952325163475518 ], [ 27.98776883885095, -28.947425500486407 ] ] ] } },
{ "type": "Feature", "properties": { "loc": "LS-A1-0002" }, "geometry": { "type": "Polygon", "coordinates": [ [ [ 28.679517746806553, -28.58017921408948 ], [ 28.704757690375153, -28.609172820858969 ], [ 28.719865798477944, -28.67743873607877 ], [ 28.812301635622077, -28.707099914999063 ], [ 28.822190470403868, -28.75134828078853 ], [ 28.818311548729074, -28.782718274118974 ], [ 28.797452067049338, -28.810575353659601 ], [ 28.797101020285947, -28.84000213867774 ], [ 28.81119096857832, -28.863571826268725 ], [ 28.815072450623163, -28.895359784916103 ], [ 28.80078211988895, -28.908269854160412 ], [ 28.748330326038811, -28.910819716391728 ], [ 28.74127666713953, -28.934297813428284 ], [ 28.695798208475658, -28.986464519357064 ], [ 28.704188814817115, -29.013062898768677 ], [ 28.673487096007726, -29.045440128294192 ], [ 28.62268513826363, -29.071288831948955 ], [ 28.572434595335476, -29.038211461324831 ], [ 28.536443725252774, -29.039958410587147 ], [ 28.534171936141099, -29.062660278483982 ], [ 28.521562069588828, -29.062120499996031 ], [ 28.527680998334475, -29.073348434117857 ], [ 28.520013213094479, -29.076338968603505 ], [ 28.520263051953414, -29.086666672363965 ], [ 28.497761409116844, -29.073628730316553 ], [ 28.481540907541962, -29.044100808440504 ], [ 28.491551147922127, -28.987322313408942 ], [ 28.509143199254332, -28.975384942795785 ], [ 28.504361350151335, -28.968524592271056 ], [ 28.511382553417235, -28.955666002019282 ], [ 28.48883133545284, -28.936887273663675 ], [ 28.498412308736203, -28.913828775112854 ], [ 28.487391381462217, -28.890018779677845 ], [ 28.467001232800797, -28.879279070317793 ], [ 28.432900588371428, -28.886860267032638 ], [ 28.403047852956025, -28.855920969821852 ], [ 28.355435193899119, -28.844521294911768 ], [ 28.318467816556652, -28.818784930969738 ], [ 28.289465691408715, -28.819713688725685 ], [ 28.2581957035889, -28.805992941810782 ], [ 28.240344394797994, -28.768733090549631 ], [ 28.247407621584646, -28.735528089939372 ], [ 28.224743867855366, -28.717279582077055 ], [ 28.223706275044673, -28.705050369768731 ], [ 28.247428893968234, -28.694147109521445 ], [ 28.293823241988996, -28.707670211531017 ], [ 28.317590713880474, -28.696756362935755 ], [ 28.370454787398618, -28.695318221978322 ], [ 28.372245789052002, -28.66564750664708 ], [ 28.40777206396961, -28.6240482331594 ], [ 28.467008591233594, -28.603492736990205 ], [ 28.504995346518118, -28.602979660273093 ], [ 28.509559631631802, -28.608562468972782 ], [ 28.530313492433805, -28.598808288961347 ], [ 28.587453842281079, -28.602716445797366 ], [ 28.65372848564121, -28.572057724474437 ], [ 28.679517746806553, -28.58017921408948 ] ] ] } },
{ "type": "Feature", "properties": { "loc": "LS-A1-0003" }, "geometry": { "type": "Polygon", "coordinates": [ [ [ 28.202136992828102, -28.704776764795831 ], [ 28.225081517418165, -28.701110096343857 ], [ 28.224743867855366, -28.717279582077055 ], [ 28.246455833090227, -28.73305821345577 ], [ 28.240344394797994, -28.768733090549631 ], [ 28.2581957035889, -28.805992941810782 ], [ 28.289465691408715, -28.819713688725685 ], [ 28.318467816556652, -28.818784930969738 ], [ 28.355435193899119, -28.844521294911768 ], [ 28.403047852956025, -28.855920969821852 ], [ 28.432900588371428, -28.886860267032638 ], [ 28.467001232800797, -28.879279070317793 ], [ 28.484612300072669, -28.886559041901222 ], [ 28.498412308736203, -28.913828775112854 ], [ 28.48883133545284, -28.936887273663675 ], [ 28.511382553417235, -28.955666002019282 ], [ 28.504361350151335, -28.968524592271056 ], [ 28.509143199254332, -28.975384942795785 ], [ 28.491551147922127, -28.987322313408942 ], [ 28.481540907541962, -29.044100808440504 ], [ 28.497761409116844, -29.073628730316553 ], [ 28.520263051953414, -29.086666672363965 ], [ 28.520013213094479, -29.076338968603505 ], [ 28.527680998334475, -29.073348434117857 ], [ 28.521562069588828, -29.062120499996031 ], [ 28.534171936141099, -29.062660278483982 ], [ 28.536443725252774, -29.039958410587147 ], [ 28.572434595335476, -29.038211461324831 ], [ 28.62268513826363, -29.071288831948955 ], [ 28.673487096007726, -29.045440128294192 ], [ 28.704188814817115, -29.013062898768677 ], [ 28.695798208475658, -28.986464519357064 ], [ 28.74127666713953, -28.934297813428284 ], [ 28.748330326038811, -28.910819716391728 ], [ 28.793270750105009, -28.908706595492934 ], [ 28.775831275128354, -28.926987442871116 ], [ 28.759629746550601, -28.93116998196405 ], [ 28.755490625826745, -28.947896460108463 ], [ 28.763089586850104, -28.999384309193438 ], [ 28.75699922506934, -29.003086246987703 ], [ 28.765050335539559, -29.022164382135468 ], [ 28.759520705551171, -29.041751719721049 ], [ 28.768969952436478, -29.058251271034269 ], [ 28.76015961271106, -29.067390743742777 ], [ 28.758101536691676, -29.061760567750955 ], [ 28.746378597729176, -29.066759416069171 ], [ 28.724517658897923, -29.116799618362638 ], [ 28.701117584344065, -29.117955353311892 ], [ 28.687046573975366, -29.141126379533716 ], [ 28.679407411458051, -29.139825625307342 ], [ 28.684722056712602, -29.147299207347505 ], [ 28.674747608450506, -29.142434718642324 ], [ 28.676206751275561, -29.150365025880149 ], [ 28.656896152170823, -29.15325445138674 ], [ 28.64381512450354, -29.163284597361233 ], [ 28.643738770263187, -29.172844245020841 ], [ 28.6352451133064, -29.173560787954983 ], [ 28.637419716281958, -29.18136690241559 ], [ 28.616825262111227, -29.180352427577411 ], [ 28.61492545777871, -29.18951289855633 ], [ 28.608653933866961, -29.179162291761291 ], [ 28.591479717450046, -29.188948510120611 ], [ 28.592433288400692, -29.197481296579525 ], [ 28.581904401801843, -29.197082659492096 ], [ 28.579462887237543, -29.208260989707874 ], [ 28.586983792503133, -29.208751166987707 ], [ 28.575394380381418, -29.21081286727491 ], [ 28.575746250024441, -29.220112696298845 ], [ 28.559343487347082, -29.231321386727544 ], [ 28.565723727602936, -29.243680319046423 ], [ 28.557022135698134, -29.24385958001054 ], [ 28.564243510064973, -29.26701731065528 ], [ 28.557773566032356, -29.273288303067652 ], [ 28.567951477813551, -29.277707402799397 ], [ 28.563573955808579, -29.285195219308896 ], [ 28.570402481124617, -29.282877937541713 ], [ 28.566383509826281, -29.304315314125379 ], [ 28.575872887159175, -29.295477182650792 ], [ 28.575952951102828, -29.31124624839056 ], [ 28.588332028235612, -29.30987497157766 ], [ 28.595084222693838, -29.318972525086945 ], [ 28.585163784116379, -29.323515549777785 ], [ 28.595562965093784, -29.324835384470344 ], [ 28.595484730371084, -29.334983812877663 ], [ 28.60310482995903, -29.332504417969435 ], [ 28.597861340863222, -29.341363539620641 ], [ 28.610845038502823, -29.349463621773658 ], [ 28.622886522729978, -29.342183710534758 ], [ 28.608283361922631, -29.358854870480883 ], [ 28.615033648019566, -29.368461658353823 ], [ 28.601475824984384, -29.359163826724139 ], [ 28.591172006318182, -29.360653358540606 ], [ 28.590054235349687, -29.370632041260642 ], [ 28.551572311548128, -29.364454399375933 ], [ 28.539532787843029, -29.354233466276408 ], [ 28.521011868138384, -29.352743868809434 ], [ 28.502271664041228, -29.328655373121876 ], [ 28.484750231073335, -29.32533291865424 ], [ 28.476319472700666, -29.331363594229426 ], [ 28.397417714690913, -29.314787581206886 ], [ 28.406807910292002, -29.305106449078306 ], [ 28.380876750496657, -29.291446730157439 ], [ 28.389936965054012, -29.281416573840819 ], [ 28.376978083306952, -29.267327756445777 ], [ 28.377098287590989, -29.255171006112008 ], [ 28.362876674953679, -29.250029052723598 ], [ 28.368967047526255, -29.242838770168017 ], [ 28.358544990494021, -29.237658680578566 ], [ 28.35899714983368, -29.203480934572429 ], [ 28.346476939394343, -29.200183287004084 ], [ 28.33661573196558, -29.171542238758214 ], [ 28.330025643903483, -29.17023385648227 ], [ 28.339036333694949, -29.137784095734393 ], [ 28.282353970794176, -29.119976063669334 ], [ 28.247333925020683, -29.136794022426166 ], [ 28.227712443774227, -29.131705459539287 ], [ 28.220403299172929, -29.118795335436371 ], [ 28.192352985901596, -29.11403861339123 ], [ 28.137412156545842, -29.073587835310327 ], [ 28.102159433810829, -29.082109297506026 ], [ 28.093667674423699, -29.076637406690903 ], [ 28.099456699467211, -29.062298793154756 ], [ 28.08145086466574, -29.033970521202551 ], [ 28.081019848387427, -29.015331069952882 ], [ 28.035528287590488, -28.98431352794692 ], [ 28.031967220500924, -28.964424829342356 ], [ 28.013268937401552, -28.955483647252528 ], [ 27.992016605771912, -28.95653448437891 ], [ 27.98776883885095, -28.947425500486407 ], [ 27.973606326960514, -28.952325163475518 ], [ 27.945685578117079, -28.992752845167619 ], [ 27.942934976458105, -29.031099793320831 ], [ 27.919294532007104, -29.04465830073994 ], [ 27.894843364020154, -29.082087818098351 ], [ 27.889023895126801, -29.072667947567727 ], [ 27.881932132851777, -29.079987916409195 ], [ 27.87634535904127, -29.073087509181178 ], [ 27.860374636070677, -29.074517899781277 ], [ 27.839782311494492, -29.061478052969786 ], [ 27.831351628664862, -29.043879933012512 ], [ 27.816408979181055, -29.05117127283598 ], [ 27.811640476916537, -29.046460380242362 ], [ 27.801319429038589, -29.06807509998583 ], [ 27.79298977604741, -29.069927009124136 ], [ 27.788917485743507, -29.062597477791336 ], [ 27.78120958714279, -29.083556114223303 ], [ 27.765568886584973, -29.07206686499379 ], [ 27.752527924614139, -29.078669695549969 ], [ 27.716807791836189, -29.116774349256808 ], [ 27.701577212708344, -29.09621617463673 ], [ 27.69960874333897, -29.104062553543958 ], [ 27.687937337328421, -29.098794728793681 ], [ 27.681236584091167, -29.108924062795211 ], [ 27.672216494585715, -29.09692559494021 ], [ 27.667066474728124, -29.103635251465704 ], [ 27.66135024971426, -29.082498550527664 ], [ 27.648857116962393, -29.080837249999053 ], [ 27.682645798265142, -29.074054718710268 ], [ 27.679885864341163, -29.063646316983899 ], [ 27.649507522853938, -29.043962479444868 ], [ 27.680616379142702, -29.043464661524915 ], [ 27.6825027467045, -29.027446747529368 ], [ 27.697994231748417, -29.018009186434796 ], [ 27.688030242601673, -29.004642487320925 ], [ 27.725593567389311, -29.005922317920646 ], [ 27.729972838575705, -29.000305176702529 ], [ 27.719131469941498, -28.989442825086304 ], [ 27.731908798352372, -28.975334167298023 ], [ 27.729501724225329, -28.955305098911172 ], [ 27.742696761646339, -28.940912247262357 ], [ 27.762784957759727, -28.941123962061205 ], [ 27.773492813042893, -28.92208480802751 ], [ 27.756328582697947, -28.901517868614718 ], [ 27.760150909137309, -28.895406723501477 ], [ 27.80809020969544, -28.916410446544866 ], [ 27.826156615635327, -28.914045334784383 ], [ 27.835678100564003, -28.899795531998191 ], [ 27.890325545887222, -28.914489746464639 ], [ 27.905176163249461, -28.905393600394319 ], [ 27.89980506934862, -28.883243561001532 ], [ 27.916357040345279, -28.879781723307868 ], [ 27.941822051846348, -28.851755142245977 ], [ 27.968238831157137, -28.85726928770746 ], [ 27.981613159219947, -28.878509521657087 ], [ 28.008409500098512, -28.872776031548625 ], [ 28.03669547981265, -28.877176285717038 ], [ 28.033941269174338, -28.85782051096783 ], [ 28.057598113662134, -28.844190598277514 ], [ 28.059833526995774, -28.813776015910392 ], [ 28.082912444653623, -28.808034897752361 ], [ 28.121253967196918, -28.743389130763791 ], [ 28.134365081683192, -28.739742279142838 ], [ 28.189455032124116, -28.690773010226284 ], [ 28.202136992828102, -28.704776764795831 ] ] ] } },
{ "type": "Feature", "properties": { "loc": "LS-A1-0004" }, "geometry": { "type": "Polygon", "coordinates": [ [ [ 27.30311923506477, -29.525702212801836 ], [ 27.316134515995287, -29.550947145809076 ], [ 27.353235550580273, -29.534020473181183 ], [ 27.369072718831049, -29.543837086827057 ], [ 27.37213588526302, -29.582037238192921 ], [ 27.381775906233212, -29.58642773381785 ], [ 27.385176832844742, -29.580738441340898 ], [ 27.392596612044144, -29.591007050649804 ], [ 27.38800350815545, -29.610735548521689 ], [ 27.39692636655862, -29.608576573515005 ], [ 27.405585935842396, -29.626144202407939 ], [ 27.420345470766954, -29.620792519474154 ], [ 27.438656540866795, -29.632535455761605 ], [ 27.43475777205358, -29.640913959926291 ], [ 27.443846548179778, -29.646494574280119 ], [ 27.430666274029463, -29.673152063431946 ], [ 27.439386888394228, -29.688310847882299 ], [ 27.460629671022545, -29.691949921266797 ], [ 27.502169316625817, -29.653353166540381 ], [ 27.534877556019559, -29.647335901655442 ], [ 27.547531240239724, -29.66391559065697 ], [ 27.528579237706801, -29.665084681437865 ], [ 27.53993015231984, -29.684862812443797 ], [ 27.535619379795566, -29.69438184806878 ], [ 27.557440041589825, -29.717459537252772 ], [ 27.582482388816381, -29.718489511906427 ], [ 27.609292976754567, -29.697328725864963 ], [ 27.659511206142344, -29.694372628219185 ], [ 27.670375676696217, -29.731012689883713 ], [ 27.662642955008536, -29.75852845962072 ], [ 27.673356844742685, -29.763748609510671 ], [ 27.689813983128957, -29.755568487695466 ], [ 27.684093580854157, -29.781756823018885 ], [ 27.720187318989602, -29.821234933945057 ], [ 27.699652146329594, -29.828585396099111 ], [ 27.661572723102683, -29.8114182060853 ], [ 27.658414009099346, -29.825505093984933 ], [ 27.636492174474352, -29.826056231809645 ], [ 27.644302950121062, -29.84319282958538 ], [ 27.626031897154473, -29.84227349222785 ], [ 27.623729593146322, -29.861082717493431 ], [ 27.677976268190356, -29.858603439497106 ], [ 27.756586342785532, -29.830725466906788 ], [ 27.825687884488364, -29.835154259261682 ], [ 27.819769241057717, -29.822362365430827 ], [ 27.837939239004843, -29.811904998316979 ], [ 27.863198992839315, -29.824757971403177 ], [ 27.893532526504998, -29.814535224820688 ], [ 27.911013889279683, -29.822793629922057 ], [ 27.944832232022048, -29.820033933419271 ], [ 27.956183200594324, -29.823985769427658 ], [ 27.957342814319546, -29.851694199128026 ], [ 27.974631465869564, -29.879202410962463 ], [ 27.996871805289718, -29.888952293113785 ], [ 28.064388323362426, -29.884222496770757 ], [ 28.055434907794723, -29.897990864586749 ], [ 28.061897170717813, -29.908591339019036 ], [ 28.057313565468682, -29.940768431617787 ], [ 28.034514367544077, -29.927339474237375 ], [ 28.001354084823209, -29.928207187811434 ], [ 27.99883443086431, -29.91859848932878 ], [ 27.975653745024402, -29.907082496060283 ], [ 27.962341910850501, -29.918340920796854 ], [ 27.91477117405055, -29.916710109084249 ], [ 27.924354027816172, -29.904921462055828 ], [ 27.914601470181726, -29.899790952990063 ], [ 27.91795091870009, -29.887132587798643 ], [ 27.908360485448185, -29.883733856432343 ], [ 27.889120344628253, -29.920600821770499 ], [ 27.890560359772891, -29.944248737789042 ], [ 27.859938934234556, -29.915710576481963 ], [ 27.861730033914061, -29.902390393901563 ], [ 27.853318343866622, -29.909380419470772 ], [ 27.833878077811196, -29.899929980084522 ], [ 27.844868500081237, -29.917980158657404 ], [ 27.833910407539335, -29.929108896658224 ], [ 27.852616353761821, -29.928687442871155 ], [ 27.829609117466863, -29.954927240999346 ], [ 27.803927759658436, -29.962065989254011 ], [ 27.755805863449883, -29.935898485826446 ], [ 27.737305861975941, -29.952697440334525 ], [ 27.736106060246595, -29.965399678951993 ], [ 27.712772735173701, -29.9681670304841 ], [ 27.711685484497632, -29.976564620960517 ], [ 27.690223305960942, -29.985446600680049 ], [ 27.633912962013589, -29.943969629594708 ], [ 27.620101490591402, -29.924628238602264 ], [ 27.613971066711489, -29.929369629904507 ], [ 27.614541299841093, -29.953627861836324 ], [ 27.601153174379593, -29.963246056260523 ], [ 27.570949492025569, -29.929428644316442 ], [ 27.555049355043852, -29.926089019992247 ], [ 27.522608119868934, -29.940477180777275 ], [ 27.527418524245633, -29.963297361683811 ], [ 27.518488030598114, -29.966636922156148 ], [ 27.520095948269478, -29.974645441633768 ], [ 27.486218444525594, -29.98630242701536 ], [ 27.502818548902113, -30.004573864667034 ], [ 27.485377210455013, -30.005773476189951 ], [ 27.483500279479482, -30.017993182664199 ], [ 27.472597528518143, -30.020894071828902 ], [ 27.478897661662831, -30.030792683860192 ], [ 27.466457544844829, -30.032272672970389 ], [ 27.469185110369736, -30.040311712740259 ], [ 27.448926533198019, -30.040862853263079 ], [ 27.437585042625727, -30.054181107067407 ], [ 27.419983480063586, -30.056000572713199 ], [ 27.405752405658994, -30.029182778507341 ], [ 27.381463573395308, -30.001994954648342 ], [ 27.371873132049434, -30.000966925228351 ], [ 27.373683302752276, -29.989195421976017 ], [ 27.360501278521259, -29.969615624306506 ], [ 27.359135724544164, -29.926357431694978 ], [ 27.367154492695693, -29.918348937398459 ], [ 27.365424524432385, -29.903798573989921 ], [ 27.382095325548921, -29.886259608738847 ], [ 27.380044972907296, -29.854282765482182 ], [ 27.369226154773223, -29.855223007130988 ], [ 27.356936767927635, -29.843863436093571 ], [ 27.337334270470297, -29.864822078820769 ], [ 27.335363846874188, -29.885700663899456 ], [ 27.29910396888318, -29.90406922810735 ], [ 27.252160747530567, -29.90960964591331 ], [ 27.215830405858625, -29.896426684588778 ], [ 27.188589986948379, -29.898161452533895 ], [ 27.123323441154028, -29.75533294760741 ], [ 27.085874556895355, -29.707538605172473 ], [ 27.053749083583494, -29.683774948205283 ], [ 27.029067993123483, -29.646015167416046 ], [ 27.036777496114599, -29.63777351488574 ], [ 27.032629012548952, -29.611698151498395 ], [ 27.067264556644126, -29.631418228118672 ], [ 27.078205108808877, -29.596191406757949 ], [ 27.087114333489808, -29.596708298399172 ], [ 27.092433928613051, -29.607667923385911 ], [ 27.119194030410192, -29.595903397074025 ], [ 27.131559371297946, -29.569911957520784 ], [ 27.162746429034605, -29.55604744048696 ], [ 27.207704543559945, -29.56179809685468 ], [ 27.233627318975699, -29.539981842637836 ], [ 27.25834464941606, -29.546577454335971 ], [ 27.275548934665732, -29.526136398426001 ], [ 27.291147231289852, -29.52263069270224 ], [ 27.30311923506477, -29.525702212801836 ] ] ] } },
{ "type": "Feature", "properties": { "loc": "LS-A1-0005" }, "geometry": { "type": "Polygon", "coordinates": [ [ [ 27.512213718113614, -29.275349630990672 ], [ 27.511409958927473, -29.305243495101191 ], [ 27.530213164131272, -29.309473802583902 ], [ 27.542681924356387, -29.297193112182324 ], [ 27.552323833003616, -29.307482699077209 ], [ 27.53743072177544, -29.330789142514874 ], [ 27.560672423918291, -29.347010283507696 ], [ 27.594353429392342, -29.343569706686562 ], [ 27.615035590844954, -29.29892316138471 ], [ 27.624713783539327, -29.296014644170437 ], [ 27.635954102225195, -29.30568438233831 ], [ 27.641233712590889, -29.334092745393864 ], [ 27.651844640742667, -29.327001651315094 ], [ 27.652224251772921, -29.315882438933411 ], [ 27.676936554103708, -29.335252437360055 ], [ 27.704756108532607, -29.328832734852778 ], [ 27.701625964191905, -29.356222611194521 ], [ 27.7242097106347, -29.34204233229773 ], [ 27.738156644238803, -29.35042087603254 ], [ 27.735267013686897, -29.322161282427167 ], [ 27.79636898407654, -29.294165049167592 ], [ 27.830360800510494, -29.320612838811439 ], [ 27.848538384239134, -29.322604043042183 ], [ 27.88641365146896, -29.359011455714018 ], [ 27.905882587011792, -29.349534424274232 ], [ 27.931790888738632, -29.352570815190976 ], [ 27.949762527718551, -29.337223291821463 ], [ 27.965843883488599, -29.335211191843008 ], [ 27.994476096794401, -29.296057516740998 ], [ 28.010305692753583, -29.28826838507787 ], [ 28.011755291073897, -29.298264236305499 ], [ 28.024136265776161, -29.299725212848266 ], [ 28.015205737954556, -29.314962136693218 ], [ 28.027506600149525, -29.31697430591948 ], [ 28.03107722703249, -29.329432410977002 ], [ 28.024975413284707, -29.335272367325821 ], [ 28.035807577357801, -29.335480282489041 ], [ 28.027025821684486, -29.352462334469148 ], [ 28.036934790308337, -29.356171941681758 ], [ 28.026527959697649, -29.361399663863391 ], [ 28.040526401072601, -29.367731737329844 ], [ 28.037827385425533, -29.378829965830228 ], [ 28.047177473062028, -29.385861986141698 ], [ 28.04254816786365, -29.394652449051279 ], [ 28.055426991062919, -29.391610431076515 ], [ 28.055817992006808, -29.397120451347675 ], [ 28.074487759402604, -29.376310589761928 ], [ 28.082907131459116, -29.351842616143781 ], [ 28.115798496203652, -29.340723481103787 ], [ 28.110148786937099, -29.330924064294134 ], [ 28.119889926778701, -29.327283165285806 ], [ 28.106408409420585, -29.315694737921788 ], [ 28.172490551997402, -29.309105379209871 ], [ 28.19070053560127, -29.31969442325903 ], [ 28.210581376964043, -29.340334631562953 ], [ 28.200731519878879, -29.342205610375544 ], [ 28.20621147671341, -29.350162632874127 ], [ 28.191821964247303, -29.360362523636535 ], [ 28.184379271221509, -29.357381487340678 ], [ 28.195852308372409, -29.362702717431372 ], [ 28.194143250245833, -29.369502027821287 ], [ 28.181212949852767, -29.365382355836051 ], [ 28.18679208212405, -29.376270808026334 ], [ 28.172351114047771, -29.372471549197549 ], [ 28.16652011674508, -29.389630982558707 ], [ 28.154749511915593, -29.387750415174491 ], [ 28.159279573328782, -29.39776916314138 ], [ 28.142959793794446, -29.398598773789292 ], [ 28.144560082516783, -29.406988730820188 ], [ 28.114278101588202, -29.401726580342341 ], [ 28.114329579681456, -29.408899713725706 ], [ 28.106390948318776, -29.409639704683549 ], [ 28.11340826831195, -29.419618408088017 ], [ 28.1050557257762, -29.421378770288914 ], [ 28.108448981170557, -29.428406963535497 ], [ 28.092888295093825, -29.446907165108488 ], [ 28.09472891054579, -29.457126169162379 ], [ 28.112969430629846, -29.462054524571574 ], [ 28.096649624116026, -29.471424762867432 ], [ 28.121579421188319, -29.476585817856144 ], [ 28.097418269272794, -29.484222354802764 ], [ 28.115777046608574, -29.489892627517683 ], [ 28.11380856914532, -29.500371008190424 ], [ 28.13212923680986, -29.493594622868486 ], [ 28.135688429712395, -29.50286382548008 ], [ 28.127099324109555, -29.519021955473818 ], [ 28.15474910722056, -29.516912613151497 ], [ 28.144378515691031, -29.522552302171995 ], [ 28.15852950816538, -29.542179760312631 ], [ 28.14832101943459, -29.556541266990827 ], [ 28.168781720135332, -29.574730680851186 ], [ 28.157730179039646, -29.58219941419657 ], [ 28.164629237284604, -29.59280941739561 ], [ 28.154149947397293, -29.590946016720249 ], [ 28.167480781547809, -29.602418110032719 ], [ 28.15547934323213, -29.612179346124851 ], [ 28.173191487332421, -29.624948374243004 ], [ 28.161958676187098, -29.653185067511817 ], [ 28.172579130857294, -29.649885564192363 ], [ 28.187599923332911, -29.662864383909188 ], [ 28.18424095818866, -29.669484413549746 ], [ 28.177160683853479, -29.662313166044768 ], [ 28.161296751778835, -29.670321637858294 ], [ 28.191580656357367, -29.671155176295322 ], [ 28.175279913672107, -29.683403446586748 ], [ 28.180359273796611, -29.704262969635259 ], [ 28.191599623958457, -29.704652074358723 ], [ 28.182890376125052, -29.712771185266934 ], [ 28.185967333660571, -29.718954426780314 ], [ 28.204891275547066, -29.709576326161486 ], [ 28.21199065867706, -29.71577241359093 ], [ 28.209046529209107, -29.723882478218705 ], [ 28.219891702874893, -29.721923980981874 ], [ 28.23274230804607, -29.734641656012556 ], [ 28.210603275455952, -29.754842063685278 ], [ 28.194830605683023, -29.757160377424391 ], [ 28.203482365254011, -29.759664632291866 ], [ 28.205629136910275, -29.770769726666519 ], [ 28.214684431276531, -29.769434812141821 ], [ 28.209059756437753, -29.791387791188523 ], [ 28.228140546384211, -29.808437302664309 ], [ 28.229225686351427, -29.826006490981744 ], [ 28.222473423544852, -29.829910585580016 ], [ 28.233393472066197, -29.833211809752175 ], [ 28.225498056725034, -29.857266638869223 ], [ 28.23460842467405, -29.859289432686115 ], [ 28.235443348966509, -29.846409828425763 ], [ 28.240796698344077, -29.858869462780419 ], [ 28.250335693072941, -29.857251137704782 ], [ 28.247492937883827, -29.86300095320637 ], [ 28.274530042562489, -29.870169492852789 ], [ 28.267805611974399, -29.897914017292976 ], [ 28.284433616108444, -29.887798390233517 ], [ 28.294571543042295, -29.921273225978545 ], [ 28.313373664563084, -29.933498035206124 ], [ 28.312098379137023, -29.944695221507217 ], [ 28.291129717962242, -29.948353637510333 ], [ 28.301504621740907, -29.96394644197466 ], [ 28.265706983590526, -29.949191862314567 ], [ 28.257519715762385, -29.933783567257816 ], [ 28.214568197364525, -29.907250702557903 ], [ 28.166816841623969, -29.909304644393803 ], [ 28.160651868488955, -29.900873840155601 ], [ 28.082499022711787, -29.925987357030909 ], [ 28.085318204871417, -29.915501339315348 ], [ 28.069196844558846, -29.900531345944831 ], [ 28.075775509432237, -29.895553457226271 ], [ 28.068596082143564, -29.878573252453617 ], [ 28.051955897546748, -29.866801706033858 ], [ 28.049775702586714, -29.87542243989369 ], [ 28.059816282495547, -29.879732834702505 ], [ 28.043345790076284, -29.888591939266579 ], [ 27.989621757837817, -29.886381311248517 ], [ 27.969861053444838, -29.874981669568385 ], [ 27.957342814319546, -29.851694199128026 ], [ 27.956183200594324, -29.823985769427658 ], [ 27.944832232022048, -29.820033933419271 ], [ 27.911013889279683, -29.822793629922057 ], [ 27.893532526504998, -29.814535224820688 ], [ 27.863198992839315, -29.824757971403177 ], [ 27.837939239004843, -29.811904998316979 ], [ 27.819769241057717, -29.822362365430827 ], [ 27.825687884488364, -29.835154259261682 ], [ 27.756586342785532, -29.830725466906788 ], [ 27.677976268190356, -29.858603439497106 ], [ 27.623729593146322, -29.861082717493431 ], [ 27.626031897154473, -29.84227349222785 ], [ 27.644302950121062, -29.84319282958538 ], [ 27.636492174474352, -29.826056231809645 ], [ 27.658414009099346, -29.825505093984933 ], [ 27.661572723102683, -29.8114182060853 ], [ 27.699652146329594, -29.828585396099111 ], [ 27.720187318989602, -29.821234933945057 ], [ 27.684093580854157, -29.781756823018885 ], [ 27.689813983128957, -29.755568487695466 ], [ 27.673356844742685, -29.763748609510671 ], [ 27.662642955008536, -29.75852845962072 ], [ 27.670375676696217, -29.731012689883713 ], [ 27.659511206142344, -29.694372628219185 ], [ 27.609292976754567, -29.697328725864963 ], [ 27.582482388816381, -29.718489511906427 ], [ 27.557440041589825, -29.717459537252772 ], [ 27.535619379795566, -29.69438184806878 ], [ 27.53993015231984, -29.684862812443797 ], [ 27.528579237706801, -29.665084681437865 ], [ 27.547531240239724, -29.66391559065697 ], [ 27.534877556019559, -29.647335901655442 ], [ 27.502169316625817, -29.653353166540381 ], [ 27.460629671022545, -29.691949921266797 ], [ 27.439386888394228, -29.688310847882299 ], [ 27.430666274029463, -29.673152063431946 ], [ 27.443846548179778, -29.646494574280119 ], [ 27.43475777205358, -29.640913959926291 ], [ 27.438656540866795, -29.632535455761605 ], [ 27.420345470766954, -29.620792519474154 ], [ 27.405585935842396, -29.626144202407939 ], [ 27.39692636655862, -29.608576573515005 ], [ 27.38800350815545, -29.610735548521689 ], [ 27.392596612044144, -29.591007050649804 ], [ 27.385176832844742, -29.580738441340898 ], [ 27.381775906233212, -29.58642773381785 ], [ 27.37213588526302, -29.582037238192921 ], [ 27.369072718831049, -29.543837086827057 ], [ 27.34495549430072, -29.53451824163848 ], [ 27.314484608078331, -29.551319053246633 ], [ 27.30311923506477, -29.525702212801836 ], [ 27.314670562966175, -29.525512694934925 ], [ 27.312446594404864, -29.505041122329917 ], [ 27.320611953848655, -29.487812041872225 ], [ 27.369773865641527, -29.476182938172041 ], [ 27.37030029369361, -29.455430983932679 ], [ 27.407375336072963, -29.412704467816869 ], [ 27.430442809857851, -29.406047820930187 ], [ 27.430576324108173, -29.389064789588332 ], [ 27.414375305446086, -29.367460251069705 ], [ 27.445110321654091, -29.365623473924124 ], [ 27.449859618896326, -29.329933167161876 ], [ 27.477575302528194, -29.314537048026285 ], [ 27.463394165678228, -29.290338515789877 ], [ 27.49826240485616, -29.288875580523616 ], [ 27.512213718113614, -29.275349630990672 ] ] ] } },
{ "type": "Feature", "properties": { "loc": "LS-A1-0006" }, "geometry": { "type": "Polygon", "coordinates": [ [ [ 28.559410470516937, -29.788047134667512 ], [ 28.594743222122148, -29.809356843043794 ], [ 28.582320246382391, -29.819160043301402 ], [ 28.58727184701813, -29.828856478743443 ], [ 28.576250808228369, -29.841303121042134 ], [ 28.577051855059192, -29.86206537251887 ], [ 28.567032218562165, -29.870102472451116 ], [ 28.568361641376754, -29.883312042916494 ], [ 28.584212151069881, -29.898552861725175 ], [ 28.576490852570817, -29.935063206301876 ], [ 28.560241629347853, -29.940729588999243 ], [ 28.551000258954833, -29.934460457284246 ], [ 28.498758186241417, -29.961989489323443 ], [ 28.483378670389286, -29.99035779657499 ], [ 28.4669081743729, -30.00013619622845 ], [ 28.458795980150491, -29.996748912332411 ], [ 28.41913706052706, -30.028565461326945 ], [ 28.408295249426345, -30.062316025763941 ], [ 28.391315511401842, -30.060612816828009 ], [ 28.376794517153385, -30.028864797072735 ], [ 28.355235078736012, -30.031954480914575 ], [ 28.337965450545237, -30.019355185893065 ], [ 28.353354429963034, -30.014615720938703 ], [ 28.345764883942408, -30.005436138466951 ], [ 28.286921391708901, -29.995127343851763 ], [ 28.278391422826026, -30.008516175281258 ], [ 28.289404754425966, -30.020842718516633 ], [ 28.285322884543511, -30.026505315967572 ], [ 28.25819193201216, -30.022215859174523 ], [ 28.21113997722831, -30.029653996234934 ], [ 28.191388718414672, -30.045993307245261 ], [ 28.175891069417318, -30.034433463933169 ], [ 28.149748126474954, -30.038673203505478 ], [ 28.12811807868643, -30.05289356158864 ], [ 28.126267828797396, -30.072751783068291 ], [ 28.109125975383602, -30.066883150037377 ], [ 28.076165948299874, -30.074193535703081 ], [ 28.062125466317305, -30.09067018398181 ], [ 28.022314105311779, -30.075431204286613 ], [ 28.01348277361118, -30.085921025235102 ], [ 27.985823522437663, -30.065572568918903 ], [ 27.971712496734362, -30.072932588168428 ], [ 27.980272901373286, -30.08546129630178 ], [ 27.960449134719916, -30.109338037620365 ], [ 27.944018752063897, -30.101449634293193 ], [ 27.944701685534383, -30.076762267464691 ], [ 27.921440853013095, -30.0758391025925 ], [ 27.910629598177543, -30.096370559253888 ], [ 27.926590714589921, -30.117668796777458 ], [ 27.885388738199861, -30.137078718807814 ], [ 27.902780390003006, -30.164365709110136 ], [ 27.889350268899875, -30.183584979363282 ], [ 27.92111046997217, -30.196592467668232 ], [ 27.894839667716624, -30.2197444453498 ], [ 27.886859110859312, -30.208695756004328 ], [ 27.874718452994234, -30.211032100251195 ], [ 27.87136130448074, -30.244204800810909 ], [ 27.8639681676969, -30.251561025820667 ], [ 27.842807384353456, -30.252161754960966 ], [ 27.838508009836787, -30.275180283143527 ], [ 27.819107813974568, -30.261251623763425 ], [ 27.803396422207243, -30.28316010705327 ], [ 27.757574757968833, -30.286160087118258 ], [ 27.75286736463725, -30.259809577949643 ], [ 27.740566492549661, -30.259891557449365 ], [ 27.720674055463306, -30.284168828928276 ], [ 27.736824052887847, -30.290998714918732 ], [ 27.732135554312425, -30.317547555175523 ], [ 27.741603893804783, -30.327099063970614 ], [ 27.738145736136914, -30.335157165770571 ], [ 27.713463862367398, -30.340476410158196 ], [ 27.72364556209304, -30.352905953646875 ], [ 27.7227318742767, -30.364404733891298 ], [ 27.694502250578505, -30.361456060149056 ], [ 27.656844371970273, -30.340626935984311 ], [ 27.618379519998975, -30.36036491810647 ], [ 27.574278332578999, -30.364305172645562 ], [ 27.566709680507344, -30.381333040587361 ], [ 27.572519586909365, -30.397742996042382 ], [ 27.596226751163737, -30.399480558181175 ], [ 27.577919406055855, -30.412712980419649 ], [ 27.559167862406913, -30.385080338386889 ], [ 27.50753974876055, -30.372121810972835 ], [ 27.481941223009159, -30.341573715254761 ], [ 27.483083725333728, -30.320255279857239 ], [ 27.475460051839988, -30.310859680230035 ], [ 27.394622802690165, -30.330492019531036 ], [ 27.394826889439443, -30.318569182861438 ], [ 27.40711784380359, -30.308612822663545 ], [ 27.389684677495989, -30.294786453072259 ], [ 27.396289824705704, -30.281448363191327 ], [ 27.374526978527385, -30.27024459745013 ], [ 27.374645233081178, -30.220464705721589 ], [ 27.378599167207867, -30.200622558724039 ], [ 27.397983551190013, -30.191335677239678 ], [ 27.394767760813536, -30.179080962856059 ], [ 27.409862518030863, -30.171270369771669 ], [ 27.415681839435351, -30.150794982242552 ], [ 27.40230941793536, -30.141677855888322 ], [ 27.335178375371854, -30.150213241387952 ], [ 27.312314987436697, -30.068523406969611 ], [ 27.238376617477016, -30.005439757878477 ], [ 27.188589986948379, -29.898161452533895 ], [ 27.215830405858625, -29.896426684588778 ], [ 27.252160747530567, -29.90960964591331 ], [ 27.29910396888318, -29.90406922810735 ], [ 27.335363846874188, -29.885700663899456 ], [ 27.337334270470297, -29.864822078820769 ], [ 27.356936767927635, -29.843863436093571 ], [ 27.369226154773223, -29.855223007130988 ], [ 27.37857436642404, -29.852871401838627 ], [ 27.382404329905956, -29.885010365880621 ], [ 27.365424524432385, -29.903798573989921 ], [ 27.367154492695693, -29.918348937398459 ], [ 27.359135724544164, -29.926357431694978 ], [ 27.360501278521259, -29.969615624306506 ], [ 27.373683302752276, -29.989195421976017 ], [ 27.371873132049434, -30.000966925228351 ], [ 27.381463573395308, -30.001994954648342 ], [ 27.414705698919022, -30.05146322499272 ], [ 27.426146309214943, -30.057179265555551 ], [ 27.448926533198019, -30.040862853263079 ], [ 27.467306309703492, -30.041522807256666 ], [ 27.472757700472599, -30.035692377426265 ], [ 27.467086993834826, -30.0310844617035 ], [ 27.478897661662831, -30.030792683860192 ], [ 27.472597528518143, -30.020894071828902 ], [ 27.483500279479482, -30.017993182664199 ], [ 27.485377210455013, -30.005773476189951 ], [ 27.503138999830128, -30.002634199233874 ], [ 27.486218444525594, -29.98630242701536 ], [ 27.520095948269478, -29.974645441633768 ], [ 27.518488030598114, -29.966636922156148 ], [ 27.527418524245633, -29.963297361683811 ], [ 27.522608119868934, -29.940477180777275 ], [ 27.555049355043852, -29.926089019992247 ], [ 27.570949492025569, -29.929428644316442 ], [ 27.601153174379593, -29.963246056260523 ], [ 27.614541299841093, -29.953627861836324 ], [ 27.613971066711489, -29.929369629904507 ], [ 27.620101490591402, -29.924628238602264 ], [ 27.633912962013589, -29.943969629594708 ], [ 27.690223305960942, -29.985446600680049 ], [ 27.711685484497632, -29.976564620960517 ], [ 27.712772735173701, -29.9681670304841 ], [ 27.736106060246595, -29.965399678951993 ], [ 27.737305861975941, -29.952697440334525 ], [ 27.755805863449883, -29.935898485826446 ], [ 27.803927759658436, -29.962065989254011 ], [ 27.829609117466863, -29.954927240999346 ], [ 27.852616353761821, -29.928687442871155 ], [ 27.833910407539335, -29.929108896658224 ], [ 27.844868500081237, -29.917980158657404 ], [ 27.833878077811196, -29.899929980084522 ], [ 27.853318343866622, -29.909380419470772 ], [ 27.861730033914061, -29.902390393901563 ], [ 27.859938934234556, -29.915710576481963 ], [ 27.890560359772891, -29.944248737789042 ], [ 27.889120344628253, -29.920600821770499 ], [ 27.908360485448185, -29.883733856432343 ], [ 27.91795091870009, -29.887132587798643 ], [ 27.914601470181726, -29.899790952990063 ], [ 27.924354027816172, -29.904921462055828 ], [ 27.91477117405055, -29.916710109084249 ], [ 27.962341910850501, -29.918340920796854 ], [ 27.975653745024402, -29.907082496060283 ], [ 27.99883443086431, -29.91859848932878 ], [ 28.001354084823209, -29.928207187811434 ], [ 28.034514367544077, -29.927339474237375 ], [ 28.052655696902988, -29.934442094027375 ], [ 28.055036115124725, -29.942618452179776 ], [ 28.061897170717813, -29.908591339019036 ], [ 28.055434907794723, -29.897990864586749 ], [ 28.065565184285894, -29.887111973538744 ], [ 28.049775702586714, -29.87542243989369 ], [ 28.051955897546748, -29.866801706033858 ], [ 28.07103564787699, -29.881252935374597 ], [ 28.075775509432237, -29.895553457226271 ], [ 28.069196844558846, -29.900531345944831 ], [ 28.085318204871417, -29.915501339315348 ], [ 28.082499022711787, -29.925987357030909 ], [ 28.160651868488955, -29.900873840155601 ], [ 28.166816841623969, -29.909304644393803 ], [ 28.214568197364525, -29.907250702557903 ], [ 28.257519715762385, -29.933783567257816 ], [ 28.265706983590526, -29.949191862314567 ], [ 28.301504621740907, -29.96394644197466 ], [ 28.291129717962242, -29.948353637510333 ], [ 28.312098379137023, -29.944695221507217 ], [ 28.313373664563084, -29.933498035206124 ], [ 28.294571543042295, -29.921273225978545 ], [ 28.284433616108444, -29.887798390233517 ], [ 28.339135135912912, -29.8786826210311 ], [ 28.33639619216564, -29.848895289710814 ], [ 28.372425238469106, -29.841054699289899 ], [ 28.400334384259445, -29.853995410684625 ], [ 28.40125569293102, -29.844316153642531 ], [ 28.413136940452581, -29.842445176178906 ], [ 28.42278656168558, -29.827343648415589 ], [ 28.472388754572435, -29.808057724009668 ], [ 28.50360919604265, -29.809858234644743 ], [ 28.526280701028544, -29.790589411746854 ], [ 28.559410470516937, -29.788047134667512 ] ] ] } },
{ "type": "Feature", "properties": { "loc": "LS-A1-0007" }, "geometry": { "type": "Polygon", "coordinates": [ [ [ 29.306112676029215, -29.564258885419122 ], [ 29.276102329928619, -29.568492710600054 ], [ 29.237782557489084, -29.552652984227748 ], [ 29.223131737110066, -29.560903680790148 ], [ 29.214609454732681, -29.555794161001643 ], [ 29.211702521224424, -29.571391579887432 ], [ 29.184090940414649, -29.553812470698944 ], [ 29.173638320821937, -29.563093087505905 ], [ 29.179270865627984, -29.573592466898731 ], [ 29.168570320034291, -29.569680690291563 ], [ 29.171383727646941, -29.576113824173518 ], [ 29.159691304480191, -29.581492221468793 ], [ 29.129651580226351, -29.568551518617625 ], [ 29.118829054187614, -29.532172761493683 ], [ 29.018219136873682, -29.496026496205744 ], [ 29.00117640673588, -29.511362587843067 ], [ 28.971804258230037, -29.504925582829344 ], [ 28.898681861149043, -29.513775021030327 ], [ 28.853880766454267, -29.48283373901576 ], [ 28.794909376236831, -29.508255230974015 ], [ 28.777006525500809, -29.48277444131736 ], [ 28.765993282933721, -29.483483325624888 ], [ 28.787871174884856, -29.463547564598358 ], [ 28.796179827806895, -29.468287078116091 ], [ 28.79650984842084, -29.454917315911374 ], [ 28.784270028609029, -29.45022547455595 ], [ 28.783478486712909, -29.439329403309259 ], [ 28.811267536137962, -29.428648913946205 ], [ 28.798861821985554, -29.407213401207429 ], [ 28.813369577314177, -29.402050532286168 ], [ 28.808669767965455, -29.387690902043417 ], [ 28.823970973551667, -29.393252452118915 ], [ 28.831840979447719, -29.378433206707044 ], [ 28.823681108566319, -29.372492132385915 ], [ 28.809890536489149, -29.37829202123973 ], [ 28.814491245044962, -29.363852309066743 ], [ 28.798841007176833, -29.350314677610186 ], [ 28.752965946591246, -29.352773008147722 ], [ 28.737767692694973, -29.363943683783958 ], [ 28.700617207987847, -29.334074299219466 ], [ 28.67341569285, -29.327234871422121 ], [ 28.694427749910773, -29.307546472971254 ], [ 28.70294826242241, -29.26532018315983 ], [ 28.723788704555119, -29.227780015914917 ], [ 28.709696799337905, -29.221350676272635 ], [ 28.704987472463927, -29.200161225240265 ], [ 28.611198658361417, -29.264049040460819 ], [ 28.557773566032324, -29.273288303067631 ], [ 28.564243510065012, -29.267017310655248 ], [ 28.557022135698105, -29.243859580010508 ], [ 28.565723727602972, -29.243680319046391 ], [ 28.559343487347121, -29.231321386727515 ], [ 28.57574625002448, -29.220112696298813 ], [ 28.575394380381454, -29.210812867274882 ], [ 28.586983792503105, -29.208751166987682 ], [ 28.579462887237582, -29.208260989707853 ], [ 28.581904401801808, -29.197082659492068 ], [ 28.590394263619459, -29.199712763688012 ], [ 28.591479717450085, -29.188948510120582 ], [ 28.606926279559303, -29.17948247109409 ], [ 28.614925457778753, -29.189512898556302 ], [ 28.616825262111263, -29.18035242757739 ], [ 28.63590505111236, -29.182112854079918 ], [ 28.635245113306439, -29.173560787954955 ], [ 28.643738770263155, -29.172844245020812 ], [ 28.643815124503504, -29.163284597361212 ], [ 28.656896152170788, -29.153254451386715 ], [ 28.6762067512756, -29.15036502588012 ], [ 28.674747608450474, -29.142434718642292 ], [ 28.684722056712644, -29.147299207347473 ], [ 28.679407411458016, -29.13982562530731 ], [ 28.687046573975323, -29.141126379533688 ], [ 28.701117584344104, -29.117955353311871 ], [ 28.724517658897895, -29.116799618362606 ], [ 28.746378597729148, -29.066759416069146 ], [ 28.75810153669164, -29.061760567750923 ], [ 28.760159612711021, -29.067390743742749 ], [ 28.768969952436436, -29.058251271034237 ], [ 28.759520705551211, -29.04175171972102 ], [ 28.765050335539598, -29.022164382135443 ], [ 28.756999225069308, -29.003086246987678 ], [ 28.763089586850072, -28.999384309193417 ], [ 28.755490625826781, -28.947896460108439 ], [ 28.759629746550644, -28.931169981964018 ], [ 28.775831275128326, -28.926987442871095 ], [ 28.81507245062312, -28.895359784916081 ], [ 28.811190968578359, -28.863571826268696 ], [ 28.797101020285908, -28.840002138677718 ], [ 28.797452067049306, -28.810575353659573 ], [ 28.818311548729042, -28.782718274118949 ], [ 28.82219047040391, -28.751348280788505 ], [ 28.828716278703354, -28.75793075590957 ], [ 28.867778777838396, -28.758474350220993 ], [ 28.915851593546307, -28.795219420549785 ], [ 28.956151962712994, -28.85268592752351 ], [ 28.963144302237822, -28.876232147305743 ], [ 29.000066757544943, -28.913650513070635 ], [ 29.028354645620453, -28.908897400004918 ], [ 29.07313537606683, -28.935192108039331 ], [ 29.07406234686988, -28.962753296237594 ], [ 29.08141517603957, -28.972066878593523 ], [ 29.139762878324262, -28.988945006716634 ], [ 29.166421890028289, -29.010986327966577 ], [ 29.220832825344644, -29.030284881551978 ], [ 29.228864670538144, -29.057273865306598 ], [ 29.261617661096238, -29.089038848973658 ], [ 29.292175293225284, -29.077384949166003 ], [ 29.340915680184537, -29.095623015899378 ], [ 29.347465515491194, -29.107433318602745 ], [ 29.34278678894924, -29.144077300636894 ], [ 29.392698288365409, -29.196737289204506 ], [ 29.410263062360571, -29.246810913003173 ], [ 29.445835114568922, -29.287292480273678 ], [ 29.442251205598723, -29.322805404755599 ], [ 29.460369110316321, -29.333637237878136 ], [ 29.465761185400424, -29.352537155275471 ], [ 29.450002670057302, -29.367898940993271 ], [ 29.446237563882562, -29.399276733244591 ], [ 29.428306580554363, -29.431123734182947 ], [ 29.347822189312694, -29.456930160708268 ], [ 29.334253310911606, -29.478969573596913 ], [ 29.305965424634678, -29.48975181630324 ], [ 29.311717987565203, -29.527935027589365 ], [ 29.306112676029215, -29.564258885419122 ] ] ] } },
{ "type": "Feature", "properties": { "loc": "LS-A1-0008" }, "geometry": { "type": "Polygon", "coordinates": [ [ [ 29.034976998704636, -29.710133535219491 ], [ 29.095277759576081, -29.7179037748243 ], [ 29.122978980310847, -29.738580254360198 ], [ 29.150060098709734, -29.734711313811019 ], [ 29.156429291738544, -29.747407912465146 ], [ 29.130619049389743, -29.841476440005671 ], [ 29.13403511069184, -29.853235244830717 ], [ 29.156942368455656, -29.864416121926446 ], [ 29.174768448565107, -29.91450309795955 ], [ 29.160650253466507, -29.933298111238877 ], [ 29.120138168601599, -29.942684173555762 ], [ 29.115970612214142, -29.963485718211341 ], [ 29.092128754698425, -29.957786559721939 ], [ 29.049489975542091, -29.989593505755646 ], [ 28.848638535600095, -30.094539641910906 ], [ 28.811840057232967, -30.099552154528325 ], [ 28.786983490156075, -30.111902236618921 ], [ 28.748226166064832, -30.110895156905965 ], [ 28.684169769779082, -30.138027190422484 ], [ 28.625885010145229, -30.136579513953382 ], [ 28.555681229665169, -30.118106841977216 ], [ 28.513134003291789, -30.147918700507631 ], [ 28.472225189700922, -30.156879424865529 ], [ 28.412239075532923, -30.141315459860557 ], [ 28.372643559687631, -30.167109483206062 ], [ 28.368954658465899, -30.159057087604463 ], [ 28.297121703938704, -30.152949917494659 ], [ 28.280941193416513, -30.143919074795406 ], [ 28.247820959304963, -30.146219131397739 ], [ 28.22580952702312, -30.129738578262749 ], [ 28.224970348083183, -30.105030225574353 ], [ 28.234440708352153, -30.079570444530329 ], [ 28.243611516138749, -30.082311177029148 ], [ 28.249171630446472, -30.075582433292642 ], [ 28.255340163098168, -30.082963483188102 ], [ 28.275430093104497, -30.059596811253758 ], [ 28.282242286732178, -30.068632515688027 ], [ 28.301732182774213, -30.067120117709173 ], [ 28.323203836567927, -30.077913264695372 ], [ 28.312320276959362, -30.043744959861968 ], [ 28.279001706363776, -30.035515121725481 ], [ 28.278381824361691, -30.027655368100742 ], [ 28.289631730719904, -30.02256496070434 ], [ 28.278391422826026, -30.008516175281258 ], [ 28.286921391708901, -29.995127343851763 ], [ 28.345764883942408, -30.005436138466951 ], [ 28.353354429963034, -30.014615720938703 ], [ 28.337965450545237, -30.019355185893065 ], [ 28.355235078736012, -30.031954480914575 ], [ 28.376794517153385, -30.028864797072735 ], [ 28.391315511401842, -30.060612816828009 ], [ 28.408295249426345, -30.062316025763941 ], [ 28.41913706052706, -30.028565461326945 ], [ 28.458795980150491, -29.996748912332411 ], [ 28.4669081743729, -30.00013619622845 ], [ 28.483378670389286, -29.99035779657499 ], [ 28.498758186241417, -29.961989489323443 ], [ 28.551000258954833, -29.934460457284246 ], [ 28.57325206203301, -29.939201916934838 ], [ 28.585282154547791, -29.915592177137235 ], [ 28.584212151069881, -29.898552861725175 ], [ 28.568361641376754, -29.883312042916494 ], [ 28.567032218562165, -29.870102472451116 ], [ 28.577051855059192, -29.86206537251887 ], [ 28.576250808228369, -29.841303121042134 ], [ 28.58727184701813, -29.828856478743443 ], [ 28.582320246382391, -29.819160043301402 ], [ 28.594743222122148, -29.809356843043794 ], [ 28.560772356159418, -29.789038904322002 ], [ 28.590512710493314, -29.770729441310667 ], [ 28.600162293055469, -29.768120356069566 ], [ 28.699366425220312, -29.812484963010583 ], [ 28.714976583003065, -29.834187518639105 ], [ 28.705944912927421, -29.865584535697781 ], [ 28.707363996351436, -29.874714512464745 ], [ 28.716496670185236, -29.87249450271911 ], [ 28.71735687711821, -29.883735796269967 ], [ 28.743976720649282, -29.863006030104206 ], [ 28.759945544251568, -29.860576239102116 ], [ 28.768305748111871, -29.848596862954885 ], [ 28.806349006001923, -29.844277044150264 ], [ 28.806898354175718, -29.839236201989067 ], [ 28.792459274675757, -29.840536908551435 ], [ 28.780967207870383, -29.819297823036045 ], [ 28.798769098015491, -29.800969257525217 ], [ 28.826067890256084, -29.809397426524992 ], [ 28.85688969553815, -29.807488346584904 ], [ 28.907510277112696, -29.844265830278832 ], [ 28.970704508821115, -29.874865783514121 ], [ 28.963094024784546, -29.850536971439062 ], [ 28.969863437662617, -29.842705845483358 ], [ 28.958403758142097, -29.83403739944141 ], [ 28.952424101106526, -29.81149758667922 ], [ 28.97969438200521, -29.786430753611398 ], [ 28.987015056814585, -29.771100350186014 ], [ 28.983925095981515, -29.757709591509446 ], [ 29.011565399338828, -29.73733076463802 ], [ 29.017936195813903, -29.718313660631907 ], [ 29.034976998704636, -29.710133535219491 ] ] ] } },
{ "type": "Feature", "properties": { "loc": "LS-A1-0009" }, "geometry": { "type": "Polygon", "coordinates": [ [ [ 28.278381824361691, -30.027655368100742 ], [ 28.279892462367222, -30.036785348465006 ], [ 28.312320276959362, -30.043744959861968 ], [ 28.323203836567927, -30.077913264695372 ], [ 28.301732182774213, -30.067120117709173 ], [ 28.282242286732178, -30.068632515688027 ], [ 28.275430093104497, -30.059596811253758 ], [ 28.255340163098168, -30.082963483188102 ], [ 28.249171630446472, -30.075582433292642 ], [ 28.243611516138749, -30.082311177029148 ], [ 28.234440708352153, -30.079570444530329 ], [ 28.224970348083183, -30.105030225574353 ], [ 28.22580952702312, -30.129738578262749 ], [ 28.247820959304963, -30.146219131397739 ], [ 28.280941193416513, -30.143919074795406 ], [ 28.297121703938704, -30.152949917494659 ], [ 28.368954658465899, -30.159057087604463 ], [ 28.372643919416412, -30.167109199919601 ], [ 28.362071991039599, -30.20325088567985 ], [ 28.316440581977425, -30.253116608704506 ], [ 28.243448256541885, -30.263784409083211 ], [ 28.222341536842581, -30.287822723499897 ], [ 28.226955414171133, -30.300777435090559 ], [ 28.262685775838019, -30.324792862660516 ], [ 28.264793395508896, -30.342042923402207 ], [ 28.279792785918438, -30.361433029770474 ], [ 28.270694733285477, -30.381858825984004 ], [ 28.24040985114376, -30.411186217929615 ], [ 28.198900222977024, -30.426706314005209 ], [ 28.154701232485895, -30.459577560016399 ], [ 28.185899734095514, -30.494045258242103 ], [ 28.170072555514096, -30.516824722343067 ], [ 28.162355422674761, -30.559061050387143 ], [ 28.115732192696612, -30.599195480247182 ], [ 28.110849380304685, -30.618795395750936 ], [ 28.118227004682677, -30.668964386357306 ], [ 28.090742110470117, -30.649713516625482 ], [ 28.048490523628793, -30.660123824914582 ], [ 27.926603316699854, -30.640964507965712 ], [ 27.912048339769129, -30.609399796123732 ], [ 27.89754867564092, -30.597656250095845 ], [ 27.866611481045016, -30.611225128496894 ], [ 27.750450133476861, -30.594552994585062 ], [ 27.686368941983179, -30.519811630762156 ], [ 27.620197296178421, -30.482807159083109 ], [ 27.622194290334239, -30.469099044585274 ], [ 27.612262726243912, -30.449295044130981 ], [ 27.586626053049983, -30.442977904806451 ], [ 27.574476575533584, -30.41255997426337 ], [ 27.596226751163737, -30.399480558181175 ], [ 27.57340843455161, -30.399142916712258 ], [ 27.566709680507344, -30.381333040587361 ], [ 27.572117234722597, -30.365754673839124 ], [ 27.618379519998975, -30.36036491810647 ], [ 27.656844371970273, -30.340626935984311 ], [ 27.694502250578505, -30.361456060149056 ], [ 27.7227318742767, -30.364404733891298 ], [ 27.72364556209304, -30.352905953646875 ], [ 27.713463862367398, -30.340476410158196 ], [ 27.738145736136914, -30.335157165770571 ], [ 27.741603893804783, -30.327099063970614 ], [ 27.732135554312425, -30.317547555175523 ], [ 27.736824052887847, -30.290998714918732 ], [ 27.720674055463306, -30.284168828928276 ], [ 27.740566492549661, -30.259891557449365 ], [ 27.75286736463725, -30.259809577949643 ], [ 27.757574757968833, -30.286160087118258 ], [ 27.803396422207243, -30.28316010705327 ], [ 27.819107813974568, -30.261251623763425 ], [ 27.838508009836787, -30.275180283143527 ], [ 27.842807384353456, -30.252161754960966 ], [ 27.8639681676969, -30.251561025820667 ], [ 27.87136130448074, -30.244204800810909 ], [ 27.874718452994234, -30.211032100251195 ], [ 27.886859110859312, -30.208695756004328 ], [ 27.894839667716624, -30.2197444453498 ], [ 27.92111046997217, -30.196592467668232 ], [ 27.889350268899875, -30.183584979363282 ], [ 27.902780390003006, -30.164365709110136 ], [ 27.885388738199861, -30.137078718807814 ], [ 27.926590714589921, -30.117668796777458 ], [ 27.910629598177543, -30.096370559253888 ], [ 27.921440853013095, -30.0758391025925 ], [ 27.944701685534383, -30.076762267464691 ], [ 27.944018752063897, -30.101449634293193 ], [ 27.96396258090839, -30.109010000910747 ], [ 27.980272901373286, -30.08546129630178 ], [ 27.971712496734362, -30.072932588168428 ], [ 27.984753465899797, -30.06577282635487 ], [ 28.01348277361118, -30.085921025235102 ], [ 28.022314105311779, -30.075431204286613 ], [ 28.062125466317305, -30.09067018398181 ], [ 28.076165948299874, -30.074193535703081 ], [ 28.109125975383602, -30.066883150037377 ], [ 28.126267828797396, -30.072751783068291 ], [ 28.12811807868643, -30.05289356158864 ], [ 28.149748126474954, -30.038673203505478 ], [ 28.175891069417318, -30.034433463933169 ], [ 28.191388718414672, -30.045993307245261 ], [ 28.21113997722831, -30.029653996234934 ], [ 28.25819193201216, -30.022215859174523 ], [ 28.278381824361691, -30.027655368100742 ] ] ] } },
{ "type": "Feature", "properties": { "loc": "LS-A1-0010" }, "geometry": { "type": "Polygon", "coordinates": [ [ [ 28.282353970794176, -29.119976063669334 ], [ 28.339946163419754, -29.138934163605729 ], [ 28.330025643903483, -29.17023385648227 ], [ 28.33661573196558, -29.171542238758214 ], [ 28.346476939394343, -29.200183287004084 ], [ 28.35899714983368, -29.203480934572429 ], [ 28.358544990494021, -29.237658680578566 ], [ 28.368967047526255, -29.242838770168017 ], [ 28.362876674953679, -29.250029052723598 ], [ 28.377098287590989, -29.255171006112008 ], [ 28.376978083306952, -29.267327756445777 ], [ 28.389936965054012, -29.281416573840819 ], [ 28.380876750496657, -29.291446730157439 ], [ 28.406807910292002, -29.305106449078306 ], [ 28.397417714690913, -29.314787581206886 ], [ 28.476319472700666, -29.331363594229426 ], [ 28.484750231073335, -29.32533291865424 ], [ 28.502271664041228, -29.328655373121876 ], [ 28.522640790375213, -29.353842443299033 ], [ 28.575372921658087, -29.370660616319316 ], [ 28.590054235349687, -29.370632041260642 ], [ 28.595704010267013, -29.359180979043881 ], [ 28.615033648019566, -29.368461658353823 ], [ 28.608283361922631, -29.358854870480883 ], [ 28.622886522729978, -29.342183710534758 ], [ 28.610845038502823, -29.349463621773658 ], [ 28.597861340863222, -29.341363539620641 ], [ 28.60310482995903, -29.332504417969435 ], [ 28.595484730371084, -29.334983812877663 ], [ 28.595562965093784, -29.324835384470344 ], [ 28.585163784116379, -29.323515549777785 ], [ 28.595084222693838, -29.318972525086945 ], [ 28.588332028235612, -29.30987497157766 ], [ 28.575952951102828, -29.31124624839056 ], [ 28.575872887159175, -29.295477182650792 ], [ 28.566383509826281, -29.304315314125379 ], [ 28.570402481124617, -29.282877937541713 ], [ 28.563573955808579, -29.285195219308896 ], [ 28.564632595497912, -29.275508346852725 ], [ 28.611198658361374, -29.264049040460844 ], [ 28.704987472463888, -29.20016122524029 ], [ 28.709696799337863, -29.221350676272667 ], [ 28.72378870455508, -29.227780015914945 ], [ 28.702948262422439, -29.265320183159854 ], [ 28.694427749910805, -29.307546472971286 ], [ 28.673415692850028, -29.327234871422142 ], [ 28.700617207987804, -29.334074299219498 ], [ 28.737767692695009, -29.363943683783983 ], [ 28.752965946591207, -29.352773008147754 ], [ 28.798841007176872, -29.350314677610218 ], [ 28.81449124504492, -29.363852309066768 ], [ 28.809890536489107, -29.378292021239755 ], [ 28.823681108566284, -29.372492132385947 ], [ 28.831840979447758, -29.378433206707072 ], [ 28.823970973551631, -29.39325245211894 ], [ 28.808669767965416, -29.387690902043445 ], [ 28.813369577314134, -29.402050532286189 ], [ 28.798861821985593, -29.407213401207461 ], [ 28.81126753613799, -29.428648913946226 ], [ 28.783478486712948, -29.439329403309284 ], [ 28.784270028609065, -29.450225474555975 ], [ 28.796509848420797, -29.454917315911405 ], [ 28.796179827806938, -29.468287078116123 ], [ 28.78787117488482, -29.463547564598386 ], [ 28.765993282933682, -29.48348332562491 ], [ 28.777006525500841, -29.482774441317389 ], [ 28.794909376236859, -29.50825523097404 ], [ 28.853880766454303, -29.482833739015785 ], [ 28.898681861149083, -29.513775021030359 ], [ 28.971804258230076, -29.504925582829372 ], [ 29.001176406735922, -29.511362587843099 ], [ 29.01821913687364, -29.496026496205769 ], [ 29.035326668560906, -29.497956661650576 ], [ 29.074905330886462, -29.512884729526551 ], [ 29.085117558998235, -29.523855206632405 ], [ 29.118829054187572, -29.532172761493708 ], [ 29.129651580226383, -29.568551518617653 ], [ 29.159691304480155, -29.581492221468814 ], [ 29.171383727646898, -29.57611382417355 ], [ 29.16857032003433, -29.569680690291595 ], [ 29.17927086562802, -29.573592466898763 ], [ 29.173638320821897, -29.563093087505926 ], [ 29.184090940414613, -29.553812470698965 ], [ 29.211702521224385, -29.571391579887457 ], [ 29.214609454732692, -29.555794161001664 ], [ 29.223131737110091, -29.560903680790179 ], [ 29.237782557489105, -29.552652984227773 ], [ 29.276102329928637, -29.568492710600086 ], [ 29.306112676029255, -29.564258885419154 ], [ 29.33213996885458, -29.580120086522705 ], [ 29.294614792408851, -29.59189796327037 ], [ 29.301156997867199, -29.605312347137097 ], [ 29.295099258094375, -29.630908965426389 ], [ 29.240550995402241, -29.639410018407592 ], [ 29.210664749448672, -29.660701751134905 ], [ 29.183498383413635, -29.665513992826526 ], [ 29.177791595076101, -29.697534560221722 ], [ 29.150230408676396, -29.71931076043321 ], [ 29.146049078317375, -29.737582817178282 ], [ 29.119757371320691, -29.737783019755554 ], [ 29.095277759576081, -29.7179037748243 ], [ 29.041986723023943, -29.709774989459209 ], [ 29.017936195813903, -29.718313660631907 ], [ 29.011565399338828, -29.73733076463802 ], [ 28.983925095981515, -29.757709591509446 ], [ 28.987015056814585, -29.771100350186014 ], [ 28.97969438200521, -29.786430753611398 ], [ 28.952424101106526, -29.81149758667922 ], [ 28.958403758142097, -29.83403739944141 ], [ 28.969863437662617, -29.842705845483358 ], [ 28.963094024784546, -29.850536971439062 ], [ 28.970704508821115, -29.874865783514121 ], [ 28.907510277112696, -29.844265830278832 ], [ 28.85688969553815, -29.807488346584904 ], [ 28.826067890256084, -29.809397426524992 ], [ 28.798769098015491, -29.800969257525217 ], [ 28.780967207870383, -29.819297823036045 ], [ 28.792459274675757, -29.840536908551435 ], [ 28.806898354175718, -29.839236201989067 ], [ 28.806349006001923, -29.844277044150264 ], [ 28.768305748111871, -29.848596862954885 ], [ 28.759945544251568, -29.860576239102116 ], [ 28.743976720649282, -29.863006030104206 ], [ 28.71735687711821, -29.883735796269967 ], [ 28.716496670185236, -29.87249450271911 ], [ 28.707363996351436, -29.874714512464745 ], [ 28.705944912927421, -29.865584535697781 ], [ 28.714976583003065, -29.834187518639105 ], [ 28.701493177967912, -29.814468501420194 ], [ 28.597402274595467, -29.768019265976292 ], [ 28.560772356159418, -29.789038904322002 ], [ 28.52455068060447, -29.791317974569814 ], [ 28.50360919604265, -29.809858234644743 ], [ 28.476358073401524, -29.806917201992217 ], [ 28.42278656168558, -29.827343648415589 ], [ 28.413136940452581, -29.842445176178906 ], [ 28.40125569293102, -29.844316153642531 ], [ 28.400334384259445, -29.853995410684625 ], [ 28.356114997144548, -29.840844863624522 ], [ 28.33639619216564, -29.848895289710814 ], [ 28.339135135912912, -29.8786826210311 ], [ 28.284433616108444, -29.887798390233517 ], [ 28.267805611974399, -29.897914017292976 ], [ 28.275285984795389, -29.871313530769811 ], [ 28.240796698344077, -29.858869462780419 ], [ 28.235443348966509, -29.846409828425763 ], [ 28.23460842467405, -29.859289432686115 ], [ 28.225498056725034, -29.857266638869223 ], [ 28.233393472066197, -29.833211809752175 ], [ 28.222473423544852, -29.829910585580016 ], [ 28.229225686351427, -29.826006490981744 ], [ 28.228140546384211, -29.808437302664309 ], [ 28.209059756437753, -29.791387791188523 ], [ 28.214684431276531, -29.769434812141821 ], [ 28.205629136910275, -29.770769726666519 ], [ 28.203482365254011, -29.759664632291866 ], [ 28.194830605683023, -29.757160377424391 ], [ 28.210603275455952, -29.754842063685278 ], [ 28.23274230804607, -29.734641656012556 ], [ 28.219891702874893, -29.721923980981874 ], [ 28.209046529209107, -29.723882478218705 ], [ 28.21199065867706, -29.71577241359093 ], [ 28.204891275547066, -29.709576326161486 ], [ 28.185967333660571, -29.718954426780314 ], [ 28.182890376125052, -29.712771185266934 ], [ 28.191599623958457, -29.704652074358723 ], [ 28.180359273796611, -29.704262969635259 ], [ 28.175279913672107, -29.683403446586748 ], [ 28.191580656357367, -29.671155176295322 ], [ 28.161296751778835, -29.670321637858294 ], [ 28.177160683853479, -29.662313166044768 ], [ 28.18424095818866, -29.669484413549746 ], [ 28.187599923332911, -29.662864383909188 ], [ 28.172579130857294, -29.649885564192363 ], [ 28.161958676187098, -29.653185067511817 ], [ 28.173191487332421, -29.624948374243004 ], [ 28.15547934323213, -29.612179346124851 ], [ 28.167480781547809, -29.602418110032719 ], [ 28.154149947397293, -29.590946016720249 ], [ 28.164629237284604, -29.59280941739561 ], [ 28.157730179039646, -29.58219941419657 ], [ 28.168781720135332, -29.574730680851186 ], [ 28.14832101943459, -29.556541266990827 ], [ 28.15852950816538, -29.542179760312631 ], [ 28.144378515691031, -29.522552302171995 ], [ 28.15474910722056, -29.516912613151497 ], [ 28.127099324109555, -29.519021955473818 ], [ 28.133609377905504, -29.496074040259707 ], [ 28.11380856914532, -29.500371008190424 ], [ 28.115777046608574, -29.489892627517683 ], [ 28.098177412192875, -29.485833975432602 ], [ 28.118098385667061, -29.481943251055171 ], [ 28.121339093559321, -29.474693834028137 ], [ 28.097227564435627, -29.472756018050767 ], [ 28.112849268613864, -29.4604467202149 ], [ 28.097847513886691, -29.459395794505244 ], [ 28.092888295093825, -29.446907165108488 ], [ 28.108448981170557, -29.428406963535497 ], [ 28.1050557257762, -29.421378770288914 ], [ 28.11340826831195, -29.419618408088017 ], [ 28.106039981595003, -29.410888947092179 ], [ 28.114278101588202, -29.401726580342341 ], [ 28.121888641382746, -29.406679703980071 ], [ 28.132900120379372, -29.401148731303856 ], [ 28.132989741418584, -29.409929669943264 ], [ 28.146280567429365, -29.40579861658787 ], [ 28.144008870048491, -29.397929335095657 ], [ 28.159279573328782, -29.39776916314138 ], [ 28.154749511915593, -29.387750415174491 ], [ 28.16652011674508, -29.389630982558707 ], [ 28.170830906356308, -29.373720788458563 ], [ 28.184480300160857, -29.37774128545691 ], [ 28.181212949852767, -29.365382355836051 ], [ 28.19520186650804, -29.368081135860663 ], [ 28.184379271221509, -29.357381487340678 ], [ 28.191821964247303, -29.360362523636535 ], [ 28.20621147671341, -29.350162632874127 ], [ 28.200731519878879, -29.342205610375544 ], [ 28.210581376964043, -29.340334631562953 ], [ 28.208361194548619, -29.327474101473555 ], [ 28.221251449030298, -29.328666157342237 ], [ 28.217121929468618, -29.323243862339371 ], [ 28.22766227882612, -29.317533607564922 ], [ 28.225333362979459, -29.308394104279451 ], [ 28.237161188972841, -29.310385292322344 ], [ 28.23850214019668, -29.295995164270344 ], [ 28.249082521076545, -29.29843645760139 ], [ 28.25521295934557, -29.288156444439334 ], [ 28.27740375241639, -29.282366114479558 ], [ 28.285172676312946, -29.264647868479305 ], [ 28.291484274914396, -29.268487158830276 ], [ 28.283204327452864, -29.2335998962931 ], [ 28.27418420107513, -29.23273017363352 ], [ 28.278874547757287, -29.22209922657299 ], [ 28.270573514790858, -29.221349661882318 ], [ 28.261343607156846, -29.209801300214838 ], [ 28.26622467486402, -29.205540537191016 ], [ 28.243223294954127, -29.191482214907211 ], [ 28.231412693675999, -29.170681826330153 ], [ 28.245224289204689, -29.151123112366712 ], [ 28.268204759876951, -29.141264642024595 ], [ 28.267846213666985, -29.126058216888179 ], [ 28.282353970794176, -29.119976063669334 ] ] ] } }
]
}
