{
"type": "FeatureCollection",
"name": "regions_BG",
"crs": { "type": "name", "properties": { "name": "urn:ogc:def:crs:OGC:1.3:CRS84" } },
"features": [
{ "type": "Feature", "properties": { "loc": "BG31" }, "geometry": { "type": "Polygon", "coordinates": [ [ [ 22.876598, 43.835356 ], [ 23.053721, 43.796906 ], [ 23.123505, 43.80249 ], [ 23.263513, 43.844718 ], [ 23.426508, 43.852741 ], [ 23.51203, 43.835764 ], [ 23.557751, 43.802267 ], [ 23.630393, 43.79105 ], [ 23.698802, 43.805949 ], [ 23.738077, 43.803649 ], [ 23.777747, 43.780636 ], [ 23.858022, 43.755642 ], [ 23.986137, 43.746317 ], [ 24.081226, 43.704898 ], [ 24.190893, 43.683979 ], [ 24.323523, 43.697686 ], [ 24.407917, 43.720161 ], [ 24.494645, 43.761216 ], [ 24.580264, 43.753992 ], [ 24.65478, 43.723586 ], [ 24.696309, 43.697095 ], [ 24.734567, 43.688526 ], [ 24.818575, 43.710673 ], [ 24.912944, 43.713298 ], [ 24.99052, 43.727421 ], [ 25.081477, 43.688258 ], [ 25.131549, 43.685461 ], [ 25.182367, 43.699175 ], [ 25.268908, 43.672072 ], [ 25.296373, 43.655419 ], [ 25.225533, 43.645533 ], [ 25.213559, 43.616256 ], [ 25.182397, 43.601482 ], [ 25.227341, 43.532179 ], [ 25.184971, 43.478484 ], [ 25.134898, 43.455867 ], [ 25.129929, 43.441565 ], [ 25.144996, 43.42864 ], [ 25.203078, 43.431201 ], [ 25.211404, 43.417017 ], [ 25.202596, 43.408754 ], [ 25.198499, 43.380747 ], [ 25.233187, 43.372307 ], [ 25.254613, 43.351187 ], [ 25.223686, 43.321185 ], [ 25.185071, 43.303734 ], [ 25.14043, 43.26683 ], [ 25.141532, 43.248254 ], [ 25.115091, 43.216055 ], [ 25.108352, 43.190295 ], [ 25.076597, 43.17778 ], [ 24.964553, 43.189267 ], [ 24.968241, 43.134067 ], [ 24.957255, 43.120838 ], [ 24.928022, 43.109926 ], [ 24.923673, 43.097877 ], [ 24.92362, 43.066035 ], [ 24.944448, 43.032991 ], [ 24.879773, 43.009333 ], [ 24.870792, 42.974148 ], [ 24.886238, 42.900186 ], [ 24.910628, 42.877993 ], [ 24.96249, 42.874 ], [ 25.006945, 42.80415 ], [ 25.014195, 42.763454 ], [ 25.005845, 42.75625 ], [ 25.015474, 42.756227 ], [ 25.014535, 42.748024 ], [ 25.007196, 42.737619 ], [ 24.929072, 42.728591 ], [ 24.910969, 42.718373 ], [ 24.830673, 42.726275 ], [ 24.749418, 42.709705 ], [ 24.676314, 42.725385 ], [ 24.624921, 42.776442 ], [ 24.56999, 42.790271 ], [ 24.503365, 42.79292 ], [ 24.486801, 42.786012 ], [ 24.481121, 42.763454 ], [ 24.459462, 42.751989 ], [ 24.335368, 42.753367 ], [ 24.277283, 42.77132 ], [ 24.196971, 42.764383 ], [ 24.149403, 42.775369 ], [ 24.185468, 42.813093 ], [ 24.176071, 42.822548 ], [ 24.166015, 42.918285 ], [ 24.099936, 42.940853 ], [ 24.075473, 42.9585 ], [ 24.036979, 43.055982 ], [ 23.971504, 43.062251 ], [ 23.961833, 43.034007 ], [ 23.943243, 43.026606 ], [ 23.916226, 43.043133 ], [ 23.81486, 43.052763 ], [ 23.796811, 43.066669 ], [ 23.757097, 43.068415 ], [ 23.698671, 43.028465 ], [ 23.665977, 43.035887 ], [ 23.630093, 43.057748 ], [ 23.593288, 43.035044 ], [ 23.566701, 42.99717 ], [ 23.526507, 43.018202 ], [ 23.491773, 43.07066 ], [ 23.474181, 43.075149 ], [ 23.454783, 43.099245 ], [ 23.46074, 43.119182 ], [ 23.48326, 43.135964 ], [ 23.477748, 43.148467 ], [ 23.412767, 43.160522 ], [ 23.326341, 43.157882 ], [ 23.304192, 43.128539 ], [ 23.288028, 43.122663 ], [ 23.251893, 43.128985 ], [ 23.240005, 43.112474 ], [ 23.111559, 43.114798 ], [ 23.08556, 43.148391 ], [ 23.020236, 43.197397 ], [ 23.00621, 43.192878 ], [ 22.940345, 43.205094 ], [ 22.89683, 43.228346 ], [ 22.847077, 43.280161 ], [ 22.825122, 43.328844 ], [ 22.797081, 43.342799 ], [ 22.747454, 43.386613 ], [ 22.666976, 43.402747 ], [ 22.653237, 43.426517 ], [ 22.6047, 43.43559 ], [ 22.576647, 43.45965 ], [ 22.531044, 43.479256 ], [ 22.491343, 43.561479 ], [ 22.485642, 43.642938 ], [ 22.412992, 43.69315 ], [ 22.394457, 43.756307 ], [ 22.360501, 43.812115 ], [ 22.387717, 43.876108 ], [ 22.390987, 43.925683 ], [ 22.409143, 43.947228 ], [ 22.41407, 44.003323 ], [ 22.449014, 44.015802 ], [ 22.528378, 44.021177 ], [ 22.540428, 44.032212 ], [ 22.536145, 44.045511 ], [ 22.544934, 44.053886 ], [ 22.621142, 44.06678 ], [ 22.612179, 44.109284 ], [ 22.624459, 44.155454 ], [ 22.617587, 44.168426 ], [ 22.632445, 44.177186 ], [ 22.645537, 44.203933 ], [ 22.675162, 44.215663 ], [ 22.757401, 44.189348 ], [ 22.79492, 44.162244 ], [ 22.868401, 44.133373 ], [ 22.918416, 44.102075 ], [ 23.031259, 44.083387 ], [ 23.045345, 44.070809 ], [ 23.04281, 44.052917 ], [ 23.008403, 44.012655 ], [ 22.888745, 43.987002 ], [ 22.848964, 43.9071 ], [ 22.84222, 43.874267 ], [ 22.852538, 43.850203 ], [ 22.876598, 43.835356 ] ], [ [ 24.978254, 42.748006 ], [ 24.997564, 42.742643 ], [ 25.0022, 42.749192 ], [ 24.990184, 42.757442 ], [ 24.978254, 42.748006 ] ] ] } },
{ "type": "Feature", "properties": { "loc": "BG32" }, "geometry": { "type": "Polygon", "coordinates": [ [ [ 27.271341, 44.126335 ], [ 27.293985, 44.076437 ], [ 27.354589, 44.05756 ], [ 27.399163, 44.014942 ], [ 27.47164, 44.02194 ], [ 27.607607, 44.013062 ], [ 27.645522, 44.045302 ], [ 27.673418, 44.028275 ], [ 27.69541, 43.987343 ], [ 27.64728, 43.971098 ], [ 27.64995, 43.950738 ], [ 27.620565, 43.927668 ], [ 27.628795, 43.913001 ], [ 27.614589, 43.897466 ], [ 27.595008, 43.894735 ], [ 27.568132, 43.91407 ], [ 27.54526, 43.915813 ], [ 27.531978, 43.897553 ], [ 27.535725, 43.882745 ], [ 27.521855, 43.851604 ], [ 27.501028, 43.841215 ], [ 27.481088, 43.843168 ], [ 27.450878, 43.867209 ], [ 27.423033, 43.850304 ], [ 27.397697, 43.851338 ], [ 27.372058, 43.819126 ], [ 27.276052, 43.796399 ], [ 27.232028, 43.752061 ], [ 27.210829, 43.741454 ], [ 27.203171, 43.704256 ], [ 27.232721, 43.675313 ], [ 27.219537, 43.66462 ], [ 27.119484, 43.681839 ], [ 27.110236, 43.692599 ], [ 27.116661, 43.712087 ], [ 27.110925, 43.716254 ], [ 27.064731, 43.718247 ], [ 27.001889, 43.696867 ], [ 27.031145, 43.654792 ], [ 26.990145, 43.64994 ], [ 26.951085, 43.604008 ], [ 26.912046, 43.592845 ], [ 26.89311, 43.607876 ], [ 26.869561, 43.592708 ], [ 26.863241, 43.56672 ], [ 26.805802, 43.554105 ], [ 26.804734, 43.535083 ], [ 26.821528, 43.500622 ], [ 26.803793, 43.487695 ], [ 26.767742, 43.485688 ], [ 26.761677, 43.465457 ], [ 26.719061, 43.455784 ], [ 26.740245, 43.432764 ], [ 26.73044, 43.410103 ], [ 26.684964, 43.403293 ], [ 26.677459, 43.381175 ], [ 26.65414, 43.360486 ], [ 26.642456, 43.328141 ], [ 26.558006, 43.346623 ], [ 26.497542, 43.34681 ], [ 26.472532, 43.382686 ], [ 26.50527, 43.387207 ], [ 26.492626, 43.410829 ], [ 26.468044, 43.424907 ], [ 26.464505, 43.44477 ], [ 26.373576, 43.437297 ], [ 26.363254, 43.460526 ], [ 26.374353, 43.481693 ], [ 26.370053, 43.493296 ], [ 26.258673, 43.552534 ], [ 26.228077, 43.547626 ], [ 26.219873, 43.524743 ], [ 26.188978, 43.517393 ], [ 26.137947, 43.526834 ], [ 26.047242, 43.513725 ], [ 26.027727, 43.450983 ], [ 25.979745, 43.407152 ], [ 25.950247, 43.404517 ], [ 25.943786, 43.385801 ], [ 25.95983, 43.369547 ], [ 26.009431, 43.361418 ], [ 26.014591, 43.33504 ], [ 26.004585, 43.318754 ], [ 26.046158, 43.314179 ], [ 26.09286, 43.289944 ], [ 26.090012, 43.278198 ], [ 26.057611, 43.254796 ], [ 26.080087, 43.242707 ], [ 26.113595, 43.205587 ], [ 26.116467, 43.180277 ], [ 26.073489, 43.16128 ], [ 26.061055, 43.124954 ], [ 26.071991, 43.108843 ], [ 26.057312, 43.096338 ], [ 26.078648, 43.066706 ], [ 26.08372, 43.045614 ], [ 26.099043, 43.032621 ], [ 26.125879, 43.027422 ], [ 26.11645, 43.01165 ], [ 26.086242, 42.999499 ], [ 26.078099, 42.98129 ], [ 26.128725, 42.973098 ], [ 26.167415, 42.952155 ], [ 26.170729, 42.928088 ], [ 26.157973, 42.909407 ], [ 26.054404, 42.866999 ], [ 26.0617, 42.846631 ], [ 26.054732, 42.826451 ], [ 26.007794, 42.799614 ], [ 25.965201, 42.785307 ], [ 25.920465, 42.79171 ], [ 25.837491, 42.777227 ], [ 25.72909, 42.789695 ], [ 25.694773, 42.807922 ], [ 25.632338, 42.78511 ], [ 25.614962, 42.786808 ], [ 25.612567, 42.77514 ], [ 25.623389, 42.761243 ], [ 25.608146, 42.750712 ], [ 25.570669, 42.763083 ], [ 25.543452, 42.756972 ], [ 25.447136, 42.760728 ], [ 25.410412, 42.736702 ], [ 25.360331, 42.738804 ], [ 25.271343, 42.760052 ], [ 25.241271, 42.747851 ], [ 25.207677, 42.778988 ], [ 25.184149, 42.785737 ], [ 25.088594, 42.748292 ], [ 25.037958, 42.755615 ], [ 25.014535, 42.748024 ], [ 25.006945, 42.80415 ], [ 24.96249, 42.874 ], [ 24.910628, 42.877993 ], [ 24.886238, 42.900186 ], [ 24.870792, 42.974148 ], [ 24.879773, 43.009333 ], [ 24.944448, 43.032991 ], [ 24.92362, 43.066035 ], [ 24.923673, 43.097877 ], [ 24.928022, 43.109926 ], [ 24.957255, 43.120838 ], [ 24.968241, 43.134067 ], [ 24.964553, 43.189267 ], [ 25.076597, 43.17778 ], [ 25.108352, 43.190295 ], [ 25.115091, 43.216055 ], [ 25.141532, 43.248254 ], [ 25.14043, 43.26683 ], [ 25.185071, 43.303734 ], [ 25.223686, 43.321185 ], [ 25.254613, 43.351187 ], [ 25.233187, 43.372307 ], [ 25.198499, 43.380747 ], [ 25.202596, 43.408754 ], [ 25.211404, 43.417017 ], [ 25.203078, 43.431201 ], [ 25.144996, 43.42864 ], [ 25.129929, 43.441565 ], [ 25.134898, 43.455867 ], [ 25.184971, 43.478484 ], [ 25.227341, 43.532179 ], [ 25.182397, 43.601482 ], [ 25.213559, 43.616256 ], [ 25.225533, 43.645533 ], [ 25.296373, 43.655419 ], [ 25.384504, 43.620738 ], [ 25.412957, 43.622126 ], [ 25.489672, 43.646946 ], [ 25.54454, 43.642845 ], [ 25.672201, 43.688148 ], [ 25.726077, 43.688105 ], [ 25.77771, 43.707941 ], [ 25.806787, 43.741103 ], [ 25.873627, 43.774024 ], [ 25.9543, 43.859494 ], [ 26.057965, 43.907831 ], [ 26.10412, 43.967866 ], [ 26.153507, 43.983923 ], [ 26.212169, 43.989533 ], [ 26.303838, 44.025653 ], [ 26.566729, 44.057195 ], [ 26.607614, 44.054561 ], [ 26.702601, 44.080325 ], [ 26.766281, 44.078784 ], [ 26.920926, 44.139076 ], [ 26.979453, 44.132374 ], [ 27.031611, 44.142953 ], [ 27.078837, 44.134202 ], [ 27.13568, 44.139894 ], [ 27.221996, 44.115883 ], [ 27.271341, 44.126335 ] ], [ [ 27.182437, 43.724731 ], [ 27.195869, 43.72555 ], [ 27.198191, 43.738292 ], [ 27.188369, 43.740779 ], [ 27.182437, 43.724731 ] ] ] } },
{ "type": "Feature", "properties": { "loc": "BG33" }, "geometry": { "type": "MultiPolygon", "coordinates": [ [ [ [ 28.578884, 43.738739 ], [ 28.572563, 43.724216 ], [ 28.576746, 43.700775 ], [ 28.564731, 43.693916 ], [ 28.569128, 43.651184 ], [ 28.579059, 43.636932 ], [ 28.567904, 43.60175 ], [ 28.607464, 43.539371 ], [ 28.585496, 43.490215 ], [ 28.529503, 43.423538 ], [ 28.492918, 43.404987 ], [ 28.463143, 43.369866 ], [ 28.383896, 43.404652 ], [ 28.319448, 43.417017 ], [ 28.221518, 43.399314 ], [ 28.150778, 43.404732 ], [ 28.09268, 43.376316 ], [ 28.081747, 43.363277 ], [ 28.069742, 43.327915 ], [ 28.01012, 43.225936 ], [ 27.93832, 43.208857 ], [ 27.913434, 43.186943 ], [ 27.916434, 43.176838 ], [ 27.944988, 43.162493 ], [ 27.912035, 43.06385 ], [ 27.890353, 43.037748 ], [ 27.90509, 42.932274 ], [ 27.898543, 42.916153 ], [ 27.900895, 42.857736 ], [ 27.88262, 42.838413 ], [ 27.79449, 42.829399 ], [ 27.720214, 42.856089 ], [ 27.690618, 42.881516 ], [ 27.623293, 42.897274 ], [ 27.553591, 42.885461 ], [ 27.538907, 42.874896 ], [ 27.474223, 42.890684 ], [ 27.437721, 42.882661 ], [ 27.315571, 42.938822 ], [ 27.31877, 42.962824 ], [ 27.26437, 42.979888 ], [ 27.203659, 42.983489 ], [ 27.138563, 42.956896 ], [ 27.094434, 42.95391 ], [ 27.014369, 42.926872 ], [ 26.990095, 42.943944 ], [ 26.935553, 42.937411 ], [ 26.892056, 42.947753 ], [ 26.851541, 42.940838 ], [ 26.800963, 42.947609 ], [ 26.758938, 42.906991 ], [ 26.728302, 42.899799 ], [ 26.660727, 42.901692 ], [ 26.654147, 42.90667 ], [ 26.658263, 42.92985 ], [ 26.614267, 42.929119 ], [ 26.589989, 42.920118 ], [ 26.559564, 42.926729 ], [ 26.553748, 42.946628 ], [ 26.577726, 42.985697 ], [ 26.512517, 43.014445 ], [ 26.441544, 42.997812 ], [ 26.401935, 43.022612 ], [ 26.381634, 43.026451 ], [ 26.356994, 43.018127 ], [ 26.356168, 43.03293 ], [ 26.329043, 43.036865 ], [ 26.303352, 43.026045 ], [ 26.280916, 43.02714 ], [ 26.274883, 43.016959 ], [ 26.249777, 43.008243 ], [ 26.246025, 42.981461 ], [ 26.234835, 42.968745 ], [ 26.192187, 42.971804 ], [ 26.167415, 42.952155 ], [ 26.128725, 42.973098 ], [ 26.078099, 42.98129 ], [ 26.086242, 42.999499 ], [ 26.11645, 43.01165 ], [ 26.125879, 43.027422 ], [ 26.099043, 43.032621 ], [ 26.08372, 43.045614 ], [ 26.078648, 43.066706 ], [ 26.057312, 43.096338 ], [ 26.071991, 43.108843 ], [ 26.061055, 43.124954 ], [ 26.073489, 43.16128 ], [ 26.116467, 43.180277 ], [ 26.113595, 43.205587 ], [ 26.080087, 43.242707 ], [ 26.057611, 43.254796 ], [ 26.090012, 43.278198 ], [ 26.09286, 43.289944 ], [ 26.046158, 43.314179 ], [ 26.004585, 43.318754 ], [ 26.014591, 43.33504 ], [ 26.009431, 43.361418 ], [ 25.95983, 43.369547 ], [ 25.943786, 43.385801 ], [ 25.950247, 43.404517 ], [ 25.979745, 43.407152 ], [ 26.027727, 43.450983 ], [ 26.047242, 43.513725 ], [ 26.137947, 43.526834 ], [ 26.188978, 43.517393 ], [ 26.219873, 43.524743 ], [ 26.228077, 43.547626 ], [ 26.258673, 43.552534 ], [ 26.370053, 43.493296 ], [ 26.374353, 43.481693 ], [ 26.363254, 43.460526 ], [ 26.373576, 43.437297 ], [ 26.464505, 43.44477 ], [ 26.468044, 43.424907 ], [ 26.492626, 43.410829 ], [ 26.50527, 43.387207 ], [ 26.472532, 43.382686 ], [ 26.497542, 43.34681 ], [ 26.558006, 43.346623 ], [ 26.642456, 43.328141 ], [ 26.65414, 43.360486 ], [ 26.677459, 43.381175 ], [ 26.684964, 43.403293 ], [ 26.73044, 43.410103 ], [ 26.740245, 43.432764 ], [ 26.719061, 43.455784 ], [ 26.761677, 43.465457 ], [ 26.767742, 43.485688 ], [ 26.803793, 43.487695 ], [ 26.821528, 43.500622 ], [ 26.804734, 43.535083 ], [ 26.805802, 43.554105 ], [ 26.863241, 43.56672 ], [ 26.869561, 43.592708 ], [ 26.89311, 43.607876 ], [ 26.912046, 43.592845 ], [ 26.951085, 43.604008 ], [ 26.990145, 43.64994 ], [ 27.031145, 43.654792 ], [ 27.001889, 43.696867 ], [ 27.064731, 43.718247 ], [ 27.110925, 43.716254 ], [ 27.116661, 43.712087 ], [ 27.110236, 43.692599 ], [ 27.119484, 43.681839 ], [ 27.219537, 43.66462 ], [ 27.232721, 43.675313 ], [ 27.203171, 43.704256 ], [ 27.210829, 43.741454 ], [ 27.232028, 43.752061 ], [ 27.276052, 43.796399 ], [ 27.372058, 43.819126 ], [ 27.397697, 43.851338 ], [ 27.423033, 43.850304 ], [ 27.450878, 43.867209 ], [ 27.481088, 43.843168 ], [ 27.501028, 43.841215 ], [ 27.521855, 43.851604 ], [ 27.535725, 43.882745 ], [ 27.531978, 43.897553 ], [ 27.54526, 43.915813 ], [ 27.568132, 43.91407 ], [ 27.595008, 43.894735 ], [ 27.614589, 43.897466 ], [ 27.628795, 43.913001 ], [ 27.620565, 43.927668 ], [ 27.64995, 43.950738 ], [ 27.64728, 43.971098 ], [ 27.69541, 43.987343 ], [ 27.711295, 43.960642 ], [ 27.740083, 43.954597 ], [ 27.843082, 43.967153 ], [ 27.917894, 44.005587 ], [ 27.943776, 43.982933 ], [ 27.954989, 43.939836 ], [ 28.002115, 43.84051 ], [ 28.236033, 43.759098 ], [ 28.348899, 43.751861 ], [ 28.446057, 43.734248 ], [ 28.578884, 43.738739 ] ] ], [ [ [ 27.182437, 43.724731 ], [ 27.188369, 43.740779 ], [ 27.198191, 43.738292 ], [ 27.195869, 43.72555 ], [ 27.182437, 43.724731 ] ] ] ] } },
{ "type": "Feature", "properties": { "loc": "BG34" }, "geometry": { "type": "MultiPolygon", "coordinates": [ [ [ [ 26.577726, 42.985697 ], [ 26.553748, 42.946628 ], [ 26.559564, 42.926729 ], [ 26.589989, 42.920118 ], [ 26.614267, 42.929119 ], [ 26.658263, 42.92985 ], [ 26.654147, 42.90667 ], [ 26.660727, 42.901692 ], [ 26.728302, 42.899799 ], [ 26.758938, 42.906991 ], [ 26.800963, 42.947609 ], [ 26.851541, 42.940838 ], [ 26.892056, 42.947753 ], [ 26.935553, 42.937411 ], [ 26.990095, 42.943944 ], [ 27.014369, 42.926872 ], [ 27.094434, 42.95391 ], [ 27.138563, 42.956896 ], [ 27.203659, 42.983489 ], [ 27.26437, 42.979888 ], [ 27.31877, 42.962824 ], [ 27.315571, 42.938822 ], [ 27.437721, 42.882661 ], [ 27.474223, 42.890684 ], [ 27.538907, 42.874896 ], [ 27.553591, 42.885461 ], [ 27.623293, 42.897274 ], [ 27.690618, 42.881516 ], [ 27.720214, 42.856089 ], [ 27.79449, 42.829399 ], [ 27.88262, 42.838413 ], [ 27.897262, 42.775543 ], [ 27.892193, 42.706374 ], [ 27.729746, 42.701219 ], [ 27.711376, 42.654453 ], [ 27.640246, 42.624836 ], [ 27.637652, 42.561248 ], [ 27.520468, 42.552035 ], [ 27.4527, 42.468382 ], [ 27.46263, 42.455337 ], [ 27.513833, 42.436612 ], [ 27.548151, 42.451546 ], [ 27.632134, 42.449913 ], [ 27.661694, 42.417048 ], [ 27.715531, 42.410038 ], [ 27.713534, 42.37606 ], [ 27.728256, 42.34382 ], [ 27.780555, 42.320615 ], [ 27.759278, 42.279098 ], [ 27.762584, 42.246663 ], [ 27.837414, 42.191655 ], [ 27.913382, 42.115296 ], [ 27.946524, 42.098258 ], [ 27.980878, 42.066723 ], [ 28.035513, 41.983079 ], [ 27.979065, 41.986488 ], [ 27.913564, 41.976359 ], [ 27.863097, 42.003041 ], [ 27.852496, 41.993222 ], [ 27.823536, 41.991069 ], [ 27.830631, 41.951575 ], [ 27.811311, 41.947271 ], [ 27.738838, 41.976046 ], [ 27.700896, 41.975567 ], [ 27.575952, 41.934273 ], [ 27.562844, 41.905785 ], [ 27.541668, 41.917301 ], [ 27.512456, 41.954479 ], [ 27.481977, 41.955079 ], [ 27.446421, 41.970237 ], [ 27.431818, 41.988749 ], [ 27.395302, 42.008409 ], [ 27.368213, 42.053718 ], [ 27.338737, 42.06161 ], [ 27.291931, 42.09499 ], [ 27.231589, 42.101812 ], [ 27.203148, 42.080097 ], [ 27.20311, 42.064061 ], [ 27.195888, 42.061722 ], [ 27.059651, 42.088337 ], [ 27.024729, 42.080168 ], [ 27.025801, 42.056579 ], [ 27.00679, 42.038545 ], [ 26.982675, 42.036969 ], [ 26.983962, 42.019546 ], [ 26.964111, 41.997073 ], [ 26.866635, 41.988615 ], [ 26.838549, 41.970021 ], [ 26.788155, 41.986875 ], [ 26.74896, 41.959477 ], [ 26.625653, 41.976112 ], [ 26.561545, 41.926273 ], [ 26.50814, 41.995455 ], [ 26.534697, 42.031861 ], [ 26.530984, 42.050072 ], [ 26.513007, 42.063599 ], [ 26.509362, 42.095578 ], [ 26.534038, 42.153591 ], [ 26.498352, 42.148427 ], [ 26.492813, 42.164571 ], [ 26.466556, 42.155927 ], [ 26.445442, 42.168265 ], [ 26.417967, 42.153376 ], [ 26.378722, 42.169348 ], [ 26.342207, 42.162404 ], [ 26.239336, 42.19224 ], [ 26.218424, 42.190588 ], [ 26.192734, 42.20813 ], [ 26.169415, 42.192119 ], [ 26.164984, 42.173224 ], [ 26.137376, 42.150585 ], [ 26.131026, 42.128147 ], [ 26.13628, 42.098215 ], [ 26.154931, 42.076501 ], [ 26.151774, 42.042041 ], [ 26.097644, 42.038626 ], [ 26.058374, 42.019255 ], [ 26.027242, 42.034085 ], [ 26.015731, 42.06143 ], [ 25.973046, 42.096753 ], [ 25.905082, 42.120492 ], [ 25.88026, 42.1144 ], [ 25.873355, 42.12883 ], [ 25.852398, 42.122854 ], [ 25.83131, 42.084907 ], [ 25.806893, 42.081332 ], [ 25.763388, 42.054663 ], [ 25.737136, 42.074163 ], [ 25.72018, 42.112702 ], [ 25.697564, 42.134878 ], [ 25.672816, 42.143213 ], [ 25.637056, 42.126299 ], [ 25.622343, 42.132365 ], [ 25.626657, 42.182352 ], [ 25.613074, 42.196796 ], [ 25.594429, 42.19519 ], [ 25.582151, 42.176562 ], [ 25.551703, 42.158963 ], [ 25.513286, 42.174933 ], [ 25.462299, 42.159613 ], [ 25.463005, 42.120623 ], [ 25.424794, 42.091895 ], [ 25.355366, 42.120102 ], [ 25.331373, 42.11743 ], [ 25.313816, 42.146531 ], [ 25.27897, 42.153674 ], [ 25.259652, 42.181163 ], [ 25.211694, 42.161572 ], [ 25.170074, 42.178711 ], [ 25.158805, 42.151837 ], [ 25.083297, 42.185455 ], [ 25.086463, 42.25525 ], [ 25.153562, 42.264286 ], [ 25.172973, 42.274814 ], [ 25.152286, 42.290132 ], [ 25.128076, 42.289932 ], [ 25.11746, 42.342232 ], [ 25.121627, 42.413011 ], [ 25.132067, 42.420681 ], [ 25.188013, 42.392806 ], [ 25.198756, 42.417334 ], [ 25.15603, 42.450567 ], [ 25.187048, 42.490815 ], [ 25.155797, 42.504128 ], [ 25.07855, 42.497743 ], [ 25.019629, 42.541122 ], [ 25.004762, 42.587771 ], [ 25.02119, 42.656327 ], [ 25.01848, 42.707535 ], [ 25.007196, 42.737619 ], [ 25.014535, 42.748024 ], [ 25.037958, 42.755615 ], [ 25.088594, 42.748292 ], [ 25.184149, 42.785737 ], [ 25.207677, 42.778988 ], [ 25.241271, 42.747851 ], [ 25.271343, 42.760052 ], [ 25.360331, 42.738804 ], [ 25.410412, 42.736702 ], [ 25.447136, 42.760728 ], [ 25.543452, 42.756972 ], [ 25.570669, 42.763083 ], [ 25.608146, 42.750712 ], [ 25.623389, 42.761243 ], [ 25.612567, 42.77514 ], [ 25.614962, 42.786808 ], [ 25.632338, 42.78511 ], [ 25.694773, 42.807922 ], [ 25.72909, 42.789695 ], [ 25.837491, 42.777227 ], [ 25.920465, 42.79171 ], [ 25.965201, 42.785307 ], [ 26.054732, 42.826451 ], [ 26.0617, 42.846631 ], [ 26.054404, 42.866999 ], [ 26.157973, 42.909407 ], [ 26.170729, 42.928088 ], [ 26.167415, 42.952155 ], [ 26.192187, 42.971804 ], [ 26.234835, 42.968745 ], [ 26.246025, 42.981461 ], [ 26.249777, 43.008243 ], [ 26.274883, 43.016959 ], [ 26.280916, 43.02714 ], [ 26.303352, 43.026045 ], [ 26.329043, 43.036865 ], [ 26.356168, 43.03293 ], [ 26.356994, 43.018127 ], [ 26.381634, 43.026451 ], [ 26.401935, 43.022612 ], [ 26.441544, 42.997812 ], [ 26.512517, 43.014445 ], [ 26.577726, 42.985697 ] ] ], [ [ [ 25.014195, 42.763454 ], [ 25.010344, 42.753509 ], [ 25.005845, 42.75625 ], [ 25.014195, 42.763454 ] ] ], [ [ [ 24.978254, 42.748006 ], [ 24.990184, 42.757442 ], [ 25.0022, 42.749192 ], [ 24.997564, 42.742643 ], [ 24.978254, 42.748006 ] ] ] ] } },
{ "type": "Feature", "properties": { "loc": "BG41" }, "geometry": { "type": "Polygon", "coordinates": [ [ [ 23.412767, 43.160522 ], [ 23.477748, 43.148467 ], [ 23.48326, 43.135964 ], [ 23.46074, 43.119182 ], [ 23.454783, 43.099245 ], [ 23.474181, 43.075149 ], [ 23.491773, 43.07066 ], [ 23.526507, 43.018202 ], [ 23.566701, 42.99717 ], [ 23.593288, 43.035044 ], [ 23.630093, 43.057748 ], [ 23.665977, 43.035887 ], [ 23.698671, 43.028465 ], [ 23.757097, 43.068415 ], [ 23.796811, 43.066669 ], [ 23.81486, 43.052763 ], [ 23.916226, 43.043133 ], [ 23.943243, 43.026606 ], [ 23.961833, 43.034007 ], [ 23.971504, 43.062251 ], [ 24.036979, 43.055982 ], [ 24.075473, 42.9585 ], [ 24.099936, 42.940853 ], [ 24.166015, 42.918285 ], [ 24.176071, 42.822548 ], [ 24.185468, 42.813093 ], [ 24.149403, 42.775369 ], [ 24.196971, 42.764383 ], [ 24.277283, 42.77132 ], [ 24.335368, 42.753367 ], [ 24.385927, 42.749953 ], [ 24.364984, 42.67589 ], [ 24.399991, 42.649421 ], [ 24.438034, 42.634729 ], [ 24.47999, 42.593442 ], [ 24.459314, 42.558949 ], [ 24.42101, 42.553064 ], [ 24.399577, 42.565102 ], [ 24.354966, 42.554559 ], [ 24.284237, 42.62003 ], [ 24.22838, 42.627655 ], [ 24.159446, 42.616078 ], [ 24.118674, 42.572894 ], [ 24.082996, 42.570287 ], [ 24.04029, 42.548968 ], [ 23.967309, 42.570069 ], [ 23.913352, 42.556708 ], [ 23.894448, 42.540633 ], [ 23.911631, 42.521224 ], [ 23.915504, 42.502972 ], [ 23.948328, 42.482735 ], [ 23.95856, 42.463647 ], [ 24.004167, 42.457602 ], [ 24.044054, 42.465044 ], [ 24.062712, 42.450943 ], [ 24.03092, 42.394582 ], [ 23.959529, 42.379444 ], [ 23.944467, 42.329691 ], [ 23.991216, 42.297574 ], [ 23.974558, 42.275032 ], [ 23.961157, 42.268297 ], [ 23.93448, 42.273315 ], [ 23.915758, 42.293853 ], [ 23.898337, 42.296054 ], [ 23.865843, 42.233287 ], [ 23.837481, 42.210839 ], [ 23.806938, 42.204452 ], [ 23.77226, 42.181185 ], [ 23.764697, 42.157983 ], [ 23.810254, 42.129225 ], [ 23.794251, 42.114512 ], [ 23.800453, 42.090943 ], [ 23.79618, 42.058047 ], [ 23.82295, 42.037901 ], [ 23.758807, 41.985868 ], [ 23.766553, 41.959856 ], [ 23.757328, 41.931428 ], [ 23.786264, 41.890044 ], [ 23.780397, 41.871088 ], [ 23.790352, 41.854777 ], [ 23.789047, 41.834484 ], [ 23.863305, 41.795264 ], [ 23.899046, 41.792953 ], [ 24.103366, 41.653529 ], [ 24.086419, 41.611326 ], [ 24.107292, 41.591479 ], [ 24.075009, 41.569941 ], [ 24.059744, 41.522112 ], [ 24.071116, 41.470074 ], [ 24.047657, 41.453847 ], [ 24.016052, 41.464297 ], [ 23.967144, 41.44095 ], [ 23.914906, 41.478936 ], [ 23.896041, 41.453469 ], [ 23.801486, 41.435311 ], [ 23.768361, 41.400017 ], [ 23.674129, 41.408521 ], [ 23.642566, 41.380869 ], [ 23.624223, 41.375727 ], [ 23.551168, 41.388324 ], [ 23.523976, 41.403444 ], [ 23.441029, 41.40498 ], [ 23.401826, 41.398653 ], [ 23.343646, 41.367197 ], [ 23.321335, 41.397097 ], [ 23.295637, 41.400802 ], [ 23.232747, 41.373628 ], [ 23.223102, 41.33776 ], [ 23.195685, 41.322892 ], [ 23.101145, 41.317593 ], [ 23.034674, 41.331825 ], [ 22.927592, 41.338539 ], [ 22.963749, 41.357134 ], [ 22.964708, 41.394964 ], [ 22.955537, 41.418074 ], [ 22.976687, 41.447112 ], [ 22.959272, 41.488418 ], [ 22.968328, 41.519835 ], [ 22.960103, 41.53658 ], [ 22.971229, 41.560888 ], [ 22.950729, 41.594381 ], [ 22.950923, 41.636576 ], [ 22.980488, 41.649472 ], [ 23.030967, 41.708732 ], [ 23.031854, 41.723078 ], [ 23.007789, 41.766011 ], [ 22.966505, 41.77457 ], [ 22.92666, 41.861353 ], [ 22.901679, 41.88177 ], [ 22.89471, 41.911831 ], [ 22.875915, 41.935209 ], [ 22.867214, 42.022199 ], [ 22.831142, 42.022779 ], [ 22.800892, 42.041761 ], [ 22.778575, 42.038098 ], [ 22.738866, 42.048083 ], [ 22.715483, 42.066632 ], [ 22.673965, 42.066447 ], [ 22.602226, 42.099126 ], [ 22.510412, 42.155158 ], [ 22.499461, 42.194488 ], [ 22.469852, 42.205213 ], [ 22.436351, 42.253265 ], [ 22.380165, 42.305605 ], [ 22.360207, 42.311157 ], [ 22.370326, 42.321762 ], [ 22.407227, 42.331252 ], [ 22.435983, 42.325625 ], [ 22.454667, 42.334408 ], [ 22.462679, 42.364022 ], [ 22.481958, 42.391959 ], [ 22.516221, 42.398436 ], [ 22.534054, 42.422658 ], [ 22.556993, 42.480632 ], [ 22.536743, 42.515422 ], [ 22.4726, 42.559585 ], [ 22.441013, 42.569113 ], [ 22.473566, 42.673209 ], [ 22.46337, 42.688463 ], [ 22.498865, 42.737215 ], [ 22.443821, 42.805179 ], [ 22.442822, 42.825456 ], [ 22.480589, 42.836358 ], [ 22.511903, 42.856876 ], [ 22.515511, 42.868538 ], [ 22.537369, 42.878081 ], [ 22.56936, 42.871411 ], [ 22.586673, 42.888711 ], [ 22.610833, 42.893692 ], [ 22.677385, 42.869957 ], [ 22.696981, 42.881645 ], [ 22.7484, 42.889787 ], [ 22.775731, 42.924629 ], [ 22.771957, 42.945397 ], [ 22.788166, 42.980691 ], [ 22.843972, 43.002634 ], [ 22.893449, 43.034961 ], [ 22.931237, 43.086942 ], [ 22.983808, 43.115074 ], [ 22.994874, 43.141035 ], [ 22.990114, 43.168894 ], [ 23.00621, 43.192878 ], [ 23.020236, 43.197397 ], [ 23.034974, 43.188545 ], [ 23.08556, 43.148391 ], [ 23.111559, 43.114798 ], [ 23.240005, 43.112474 ], [ 23.251893, 43.128985 ], [ 23.288028, 43.122663 ], [ 23.304192, 43.128539 ], [ 23.326341, 43.157882 ], [ 23.412767, 43.160522 ] ] ] } },
{ "type": "Feature", "properties": { "loc": "BG42" }, "geometry": { "type": "Polygon", "coordinates": [ [ [ 25.007196, 42.737619 ], [ 25.01848, 42.707535 ], [ 25.02119, 42.656327 ], [ 25.004762, 42.587771 ], [ 25.019629, 42.541122 ], [ 25.07855, 42.497743 ], [ 25.155797, 42.504128 ], [ 25.187048, 42.490815 ], [ 25.15603, 42.450567 ], [ 25.198756, 42.417334 ], [ 25.188013, 42.392806 ], [ 25.132067, 42.420681 ], [ 25.121627, 42.413011 ], [ 25.11746, 42.342232 ], [ 25.128076, 42.289932 ], [ 25.152286, 42.290132 ], [ 25.172973, 42.274814 ], [ 25.153562, 42.264286 ], [ 25.086463, 42.25525 ], [ 25.083297, 42.185455 ], [ 25.158805, 42.151837 ], [ 25.170074, 42.178711 ], [ 25.211694, 42.161572 ], [ 25.259652, 42.181163 ], [ 25.27897, 42.153674 ], [ 25.313816, 42.146531 ], [ 25.331373, 42.11743 ], [ 25.355366, 42.120102 ], [ 25.424794, 42.091895 ], [ 25.463005, 42.120623 ], [ 25.462299, 42.159613 ], [ 25.513286, 42.174933 ], [ 25.551703, 42.158963 ], [ 25.582151, 42.176562 ], [ 25.594429, 42.19519 ], [ 25.613074, 42.196796 ], [ 25.626657, 42.182352 ], [ 25.622343, 42.132365 ], [ 25.637056, 42.126299 ], [ 25.672816, 42.143213 ], [ 25.697564, 42.134878 ], [ 25.72018, 42.112702 ], [ 25.737136, 42.074163 ], [ 25.763388, 42.054663 ], [ 25.806893, 42.081332 ], [ 25.83131, 42.084907 ], [ 25.852398, 42.122854 ], [ 25.873355, 42.12883 ], [ 25.88026, 42.1144 ], [ 25.905082, 42.120492 ], [ 25.973046, 42.096753 ], [ 26.015731, 42.06143 ], [ 26.027242, 42.034085 ], [ 26.058374, 42.019255 ], [ 26.097644, 42.038626 ], [ 26.151774, 42.042041 ], [ 26.154931, 42.076501 ], [ 26.13628, 42.098215 ], [ 26.131026, 42.128147 ], [ 26.137376, 42.150585 ], [ 26.164984, 42.173224 ], [ 26.169415, 42.192119 ], [ 26.192734, 42.20813 ], [ 26.218424, 42.190588 ], [ 26.239336, 42.19224 ], [ 26.342207, 42.162404 ], [ 26.378722, 42.169348 ], [ 26.417967, 42.153376 ], [ 26.445442, 42.168265 ], [ 26.466556, 42.155927 ], [ 26.492813, 42.164571 ], [ 26.498352, 42.148427 ], [ 26.534038, 42.153591 ], [ 26.509362, 42.095578 ], [ 26.513007, 42.063599 ], [ 26.530984, 42.050072 ], [ 26.534697, 42.031861 ], [ 26.50814, 41.995455 ], [ 26.58121, 41.902924 ], [ 26.571098, 41.887002 ], [ 26.576991, 41.872664 ], [ 26.536829, 41.824986 ], [ 26.36604, 41.815793 ], [ 26.329264, 41.746323 ], [ 26.357879, 41.711104 ], [ 26.286201, 41.712327 ], [ 26.230208, 41.737591 ], [ 26.205735, 41.733972 ], [ 26.168794, 41.747038 ], [ 26.125806, 41.730207 ], [ 26.110349, 41.715723 ], [ 26.072596, 41.708557 ], [ 26.062104, 41.690583 ], [ 26.070107, 41.653067 ], [ 26.100745, 41.627226 ], [ 26.135975, 41.628917 ], [ 26.15126, 41.602947 ], [ 26.148963, 41.558638 ], [ 26.178468, 41.547396 ], [ 26.182225, 41.518462 ], [ 26.155023, 41.479174 ], [ 26.192034, 41.44242 ], [ 26.164179, 41.422742 ], [ 26.156129, 41.390702 ], [ 26.129141, 41.356541 ], [ 26.087594, 41.347548 ], [ 26.02928, 41.348385 ], [ 25.985725, 41.32217 ], [ 25.935041, 41.320183 ], [ 25.906438, 41.307575 ], [ 25.880482, 41.307745 ], [ 25.869632, 41.326597 ], [ 25.825749, 41.344914 ], [ 25.778331, 41.323106 ], [ 25.722594, 41.315853 ], [ 25.706868, 41.293868 ], [ 25.655763, 41.312938 ], [ 25.614585, 41.304357 ], [ 25.582151, 41.314968 ], [ 25.550203, 41.312531 ], [ 25.527722, 41.279647 ], [ 25.472803, 41.286827 ], [ 25.42244, 41.2644 ], [ 25.36832, 41.25811 ], [ 25.332714, 41.242129 ], [ 25.281688, 41.238245 ], [ 25.237133, 41.248297 ], [ 25.217009, 41.283879 ], [ 25.179376, 41.310188 ], [ 25.132507, 41.32527 ], [ 25.120319, 41.341554 ], [ 25.088095, 41.337725 ], [ 25.055791, 41.363541 ], [ 24.97525, 41.377933 ], [ 24.911779, 41.407638 ], [ 24.874339, 41.392299 ], [ 24.822425, 41.399214 ], [ 24.811675, 41.352726 ], [ 24.8016, 41.349279 ], [ 24.749317, 41.382517 ], [ 24.722859, 41.414969 ], [ 24.668149, 41.418939 ], [ 24.648846, 41.432763 ], [ 24.609638, 41.431449 ], [ 24.595494, 41.460799 ], [ 24.566929, 41.491177 ], [ 24.548995, 41.549066 ], [ 24.528467, 41.564423 ], [ 24.482502, 41.553347 ], [ 24.449088, 41.526307 ], [ 24.400761, 41.53631 ], [ 24.368869, 41.521848 ], [ 24.309287, 41.515768 ], [ 24.294156, 41.544252 ], [ 24.261593, 41.569097 ], [ 24.211565, 41.545994 ], [ 24.18551, 41.520763 ], [ 24.103254, 41.546822 ], [ 24.059744, 41.522112 ], [ 24.075009, 41.569941 ], [ 24.107292, 41.591479 ], [ 24.086419, 41.611326 ], [ 24.103366, 41.653529 ], [ 23.899046, 41.792953 ], [ 23.863305, 41.795264 ], [ 23.789047, 41.834484 ], [ 23.790352, 41.854777 ], [ 23.780397, 41.871088 ], [ 23.786264, 41.890044 ], [ 23.757328, 41.931428 ], [ 23.766553, 41.959856 ], [ 23.758807, 41.985868 ], [ 23.82295, 42.037901 ], [ 23.79618, 42.058047 ], [ 23.800453, 42.090943 ], [ 23.794251, 42.114512 ], [ 23.810254, 42.129225 ], [ 23.764697, 42.157983 ], [ 23.77226, 42.181185 ], [ 23.806938, 42.204452 ], [ 23.837481, 42.210839 ], [ 23.865843, 42.233287 ], [ 23.898337, 42.296054 ], [ 23.915758, 42.293853 ], [ 23.93448, 42.273315 ], [ 23.961157, 42.268297 ], [ 23.974558, 42.275032 ], [ 23.991216, 42.297574 ], [ 23.944467, 42.329691 ], [ 23.959529, 42.379444 ], [ 24.03092, 42.394582 ], [ 24.062712, 42.450943 ], [ 24.044054, 42.465044 ], [ 24.004167, 42.457602 ], [ 23.95856, 42.463647 ], [ 23.948328, 42.482735 ], [ 23.915504, 42.502972 ], [ 23.911631, 42.521224 ], [ 23.894448, 42.540633 ], [ 23.913352, 42.556708 ], [ 23.967309, 42.570069 ], [ 24.04029, 42.548968 ], [ 24.082996, 42.570287 ], [ 24.118674, 42.572894 ], [ 24.159446, 42.616078 ], [ 24.22838, 42.627655 ], [ 24.284237, 42.62003 ], [ 24.354966, 42.554559 ], [ 24.399577, 42.565102 ], [ 24.42101, 42.553064 ], [ 24.459314, 42.558949 ], [ 24.47999, 42.593442 ], [ 24.438034, 42.634729 ], [ 24.399991, 42.649421 ], [ 24.364984, 42.67589 ], [ 24.385927, 42.749953 ], [ 24.459462, 42.751989 ], [ 24.481121, 42.763454 ], [ 24.486801, 42.786012 ], [ 24.503365, 42.79292 ], [ 24.56999, 42.790271 ], [ 24.624921, 42.776442 ], [ 24.676314, 42.725385 ], [ 24.749418, 42.709705 ], [ 24.830673, 42.726275 ], [ 24.910969, 42.718373 ], [ 24.929072, 42.728591 ], [ 25.007196, 42.737619 ] ] ] } }
]
}
