{
"type": "FeatureCollection",
"name": "border_ZA",
"crs": { "type": "name", "properties": { "name": "urn:ogc:def:crs:OGC:1.3:CRS84" } },
"features": [
{ "type": "Feature", "properties": { }, "geometry": { "type": "Polygon", "coordinates": [ [ [ 16.344976840895242, -28.576705010697701 ], [ 16.824017368240902, -28.08216155366447 ], [ 17.218928663815404, -28.355943291946812 ], [ 17.387497185951503, -28.783514092729781 ], [ 18.464899122804752, -29.045461928017279 ], [ 19.002127312911085, -28.972443129188868 ], [ 19.894734327888614, -28.461104831660776 ], [ 19.895767856534434, -24.767790215760591 ], [ 20.165725538827189, -24.917961928000771 ], [ 20.758609246511838, -25.86813648855145 ], [ 20.66647016773544, -26.477453301704923 ], [ 20.889609002371738, -26.828542982695915 ], [ 21.605896030369394, -26.726533705351756 ], [ 22.579531691180591, -25.979447523708146 ], [ 22.824271274514899, -25.500458672794771 ], [ 23.312096795350186, -25.26868987396572 ], [ 23.73356977712271, -25.390129489851617 ], [ 24.211266717228796, -25.670215752873574 ], [ 25.025170525825786, -25.719670098576898 ], [ 25.664666375437719, -25.486816094669713 ], [ 25.941652052522159, -24.696373386333221 ], [ 26.485753208123299, -24.616326592713104 ], [ 26.786406691197413, -24.240690606383485 ], [ 27.119409620886245, -23.574323011979775 ], [ 28.017235955525251, -22.827753594659079 ], [ 29.43218834810904, -22.091312758067588 ], [ 29.839036899542972, -22.102216485281176 ], [ 30.322883335091774, -22.271611830333935 ], [ 30.65986535006709, -22.151567478119915 ], [ 31.191409132621288, -22.251509698172399 ], [ 31.930588820124253, -24.369416599222539 ], [ 31.752408481581881, -25.484283949487413 ], [ 31.83777794772806, -25.843331801051349 ], [ 31.333157586397903, -25.66019052500895 ], [ 31.044079624157149, -25.731452325139443 ], [ 30.949666782359913, -26.022649021104151 ], [ 30.67660851412964, -26.398078301704608 ], [ 30.68596194837448, -26.743845310169533 ], [ 31.282773064913329, -27.285879408478998 ], [ 31.86806033705108, -27.177927341421277 ], [ 32.071665480281069, -26.733820082304909 ], [ 32.830120477028885, -26.742191664336197 ], [ 32.580264926897684, -27.470157566031816 ], [ 32.462132602678452, -28.301011244420557 ], [ 32.203388706193039, -28.752404880490069 ], [ 31.325561150851001, -29.401977634398914 ], [ 30.055716180142781, -31.140269463832958 ], [ 28.2197558936771, -32.771952813448856 ], [ 27.464608188595975, -33.226963799778801 ], [ 26.419452345492825, -33.614950453426189 ], [ 25.909664340933489, -33.667040297176399 ], [ 25.780628289500697, -33.944646091448341 ], [ 25.172861769315972, -33.796851495093584 ], [ 24.677853224392123, -33.987175795224552 ], [ 23.594043409934642, -33.794474379208154 ], [ 22.988188917744736, -33.916430759416983 ], [ 22.574157342222236, -33.864082533505311 ], [ 21.542799106541025, -34.258838799782936 ], [ 20.689052768647002, -34.417175388325234 ], [ 20.071261020597632, -34.795136814107991 ], [ 19.616405063564571, -34.819166355123713 ], [ 19.193278435958717, -34.462598972309792 ], [ 18.85531456876987, -34.444305515278465 ], [ 18.42464318204938, -33.99787281670897 ], [ 18.377410922934615, -34.136520684548067 ], [ 18.24449913907992, -33.86775156019803 ], [ 18.250080193767445, -33.281430759414441 ], [ 17.925190463948439, -32.611290785453427 ], [ 18.247909783611192, -32.42913136162457 ], [ 18.221761508871481, -31.661632989225669 ], [ 17.566917758868868, -30.725721123987547 ], [ 16.344976840895242, -28.576705010697701 ] ], [ [ 29.325166456832591, -29.257386976846256 ], [ 28.541700066855498, -28.647501722937569 ], [ 28.074338413207784, -28.851468601193588 ], [ 27.532511020627478, -29.24271087007536 ], [ 26.999261915807637, -29.875953871379984 ], [ 27.749397006956485, -30.645105889612225 ], [ 28.107204624145425, -30.545732110314951 ], [ 28.29106937023991, -30.2262167294543 ], [ 28.848399692507741, -30.070050551068256 ], [ 29.325166456832591, -29.257386976846256 ] ] ] } }
]
}
