{
"type": "FeatureCollection",
"name": "border_MX",
"crs": { "type": "name", "properties": { "name": "urn:ogc:def:crs:OGC:1.3:CRS84" } },
"features": [
{ "type": "Feature", "properties": { }, "geometry": { "type": "Polygon", "coordinates": [ [ [ -117.127759999999853, 32.53534 ], [ -114.72139, 32.72083 ], [ -114.815, 32.52528 ], [ -111.02361, 31.33472 ], [ -108.24194, 31.34222 ], [ -108.24, 31.754853718166373 ], [ -106.50758999999988, 31.75452 ], [ -106.1429, 31.39995 ], [ -105.03737, 30.64402 ], [ -104.456969999999899, 29.57196 ], [ -103.94, 29.27 ], [ -103.11, 28.97 ], [ -102.48, 29.76 ], [ -101.6624, 29.7793 ], [ -100.9576, 29.380710000000136 ], [ -100.11, 28.110000000000127 ], [ -99.52, 27.54 ], [ -99.3, 26.84 ], [ -99.02, 26.37 ], [ -97.53, 25.84 ], [ -97.140008307670712, 25.869997463478398 ], [ -97.528072475966553, 24.9921440699203 ], [ -97.702945522842242, 24.272343044526735 ], [ -97.776041836319052, 22.93257986092766 ], [ -97.872366706111109, 22.44421173755336 ], [ -97.699043952204192, 21.898689480064263 ], [ -97.388959520236767, 21.411018988525825 ], [ -97.189333462293291, 20.635433254473128 ], [ -96.525575527720321, 19.890930894444068 ], [ -96.292127244841765, 19.320371405509547 ], [ -95.900884975959968, 18.82802419684873 ], [ -94.839063483442715, 18.562717393462208 ], [ -94.425729539756219, 18.144370835843347 ], [ -93.548651292682393, 18.423836981677937 ], [ -92.786113857783505, 18.524838568592259 ], [ -91.407903408559264, 18.87608327888023 ], [ -90.771869879910867, 19.284120388256781 ], [ -90.533589850613055, 19.867418117751299 ], [ -90.451475999701245, 20.707521877520435 ], [ -90.278618333684904, 20.999855454995554 ], [ -89.601321173851488, 21.261725775634488 ], [ -88.543866339862859, 21.49367544197662 ], [ -87.658416510757718, 21.458845526611981 ], [ -87.051890224948067, 21.543543199138298 ], [ -86.811982388032959, 21.331514797444754 ], [ -86.845907965832623, 20.849864610268355 ], [ -87.383291185235862, 20.25540477139873 ], [ -87.62105445021075, 19.646553046135921 ], [ -87.436750454441778, 19.472403469312269 ], [ -87.837191128271513, 18.25981598558343 ], [ -88.090664028663184, 18.516647854074051 ], [ -88.490122850279349, 18.486830552641607 ], [ -88.848343878926613, 17.883198147040233 ], [ -89.029857347351822, 18.001511338772488 ], [ -89.150909389995533, 17.955467637600421 ], [ -89.14308041050333, 17.808318996649405 ], [ -91.001519945015957, 17.81759491624571 ], [ -91.002269253284211, 17.25465770107418 ], [ -91.453921271515156, 17.252177232324172 ], [ -90.711821865587723, 16.687483018454728 ], [ -90.600846727240935, 16.47077789963879 ], [ -90.438866950222035, 16.410109768128095 ], [ -90.464472622422662, 16.069562079324655 ], [ -91.747960171255954, 16.066564846251765 ], [ -92.229248623406306, 15.251446641495875 ], [ -92.087215949252069, 15.064584662328441 ], [ -92.203229539747326, 14.830102850804069 ], [ -92.227750006869826, 14.538828640190928 ], [ -93.35946387406176, 15.615429592343673 ], [ -93.875168830118525, 15.940164292865916 ], [ -94.691656460330137, 16.200975246642884 ], [ -95.250227016973042, 16.128318182840644 ], [ -96.053382127653322, 15.752087917539598 ], [ -96.557434048228288, 15.653515122942792 ], [ -98.01302995480961, 16.107311713113916 ], [ -98.947675747456515, 16.566043402568766 ], [ -99.697397427147052, 16.706164048728169 ], [ -100.829498867581322, 17.17107107184205 ], [ -101.666088629954459, 17.649026394109626 ], [ -101.918528001700224, 17.916090196193977 ], [ -102.478132086988921, 17.975750637275098 ], [ -103.500989549558085, 18.292294623278849 ], [ -103.917527432046825, 18.748571682200009 ], [ -104.992009650475495, 19.316133938061682 ], [ -105.49303849976144, 19.946767279535436 ], [ -105.731396043707662, 20.434101874264115 ], [ -105.39777299683135, 20.531718654863425 ], [ -105.50066077352443, 20.816895046466129 ], [ -105.270752326257934, 21.076284898355141 ], [ -105.265817226974036, 21.422103583252351 ], [ -105.603160976975403, 21.871145941652571 ], [ -105.693413865973127, 22.269080308516152 ], [ -106.028716396898972, 22.773752346278627 ], [ -106.90998043498837, 23.767774359628902 ], [ -107.915448778091388, 24.54891531015295 ], [ -108.401904873470983, 25.172313951105934 ], [ -109.260198737406654, 25.580609442644061 ], [ -109.444089321717343, 25.82488393808768 ], [ -109.291643846456282, 26.442934068298428 ], [ -109.801457689231825, 26.676175645447927 ], [ -110.391731737085706, 27.16211497650454 ], [ -110.641018846461634, 27.859876003525528 ], [ -111.178918830187854, 27.94124054616907 ], [ -112.228234626090398, 28.954408677683489 ], [ -112.271823696728688, 29.266844387320077 ], [ -112.809594489373978, 30.021113593052348 ], [ -113.163810594518679, 30.786880804969428 ], [ -113.14866939985717, 31.170965887978923 ], [ -113.871881069781864, 31.567608344035193 ], [ -114.20573666060352, 31.524045111613134 ], [ -114.776451178835032, 31.79953217216115 ], [ -114.936699795372135, 31.393484605427602 ], [ -114.771231859173497, 30.913617255165263 ], [ -114.673899298951767, 30.162681179315996 ], [ -113.424053107540544, 28.82617361095123 ], [ -113.27196936730553, 28.754782619739899 ], [ -113.140039435664391, 28.411289374295961 ], [ -112.962298346796501, 28.42519033458251 ], [ -112.761587083774884, 27.780216783147523 ], [ -112.457910529411663, 27.525813706974759 ], [ -112.244951951936798, 27.171726792910761 ], [ -111.616489020619213, 26.662817287700477 ], [ -111.284674648873022, 25.732589830014433 ], [ -110.710006883571339, 24.826004340101861 ], [ -110.655048997828885, 24.298594672131117 ], [ -110.172856208113444, 24.265547593680424 ], [ -109.409104377055712, 23.364672349536249 ], [ -109.433392300232924, 23.185587673428699 ], [ -109.854219326601708, 22.818271592698068 ], [ -110.031391974714438, 22.823077500901206 ], [ -110.295070970483664, 23.430973212166691 ], [ -110.949501309028051, 24.000964260345995 ], [ -112.182035895621482, 24.738412787367167 ], [ -112.148988817170846, 25.470125230404051 ], [ -112.300710822379699, 26.012004299416617 ], [ -113.464670783321935, 26.768185533143424 ], [ -113.596729906043834, 26.639459540304472 ], [ -113.848936733844255, 26.90006378835244 ], [ -114.465746629680041, 27.142090358991368 ], [ -115.055142178185008, 27.722726752222911 ], [ -114.982252570437424, 27.798200181585116 ], [ -114.570365566854946, 27.741485297144891 ], [ -114.19932878299926, 28.115002549750557 ], [ -114.162018398884641, 28.566111965442303 ], [ -114.931842210736647, 29.27947927501549 ], [ -115.518653937626993, 29.556361599235402 ], [ -116.721526252084971, 31.635743720012044 ], [ -117.127759999999853, 32.53534 ] ] ] } }
]
}
