{
"type": "FeatureCollection",
"name": "regions_CZ",
"crs": { "type": "name", "properties": { "name": "urn:ogc:def:crs:OGC:1.3:CRS84" } },
"features": [
{ "type": "Feature", "properties": { "loc": "CZ064" }, "geometry": { "type": "Polygon", "coordinates": [ [ [ 16.940278, 48.617245 ], [ 16.923185, 48.62362 ], [ 16.915933, 48.696369 ], [ 16.900396, 48.71514 ], [ 16.799697, 48.709666 ], [ 16.722506, 48.736805 ], [ 16.683897, 48.730363 ], [ 16.662476, 48.779948 ], [ 16.596437, 48.783202 ], [ 16.541868, 48.811517 ], [ 16.459381, 48.804777 ], [ 16.411206, 48.748037 ], [ 16.368198, 48.72904 ], [ 16.345195, 48.742084 ], [ 16.096692, 48.746697 ], [ 15.994506, 48.780104 ], [ 15.955014, 48.803673 ], [ 15.954397, 48.821254 ], [ 15.840326, 48.873973 ], [ 15.783363, 48.873513 ], [ 15.753634, 48.852178 ], [ 15.689115, 48.857481 ], [ 15.61357, 48.896096 ], [ 15.54245, 48.907697 ], [ 15.586757, 48.947159 ], [ 15.644403, 48.943591 ], [ 15.692521, 48.96587 ], [ 15.733201, 48.952759 ], [ 15.812749, 49.005143 ], [ 15.869073, 49.011131 ], [ 15.888409, 49.035196 ], [ 15.948664, 49.052164 ], [ 16.002227, 49.030208 ], [ 16.114636, 49.040253 ], [ 16.143812, 49.067437 ], [ 16.214781, 49.079213 ], [ 16.24867, 49.108434 ], [ 16.216591, 49.133458 ], [ 16.239406, 49.14503 ], [ 16.235373, 49.16942 ], [ 16.267788, 49.185006 ], [ 16.238231, 49.224029 ], [ 16.281547, 49.259706 ], [ 16.260541, 49.284489 ], [ 16.287667, 49.311648 ], [ 16.249451, 49.324235 ], [ 16.225184, 49.352186 ], [ 16.233116, 49.390613 ], [ 16.269436, 49.425505 ], [ 16.325952, 49.43557 ], [ 16.309473, 49.452309 ], [ 16.320788, 49.465847 ], [ 16.376835, 49.457977 ], [ 16.37006, 49.493572 ], [ 16.415398, 49.522423 ], [ 16.379662, 49.550011 ], [ 16.393628, 49.58061 ], [ 16.433726, 49.595159 ], [ 16.532502, 49.593034 ], [ 16.553945, 49.624401 ], [ 16.708941, 49.621449 ], [ 16.8042, 49.598813 ], [ 16.793285, 49.576173 ], [ 16.747822, 49.583074 ], [ 16.746248, 49.558967 ], [ 16.802016, 49.52912 ], [ 16.788011, 49.496422 ], [ 16.821335, 49.437617 ], [ 16.803148, 49.423671 ], [ 16.810077, 49.406843 ], [ 16.866616, 49.389533 ], [ 16.909311, 49.430107 ], [ 16.87622, 49.482853 ], [ 16.909649, 49.497263 ], [ 16.942623, 49.490665 ], [ 16.982154, 49.455132 ], [ 17.028914, 49.373047 ], [ 17.134054, 49.324248 ], [ 17.159902, 49.275057 ], [ 17.134223, 49.24594 ], [ 17.139218, 49.214434 ], [ 17.157547, 49.177307 ], [ 17.196598, 49.180131 ], [ 17.200377, 49.16874 ], [ 17.184955, 49.140017 ], [ 17.11548, 49.099802 ], [ 17.117027, 49.078454 ], [ 17.211305, 49.091136 ], [ 17.229841, 49.065738 ], [ 17.223619, 49.036125 ], [ 17.357576, 49.005075 ], [ 17.358898, 48.979312 ], [ 17.393483, 48.978556 ], [ 17.432058, 48.952774 ], [ 17.498514, 48.962959 ], [ 17.54323, 48.949251 ], [ 17.544215, 48.920327 ], [ 17.602087, 48.908137 ], [ 17.64693, 48.854266 ], [ 17.525614, 48.814844 ], [ 17.453987, 48.844529 ], [ 17.396726, 48.81335 ], [ 17.195728, 48.875038 ], [ 17.112055, 48.830189 ], [ 17.08753, 48.787684 ], [ 17.046827, 48.764717 ], [ 16.940278, 48.617245 ] ] ] } },
{ "type": "Feature", "properties": { "loc": "CZ071" }, "geometry": { "type": "Polygon", "coordinates": [ [ [ 16.86327, 50.198123 ], [ 16.904119, 50.223105 ], [ 16.955043, 50.224037 ], [ 16.971923, 50.241632 ], [ 16.999126, 50.219139 ], [ 17.02481, 50.229244 ], [ 17.005761, 50.252087 ], [ 17.017604, 50.275863 ], [ 17.00564, 50.296506 ], [ 16.945499, 50.318519 ], [ 16.910962, 50.385621 ], [ 16.864934, 50.410034 ], [ 16.882463, 50.44062 ], [ 16.907925, 50.449454 ], [ 16.972691, 50.420565 ], [ 17.105568, 50.404577 ], [ 17.144669, 50.381491 ], [ 17.196264, 50.386496 ], [ 17.206518, 50.360648 ], [ 17.251193, 50.331274 ], [ 17.290209, 50.318495 ], [ 17.338386, 50.325362 ], [ 17.352046, 50.266276 ], [ 17.371358, 50.281239 ], [ 17.421372, 50.273661 ], [ 17.41979, 50.212579 ], [ 17.377134, 50.218723 ], [ 17.243821, 50.142138 ], [ 17.24537, 50.11836 ], [ 17.223522, 50.10154 ], [ 17.229972, 50.059457 ], [ 17.171741, 50.012997 ], [ 17.159092, 49.983387 ], [ 17.200249, 49.94928 ], [ 17.164588, 49.920517 ], [ 17.171797, 49.907604 ], [ 17.150418, 49.878763 ], [ 17.182831, 49.847925 ], [ 17.219962, 49.853412 ], [ 17.218994, 49.821335 ], [ 17.262449, 49.820619 ], [ 17.312521, 49.853649 ], [ 17.358441, 49.86023 ], [ 17.376775, 49.845679 ], [ 17.359064, 49.813098 ], [ 17.385504, 49.794285 ], [ 17.4135, 49.824628 ], [ 17.45838, 49.836952 ], [ 17.446638, 49.870311 ], [ 17.473197, 49.87138 ], [ 17.48709, 49.824515 ], [ 17.527489, 49.773323 ], [ 17.589848, 49.750816 ], [ 17.676268, 49.754221 ], [ 17.696463, 49.729486 ], [ 17.689381, 49.679703 ], [ 17.744644, 49.675871 ], [ 17.862614, 49.57605 ], [ 17.846893, 49.563011 ], [ 17.859097, 49.551572 ], [ 17.892599, 49.565015 ], [ 17.916857, 49.537808 ], [ 17.895504, 49.511184 ], [ 17.846933, 49.519108 ], [ 17.791668, 49.48872 ], [ 17.796108, 49.47046 ], [ 17.771546, 49.439842 ], [ 17.728649, 49.43694 ], [ 17.686735, 49.462186 ], [ 17.664885, 49.442799 ], [ 17.628803, 49.448572 ], [ 17.646907, 49.419294 ], [ 17.637893, 49.407825 ], [ 17.519037, 49.399199 ], [ 17.477366, 49.357568 ], [ 17.447871, 49.378947 ], [ 17.379782, 49.381768 ], [ 17.378813, 49.406619 ], [ 17.362881, 49.409968 ], [ 17.334966, 49.383943 ], [ 17.352258, 49.343103 ], [ 17.281918, 49.298405 ], [ 17.195631, 49.294304 ], [ 17.173616, 49.271703 ], [ 17.134054, 49.324248 ], [ 17.028914, 49.373047 ], [ 16.982154, 49.455132 ], [ 16.942623, 49.490665 ], [ 16.909649, 49.497263 ], [ 16.87622, 49.482853 ], [ 16.909311, 49.430107 ], [ 16.866616, 49.389533 ], [ 16.810077, 49.406843 ], [ 16.803148, 49.423671 ], [ 16.821335, 49.437617 ], [ 16.788011, 49.496422 ], [ 16.802016, 49.52912 ], [ 16.751924, 49.546924 ], [ 16.747822, 49.583074 ], [ 16.793285, 49.576173 ], [ 16.805258, 49.65463 ], [ 16.839774, 49.678887 ], [ 16.843443, 49.716225 ], [ 16.794056, 49.729665 ], [ 16.809354, 49.747229 ], [ 16.79848, 49.771637 ], [ 16.738582, 49.833403 ], [ 16.742066, 49.859903 ], [ 16.762929, 49.874102 ], [ 16.71458, 49.996298 ], [ 16.754385, 49.998828 ], [ 16.814032, 50.042804 ], [ 16.802072, 50.069158 ], [ 16.815693, 50.0849 ], [ 16.80944, 50.108132 ], [ 16.862749, 50.176697 ], [ 16.86327, 50.198123 ] ] ] } },
{ "type": "Feature", "properties": { "loc": "CZ072" }, "geometry": { "type": "Polygon", "coordinates": [ [ [ 18.378996, 49.330979 ], [ 18.193233, 49.289576 ], [ 18.151563, 49.250052 ], [ 18.153109, 49.217283 ], [ 18.110532, 49.134885 ], [ 18.112893, 49.090478 ], [ 18.070407, 49.039046 ], [ 17.926014, 49.01894 ], [ 17.880988, 48.927367 ], [ 17.786776, 48.924047 ], [ 17.705689, 48.863058 ], [ 17.64693, 48.854266 ], [ 17.602087, 48.908137 ], [ 17.544215, 48.920327 ], [ 17.54323, 48.949251 ], [ 17.498514, 48.962959 ], [ 17.432058, 48.952774 ], [ 17.393483, 48.978556 ], [ 17.358898, 48.979312 ], [ 17.357576, 49.005075 ], [ 17.223619, 49.036125 ], [ 17.229841, 49.065738 ], [ 17.211305, 49.091136 ], [ 17.117027, 49.078454 ], [ 17.11548, 49.099802 ], [ 17.184955, 49.140017 ], [ 17.200377, 49.16874 ], [ 17.196598, 49.180131 ], [ 17.157547, 49.177307 ], [ 17.134223, 49.24594 ], [ 17.195631, 49.294304 ], [ 17.281918, 49.298405 ], [ 17.352258, 49.343103 ], [ 17.334966, 49.383943 ], [ 17.362881, 49.409968 ], [ 17.378813, 49.406619 ], [ 17.379782, 49.381768 ], [ 17.447871, 49.378947 ], [ 17.477366, 49.357568 ], [ 17.519037, 49.399199 ], [ 17.637893, 49.407825 ], [ 17.646907, 49.419294 ], [ 17.628803, 49.448572 ], [ 17.664885, 49.442799 ], [ 17.686735, 49.462186 ], [ 17.728649, 49.43694 ], [ 17.771546, 49.439842 ], [ 17.796108, 49.47046 ], [ 17.791668, 49.48872 ], [ 17.846933, 49.519108 ], [ 17.895504, 49.511184 ], [ 17.916857, 49.537808 ], [ 17.974431, 49.535587 ], [ 18.001091, 49.505284 ], [ 18.119758, 49.51905 ], [ 18.164393, 49.51482 ], [ 18.200889, 49.490845 ], [ 18.294085, 49.490444 ], [ 18.318264, 49.455817 ], [ 18.36698, 49.429491 ], [ 18.369768, 49.406576 ], [ 18.403596, 49.396745 ], [ 18.415142, 49.368255 ], [ 18.378996, 49.330979 ] ] ] } },
{ "type": "Feature", "properties": { "loc": "CZ080" }, "geometry": { "type": "Polygon", "coordinates": [ [ [ 18.035061, 50.065772 ], [ 18.084604, 50.043891 ], [ 18.110947, 49.998205 ], [ 18.156749, 49.984781 ], [ 18.204946, 49.995066 ], [ 18.220894, 49.970062 ], [ 18.274234, 49.963206 ], [ 18.284837, 49.934758 ], [ 18.315951, 49.918647 ], [ 18.342218, 49.945204 ], [ 18.42665, 49.93643 ], [ 18.496949, 49.904166 ], [ 18.570271, 49.919022 ], [ 18.569419, 49.879944 ], [ 18.600256, 49.860015 ], [ 18.571747, 49.829052 ], [ 18.629098, 49.723072 ], [ 18.704377, 49.704122 ], [ 18.740115, 49.678945 ], [ 18.803312, 49.677884 ], [ 18.838689, 49.564508 ], [ 18.856963, 49.547735 ], [ 18.841209, 49.526549 ], [ 18.851551, 49.517189 ], [ 18.750859, 49.48934 ], [ 18.562962, 49.50571 ], [ 18.538753, 49.490263 ], [ 18.543368, 49.46704 ], [ 18.471769, 49.408567 ], [ 18.403596, 49.396745 ], [ 18.369768, 49.406576 ], [ 18.36698, 49.429491 ], [ 18.318264, 49.455817 ], [ 18.294085, 49.490444 ], [ 18.200889, 49.490845 ], [ 18.164393, 49.51482 ], [ 18.119758, 49.51905 ], [ 18.001091, 49.505284 ], [ 17.974431, 49.535587 ], [ 17.916857, 49.537808 ], [ 17.892599, 49.565015 ], [ 17.859097, 49.551572 ], [ 17.846893, 49.563011 ], [ 17.862614, 49.57605 ], [ 17.744644, 49.675871 ], [ 17.689381, 49.679703 ], [ 17.696463, 49.729486 ], [ 17.676268, 49.754221 ], [ 17.589848, 49.750816 ], [ 17.527489, 49.773323 ], [ 17.48709, 49.824515 ], [ 17.473197, 49.87138 ], [ 17.446638, 49.870311 ], [ 17.45838, 49.836952 ], [ 17.4135, 49.824628 ], [ 17.385504, 49.794285 ], [ 17.359064, 49.813098 ], [ 17.376775, 49.845679 ], [ 17.358441, 49.86023 ], [ 17.312521, 49.853649 ], [ 17.262449, 49.820619 ], [ 17.218994, 49.821335 ], [ 17.219962, 49.853412 ], [ 17.182831, 49.847925 ], [ 17.150418, 49.878763 ], [ 17.171797, 49.907604 ], [ 17.164588, 49.920517 ], [ 17.200249, 49.94928 ], [ 17.159092, 49.983387 ], [ 17.171741, 50.012997 ], [ 17.229972, 50.059457 ], [ 17.223522, 50.10154 ], [ 17.24537, 50.11836 ], [ 17.243821, 50.142138 ], [ 17.377134, 50.218723 ], [ 17.41979, 50.212579 ], [ 17.429605, 50.254513 ], [ 17.5036, 50.274631 ], [ 17.620385, 50.268333 ], [ 17.683995, 50.299514 ], [ 17.690619, 50.325246 ], [ 17.748146, 50.298223 ], [ 17.726553, 50.263232 ], [ 17.761062, 50.236203 ], [ 17.755723, 50.208702 ], [ 17.603553, 50.168358 ], [ 17.610002, 50.142444 ], [ 17.658633, 50.108863 ], [ 17.715035, 50.107751 ], [ 17.777009, 50.02369 ], [ 17.828549, 50.008852 ], [ 17.868892, 49.975086 ], [ 17.920794, 49.979268 ], [ 17.998003, 50.015439 ], [ 18.041089, 50.009876 ], [ 18.042826, 50.034422 ], [ 18.005753, 50.042144 ], [ 18.035061, 50.065772 ] ] ] } },
{ "type": "Feature", "properties": { "loc": "CZ010" }, "geometry": { "type": "Polygon", "coordinates": [ [ [ 14.243151, 50.105921 ], [ 14.302124, 50.129276 ], [ 14.359222, 50.116245 ], [ 14.363293, 50.14698 ], [ 14.393397, 50.142041 ], [ 14.532028, 50.176462 ], [ 14.534202, 50.162628 ], [ 14.590456, 50.151731 ], [ 14.601602, 50.129295 ], [ 14.659085, 50.122387 ], [ 14.658311, 50.107032 ], [ 14.706554, 50.0863 ], [ 14.640922, 50.056181 ], [ 14.669486, 50.016264 ], [ 14.640882, 49.994964 ], [ 14.580799, 50.015211 ], [ 14.530466, 50.011008 ], [ 14.460399, 49.971132 ], [ 14.402189, 49.970129 ], [ 14.392376, 49.944874 ], [ 14.326528, 49.956915 ], [ 14.346157, 49.973162 ], [ 14.334293, 49.993347 ], [ 14.296362, 50.002035 ], [ 14.315589, 50.022526 ], [ 14.254217, 50.056944 ], [ 14.259138, 50.0714 ], [ 14.288195, 50.073459 ], [ 14.243151, 50.105921 ] ] ] } },
{ "type": "Feature", "properties": { "loc": "CZ020" }, "geometry": { "type": "Polygon", "coordinates": [ [ [ 13.407054, 50.089617 ], [ 13.488895, 50.129392 ], [ 13.493222, 50.164889 ], [ 13.540462, 50.188921 ], [ 13.615613, 50.199607 ], [ 13.666481, 50.235286 ], [ 13.745656, 50.224621 ], [ 13.813073, 50.261799 ], [ 13.85889, 50.244207 ], [ 13.878477, 50.268674 ], [ 13.988657, 50.305402 ], [ 13.984945, 50.333279 ], [ 14.013178, 50.34584 ], [ 14.248458, 50.330698 ], [ 14.275913, 50.351932 ], [ 14.362112, 50.351841 ], [ 14.376917, 50.382938 ], [ 14.364577, 50.429323 ], [ 14.412869, 50.422306 ], [ 14.428183, 50.449028 ], [ 14.470457, 50.452347 ], [ 14.459273, 50.494082 ], [ 14.473015, 50.507272 ], [ 14.54428, 50.497153 ], [ 14.574872, 50.509159 ], [ 14.592218, 50.476138 ], [ 14.689423, 50.482724 ], [ 14.753067, 50.521674 ], [ 14.752806, 50.554778 ], [ 14.83021, 50.541042 ], [ 14.852109, 50.554338 ], [ 14.852454, 50.571993 ], [ 14.903687, 50.586628 ], [ 14.919433, 50.617843 ], [ 14.960415, 50.595637 ], [ 15.004659, 50.601218 ], [ 15.10103, 50.535605 ], [ 15.146771, 50.522942 ], [ 15.117129, 50.50271 ], [ 15.158606, 50.420569 ], [ 15.140325, 50.389731 ], [ 15.108208, 50.374548 ], [ 15.132029, 50.346503 ], [ 15.175542, 50.343128 ], [ 15.227324, 50.289876 ], [ 15.305872, 50.283476 ], [ 15.346482, 50.296455 ], [ 15.373971, 50.284179 ], [ 15.372766, 50.232704 ], [ 15.395857, 50.203565 ], [ 15.364721, 50.147028 ], [ 15.441387, 50.125438 ], [ 15.437586, 50.109857 ], [ 15.40636, 50.100567 ], [ 15.411687, 50.066211 ], [ 15.367614, 50.039 ], [ 15.468286, 50.00271 ], [ 15.467118, 49.98541 ], [ 15.52942, 49.960256 ], [ 15.528725, 49.925898 ], [ 15.501238, 49.895386 ], [ 15.496953, 49.861184 ], [ 15.424278, 49.830758 ], [ 15.424643, 49.796447 ], [ 15.227432, 49.752789 ], [ 15.179921, 49.691585 ], [ 15.187928, 49.671662 ], [ 15.237116, 49.656703 ], [ 15.246024, 49.637053 ], [ 15.156837, 49.592541 ], [ 14.985352, 49.603724 ], [ 14.976721, 49.58491 ], [ 14.942956, 49.574822 ], [ 14.932019, 49.549101 ], [ 14.902775, 49.548849 ], [ 14.870951, 49.585507 ], [ 14.841811, 49.580698 ], [ 14.769736, 49.612074 ], [ 14.734423, 49.594296 ], [ 14.729356, 49.550016 ], [ 14.646291, 49.509149 ], [ 14.585428, 49.521739 ], [ 14.583335, 49.538688 ], [ 14.460905, 49.536286 ], [ 14.413615, 49.551137 ], [ 14.340067, 49.53056 ], [ 14.262174, 49.565163 ], [ 14.203, 49.536103 ], [ 14.117175, 49.529693 ], [ 14.076611, 49.532147 ], [ 14.062671, 49.55753 ], [ 14.044563, 49.559532 ], [ 13.989346, 49.520317 ], [ 13.926729, 49.504586 ], [ 13.873335, 49.522712 ], [ 13.765591, 49.51399 ], [ 13.769647, 49.533688 ], [ 13.742385, 49.556137 ], [ 13.748831, 49.625511 ], [ 13.801198, 49.689303 ], [ 13.838067, 49.698164 ], [ 13.815929, 49.755658 ], [ 13.78372, 49.763284 ], [ 13.810321, 49.864986 ], [ 13.830667, 49.871471 ], [ 13.819202, 49.921981 ], [ 13.754193, 49.943314 ], [ 13.743752, 49.965315 ], [ 13.701407, 49.963877 ], [ 13.657034, 49.999077 ], [ 13.567636, 49.995722 ], [ 13.505692, 50.022315 ], [ 13.513729, 50.039604 ], [ 13.403743, 50.034301 ], [ 13.428083, 50.06574 ], [ 13.407054, 50.089617 ] ], [ [ 14.243151, 50.105921 ], [ 14.288195, 50.073459 ], [ 14.259138, 50.0714 ], [ 14.254217, 50.056944 ], [ 14.315589, 50.022526 ], [ 14.296362, 50.002035 ], [ 14.334293, 49.993347 ], [ 14.346157, 49.973162 ], [ 14.326528, 49.956915 ], [ 14.392376, 49.944874 ], [ 14.402189, 49.970129 ], [ 14.460399, 49.971132 ], [ 14.530466, 50.011008 ], [ 14.580799, 50.015211 ], [ 14.640882, 49.994964 ], [ 14.669486, 50.016264 ], [ 14.640922, 50.056181 ], [ 14.706554, 50.0863 ], [ 14.658311, 50.107032 ], [ 14.659085, 50.122387 ], [ 14.601602, 50.129295 ], [ 14.590456, 50.151731 ], [ 14.534202, 50.162628 ], [ 14.532028, 50.176462 ], [ 14.393397, 50.142041 ], [ 14.363293, 50.14698 ], [ 14.359222, 50.116245 ], [ 14.302124, 50.129276 ], [ 14.243151, 50.105921 ] ] ] } },
{ "type": "Feature", "properties": { "loc": "CZ031" }, "geometry": { "type": "Polygon", "coordinates": [ [ [ 14.056097, 48.673003 ], [ 13.8083, 48.779265 ], [ 13.811502, 48.799449 ], [ 13.737738, 48.88201 ], [ 13.675821, 48.88142 ], [ 13.626836, 48.946441 ], [ 13.551579, 48.967787 ], [ 13.538596, 48.993571 ], [ 13.567636, 49.047433 ], [ 13.602839, 49.059576 ], [ 13.584318, 49.102786 ], [ 13.600699, 49.144363 ], [ 13.635435, 49.139386 ], [ 13.689479, 49.165174 ], [ 13.715857, 49.196222 ], [ 13.691909, 49.224151 ], [ 13.723316, 49.246231 ], [ 13.705422, 49.273067 ], [ 13.731257, 49.283761 ], [ 13.725403, 49.307035 ], [ 13.768342, 49.326772 ], [ 13.786886, 49.36842 ], [ 13.761484, 49.399015 ], [ 13.776703, 49.43572 ], [ 13.750401, 49.492281 ], [ 13.765591, 49.51399 ], [ 13.873335, 49.522712 ], [ 13.926729, 49.504586 ], [ 13.989346, 49.520317 ], [ 14.044563, 49.559532 ], [ 14.062671, 49.55753 ], [ 14.076611, 49.532147 ], [ 14.117175, 49.529693 ], [ 14.203, 49.536103 ], [ 14.262174, 49.565163 ], [ 14.340067, 49.53056 ], [ 14.413615, 49.551137 ], [ 14.460905, 49.536286 ], [ 14.583335, 49.538688 ], [ 14.585428, 49.521739 ], [ 14.646291, 49.509149 ], [ 14.729356, 49.550016 ], [ 14.734423, 49.594296 ], [ 14.769736, 49.612074 ], [ 14.841811, 49.580698 ], [ 14.870951, 49.585507 ], [ 14.902775, 49.548849 ], [ 14.932019, 49.549101 ], [ 14.938107, 49.526943 ], [ 14.909499, 49.515598 ], [ 14.925464, 49.462214 ], [ 14.892827, 49.382097 ], [ 14.920462, 49.36071 ], [ 14.910007, 49.332619 ], [ 14.926409, 49.312822 ], [ 14.981161, 49.279556 ], [ 15.029708, 49.292717 ], [ 15.094671, 49.269533 ], [ 15.102788, 49.246572 ], [ 15.152981, 49.219616 ], [ 15.195426, 49.231349 ], [ 15.262549, 49.213198 ], [ 15.335285, 49.215574 ], [ 15.35107, 49.159422 ], [ 15.41888, 49.124261 ], [ 15.558992, 49.128907 ], [ 15.592796, 49.092599 ], [ 15.594187, 49.081462 ], [ 15.55527, 49.070512 ], [ 15.498919, 48.999757 ], [ 15.586757, 48.947159 ], [ 15.54245, 48.907697 ], [ 15.472615, 48.947902 ], [ 15.363143, 48.981573 ], [ 15.312166, 48.97764 ], [ 15.282672, 48.992332 ], [ 15.264083, 48.956564 ], [ 15.163729, 48.943679 ], [ 15.149862, 48.99408 ], [ 14.997698, 49.013226 ], [ 14.977166, 48.968209 ], [ 14.990675, 48.904769 ], [ 14.973823, 48.867646 ], [ 14.9807, 48.844971 ], [ 14.955723, 48.793328 ], [ 14.97638, 48.772231 ], [ 14.952597, 48.760342 ], [ 14.813334, 48.778585 ], [ 14.804167, 48.733924 ], [ 14.728731, 48.688085 ], [ 14.717655, 48.60243 ], [ 14.691014, 48.584302 ], [ 14.665379, 48.584386 ], [ 14.609556, 48.626056 ], [ 14.556217, 48.607988 ], [ 14.464429, 48.645311 ], [ 14.447786, 48.641533 ], [ 14.432341, 48.59292 ], [ 14.390626, 48.591247 ], [ 14.38785, 48.573775 ], [ 14.336333, 48.554671 ], [ 14.268525, 48.579884 ], [ 14.103412, 48.591244 ], [ 14.014923, 48.637995 ], [ 14.053787, 48.656553 ], [ 14.056097, 48.673003 ] ] ] } },
{ "type": "Feature", "properties": { "loc": "CZ032" }, "geometry": { "type": "Polygon", "coordinates": [ [ [ 13.551579, 48.967787 ], [ 13.512664, 48.969015 ], [ 13.499537, 48.942473 ], [ 13.416652, 48.980035 ], [ 13.392414, 49.051624 ], [ 13.289085, 49.117646 ], [ 13.190838, 49.130187 ], [ 13.170908, 49.173579 ], [ 13.114673, 49.202276 ], [ 13.081724, 49.244735 ], [ 13.031862, 49.269262 ], [ 13.025688, 49.302475 ], [ 12.972522, 49.332972 ], [ 12.896577, 49.349465 ], [ 12.877968, 49.33358 ], [ 12.785598, 49.347374 ], [ 12.752253, 49.397164 ], [ 12.659898, 49.434077 ], [ 12.633764, 49.476195 ], [ 12.640942, 49.524946 ], [ 12.593779, 49.542191 ], [ 12.559409, 49.617167 ], [ 12.526445, 49.624625 ], [ 12.522149, 49.682044 ], [ 12.44336, 49.705728 ], [ 12.401524, 49.758373 ], [ 12.46745, 49.785871 ], [ 12.476498, 49.834575 ], [ 12.550989, 49.905088 ], [ 12.595673, 49.896435 ], [ 12.645136, 49.915235 ], [ 12.676114, 49.892704 ], [ 12.712773, 49.922987 ], [ 12.803892, 49.93749 ], [ 12.927957, 49.923329 ], [ 12.961738, 49.943771 ], [ 12.962629, 49.973777 ], [ 13.09463, 50.032208 ], [ 13.22691, 49.997535 ], [ 13.232943, 50.045494 ], [ 13.292006, 50.061783 ], [ 13.282045, 50.081223 ], [ 13.301367, 50.099643 ], [ 13.330919, 50.088805 ], [ 13.351031, 50.099969 ], [ 13.375969, 50.080213 ], [ 13.407054, 50.089617 ], [ 13.428083, 50.06574 ], [ 13.403743, 50.034301 ], [ 13.513729, 50.039604 ], [ 13.505692, 50.022315 ], [ 13.567636, 49.995722 ], [ 13.657034, 49.999077 ], [ 13.701407, 49.963877 ], [ 13.743752, 49.965315 ], [ 13.754193, 49.943314 ], [ 13.819202, 49.921981 ], [ 13.830667, 49.871471 ], [ 13.810321, 49.864986 ], [ 13.78372, 49.763284 ], [ 13.815929, 49.755658 ], [ 13.838067, 49.698164 ], [ 13.773503, 49.666459 ], [ 13.739694, 49.586217 ], [ 13.742385, 49.556137 ], [ 13.769647, 49.533688 ], [ 13.750401, 49.492281 ], [ 13.776703, 49.43572 ], [ 13.761484, 49.399015 ], [ 13.786886, 49.36842 ], [ 13.768342, 49.326772 ], [ 13.725403, 49.307035 ], [ 13.731257, 49.283761 ], [ 13.705422, 49.273067 ], [ 13.723316, 49.246231 ], [ 13.691909, 49.224151 ], [ 13.715857, 49.196222 ], [ 13.689479, 49.165174 ], [ 13.635435, 49.139386 ], [ 13.600699, 49.144363 ], [ 13.584318, 49.102786 ], [ 13.602839, 49.059576 ], [ 13.547597, 49.022007 ], [ 13.538596, 48.993571 ], [ 13.551579, 48.967787 ] ] ] } },
{ "type": "Feature", "properties": { "loc": "CZ041" }, "geometry": { "type": "Polygon", "coordinates": [ [ [ 12.948145, 50.404311 ], [ 13.09123, 50.381183 ], [ 13.112775, 50.351844 ], [ 13.221062, 50.34921 ], [ 13.234224, 50.327745 ], [ 13.220133, 50.280953 ], [ 13.2473, 50.227465 ], [ 13.232783, 50.214894 ], [ 13.281298, 50.165821 ], [ 13.270226, 50.142877 ], [ 13.241575, 50.133555 ], [ 13.301367, 50.099643 ], [ 13.282045, 50.081223 ], [ 13.292006, 50.061783 ], [ 13.232943, 50.045494 ], [ 13.22691, 49.997535 ], [ 13.09463, 50.032208 ], [ 12.962629, 49.973777 ], [ 12.961738, 49.943771 ], [ 12.927957, 49.923329 ], [ 12.803892, 49.93749 ], [ 12.712773, 49.922987 ], [ 12.676114, 49.892704 ], [ 12.645136, 49.915235 ], [ 12.595673, 49.896435 ], [ 12.550989, 49.905088 ], [ 12.539878, 49.922933 ], [ 12.476861, 49.939765 ], [ 12.49076, 49.978837 ], [ 12.431791, 49.987919 ], [ 12.307593, 50.055345 ], [ 12.260799, 50.058156 ], [ 12.269157, 50.0777 ], [ 12.202392, 50.11062 ], [ 12.196923, 50.139222 ], [ 12.211772, 50.167544 ], [ 12.19851, 50.188976 ], [ 12.100236, 50.250989 ], [ 12.1326, 50.280288 ], [ 12.100901, 50.318028 ], [ 12.182108, 50.320005 ], [ 12.204138, 50.273981 ], [ 12.260482, 50.263254 ], [ 12.244596, 50.245548 ], [ 12.286797, 50.223603 ], [ 12.279154, 50.196251 ], [ 12.294424, 50.177825 ], [ 12.320546, 50.173593 ], [ 12.332217, 50.237177 ], [ 12.353155, 50.24132 ], [ 12.361323, 50.273934 ], [ 12.396522, 50.294043 ], [ 12.401198, 50.319447 ], [ 12.486893, 50.351966 ], [ 12.513846, 50.395469 ], [ 12.671916, 50.414644 ], [ 12.705099, 50.400273 ], [ 12.73911, 50.432564 ], [ 12.825586, 50.455852 ], [ 12.948145, 50.404311 ] ] ] } },
{ "type": "Feature", "properties": { "loc": "CZ042" }, "geometry": { "type": "Polygon", "coordinates": [ [ [ 13.330919, 50.088805 ], [ 13.241575, 50.133555 ], [ 13.270226, 50.142877 ], [ 13.281298, 50.165821 ], [ 13.232783, 50.214894 ], [ 13.2473, 50.227465 ], [ 13.220133, 50.280953 ], [ 13.234224, 50.327745 ], [ 13.221062, 50.34921 ], [ 13.112775, 50.351844 ], [ 13.09123, 50.381183 ], [ 12.948145, 50.404311 ], [ 13.018268, 50.44736 ], [ 13.036166, 50.508681 ], [ 13.189872, 50.504413 ], [ 13.246775, 50.588662 ], [ 13.31905, 50.581723 ], [ 13.324411, 50.605444 ], [ 13.372649, 50.625356 ], [ 13.376014, 50.648199 ], [ 13.45973, 50.604038 ], [ 13.518424, 50.641521 ], [ 13.534929, 50.704253 ], [ 13.652174, 50.73036 ], [ 13.700996, 50.718225 ], [ 13.766158, 50.735307 ], [ 13.850148, 50.727852 ], [ 13.897122, 50.746239 ], [ 13.889996, 50.770631 ], [ 13.904225, 50.791203 ], [ 13.938343, 50.791001 ], [ 13.98625, 50.81735 ], [ 14.073371, 50.812565 ], [ 14.221904, 50.860725 ], [ 14.238285, 50.886908 ], [ 14.386151, 50.90207 ], [ 14.3947, 50.93643 ], [ 14.317045, 50.953114 ], [ 14.307672, 50.966741 ], [ 14.323818, 50.9835 ], [ 14.261914, 50.988612 ], [ 14.302393, 51.052948 ], [ 14.412177, 51.019602 ], [ 14.457034, 51.03479 ], [ 14.488006, 51.025322 ], [ 14.491221, 51.04353 ], [ 14.504427, 51.040931 ], [ 14.503997, 51.022248 ], [ 14.596161, 50.985499 ], [ 14.566268, 50.919847 ], [ 14.649645, 50.926947 ], [ 14.608771, 50.844856 ], [ 14.572332, 50.836729 ], [ 14.547999, 50.796818 ], [ 14.462437, 50.81006 ], [ 14.420707, 50.736195 ], [ 14.377692, 50.718752 ], [ 14.372649, 50.688522 ], [ 14.344686, 50.667087 ], [ 14.440846, 50.53335 ], [ 14.486486, 50.505027 ], [ 14.459273, 50.494082 ], [ 14.470457, 50.452347 ], [ 14.428183, 50.449028 ], [ 14.412869, 50.422306 ], [ 14.364577, 50.429323 ], [ 14.376917, 50.382938 ], [ 14.362112, 50.351841 ], [ 14.275913, 50.351932 ], [ 14.248458, 50.330698 ], [ 14.013178, 50.34584 ], [ 13.984945, 50.333279 ], [ 13.988657, 50.305402 ], [ 13.878477, 50.268674 ], [ 13.85889, 50.244207 ], [ 13.813073, 50.261799 ], [ 13.745656, 50.224621 ], [ 13.666481, 50.235286 ], [ 13.615613, 50.199607 ], [ 13.540462, 50.188921 ], [ 13.493222, 50.164889 ], [ 13.488895, 50.129392 ], [ 13.455662, 50.107216 ], [ 13.375969, 50.080213 ], [ 13.351031, 50.099969 ], [ 13.330919, 50.088805 ] ] ] } },
{ "type": "Feature", "properties": { "loc": "CZ051" }, "geometry": { "type": "Polygon", "coordinates": [ [ [ 14.823362, 50.87055 ], [ 14.997001, 50.870307 ], [ 14.993121, 50.921439 ], [ 15.01743, 50.969132 ], [ 14.974288, 50.98773 ], [ 14.982813, 51.007029 ], [ 15.021967, 51.021459 ], [ 15.101001, 51.010278 ], [ 15.107205, 50.993217 ], [ 15.127905, 50.992267 ], [ 15.16768, 51.017976 ], [ 15.180861, 50.984343 ], [ 15.232291, 50.99668 ], [ 15.28896, 50.951726 ], [ 15.268841, 50.925184 ], [ 15.279523, 50.89022 ], [ 15.358765, 50.844856 ], [ 15.378363, 50.778497 ], [ 15.439052, 50.807811 ], [ 15.535268, 50.779376 ], [ 15.569746, 50.739949 ], [ 15.56941, 50.63874 ], [ 15.597579, 50.614357 ], [ 15.574767, 50.582229 ], [ 15.628508, 50.523642 ], [ 15.520908, 50.517121 ], [ 15.480683, 50.544265 ], [ 15.440408, 50.51977 ], [ 15.443428, 50.491188 ], [ 15.405124, 50.480792 ], [ 15.380574, 50.503764 ], [ 15.287141, 50.522075 ], [ 15.223702, 50.495991 ], [ 15.10103, 50.535605 ], [ 15.004659, 50.601218 ], [ 14.960415, 50.595637 ], [ 14.919433, 50.617843 ], [ 14.903687, 50.586628 ], [ 14.852454, 50.571993 ], [ 14.852109, 50.554338 ], [ 14.83021, 50.541042 ], [ 14.752806, 50.554778 ], [ 14.753067, 50.521674 ], [ 14.689423, 50.482724 ], [ 14.592218, 50.476138 ], [ 14.574872, 50.509159 ], [ 14.500285, 50.497495 ], [ 14.440846, 50.53335 ], [ 14.345551, 50.659374 ], [ 14.377692, 50.718752 ], [ 14.420707, 50.736195 ], [ 14.429727, 50.767533 ], [ 14.453705, 50.776962 ], [ 14.462437, 50.81006 ], [ 14.547999, 50.796818 ], [ 14.572332, 50.836729 ], [ 14.6188, 50.857804 ], [ 14.77162, 50.820618 ], [ 14.798895, 50.825423 ], [ 14.823362, 50.87055 ] ] ] } },
{ "type": "Feature", "properties": { "loc": "CZ052" }, "geometry": { "type": "Polygon", "coordinates": [ [ [ 16.107318, 50.662073 ], [ 16.186361, 50.629785 ], [ 16.215169, 50.634715 ], [ 16.237046, 50.669351 ], [ 16.328511, 50.664535 ], [ 16.425901, 50.603032 ], [ 16.443688, 50.581619 ], [ 16.411206, 50.569261 ], [ 16.396367, 50.527922 ], [ 16.359518, 50.502406 ], [ 16.315502, 50.505461 ], [ 16.2945, 50.482077 ], [ 16.256343, 50.477558 ], [ 16.199336, 50.434754 ], [ 16.281678, 50.370005 ], [ 16.359721, 50.377272 ], [ 16.391569, 50.324122 ], [ 16.435024, 50.320883 ], [ 16.551906, 50.224383 ], [ 16.58029, 50.142788 ], [ 16.49011, 50.165767 ], [ 16.469325, 50.136692 ], [ 16.345265, 50.094621 ], [ 16.347922, 50.07736 ], [ 16.316228, 50.06327 ], [ 16.325782, 50.041463 ], [ 16.19587, 50.041358 ], [ 16.076742, 50.08876 ], [ 16.059539, 50.111849 ], [ 16.012929, 50.114119 ], [ 16.007662, 50.14336 ], [ 15.988099, 50.156444 ], [ 15.921052, 50.168294 ], [ 15.838961, 50.133756 ], [ 15.810084, 50.13988 ], [ 15.805036, 50.164102 ], [ 15.776716, 50.172768 ], [ 15.690409, 50.129088 ], [ 15.572352, 50.148663 ], [ 15.452079, 50.09775 ], [ 15.441387, 50.125438 ], [ 15.364721, 50.147028 ], [ 15.395857, 50.203565 ], [ 15.372766, 50.232704 ], [ 15.373971, 50.284179 ], [ 15.346482, 50.296455 ], [ 15.305872, 50.283476 ], [ 15.227324, 50.289876 ], [ 15.207969, 50.300064 ], [ 15.207059, 50.322963 ], [ 15.132029, 50.346503 ], [ 15.108208, 50.374548 ], [ 15.140325, 50.389731 ], [ 15.158606, 50.420569 ], [ 15.117129, 50.50271 ], [ 15.146771, 50.522942 ], [ 15.223702, 50.495991 ], [ 15.287141, 50.522075 ], [ 15.380574, 50.503764 ], [ 15.405124, 50.480792 ], [ 15.443428, 50.491188 ], [ 15.440408, 50.51977 ], [ 15.480683, 50.544265 ], [ 15.520908, 50.517121 ], [ 15.628508, 50.523642 ], [ 15.574767, 50.582229 ], [ 15.597579, 50.614357 ], [ 15.56941, 50.63874 ], [ 15.569746, 50.739949 ], [ 15.535268, 50.779376 ], [ 15.601114, 50.775994 ], [ 15.709498, 50.738317 ], [ 15.81683, 50.752805 ], [ 15.866962, 50.674356 ], [ 15.958159, 50.691029 ], [ 15.988459, 50.683065 ], [ 16.010538, 50.630612 ], [ 15.990275, 50.613185 ], [ 16.022731, 50.601798 ], [ 16.107318, 50.662073 ] ] ] } },
{ "type": "Feature", "properties": { "loc": "CZ053" }, "geometry": { "type": "Polygon", "coordinates": [ [ [ 16.49011, 50.165767 ], [ 16.634136, 50.113003 ], [ 16.707161, 50.098287 ], [ 16.779849, 50.14578 ], [ 16.810594, 50.187736 ], [ 16.844554, 50.205006 ], [ 16.86327, 50.198123 ], [ 16.862749, 50.176697 ], [ 16.80944, 50.108132 ], [ 16.815693, 50.0849 ], [ 16.802072, 50.069158 ], [ 16.814032, 50.042804 ], [ 16.754385, 49.998828 ], [ 16.71458, 49.996298 ], [ 16.762929, 49.874102 ], [ 16.742066, 49.859903 ], [ 16.738582, 49.833403 ], [ 16.79848, 49.771637 ], [ 16.809354, 49.747229 ], [ 16.794056, 49.729665 ], [ 16.843443, 49.716225 ], [ 16.839774, 49.678887 ], [ 16.805258, 49.65463 ], [ 16.8042, 49.598813 ], [ 16.622875, 49.629634 ], [ 16.553945, 49.624401 ], [ 16.532502, 49.593034 ], [ 16.433726, 49.595159 ], [ 16.405904, 49.578157 ], [ 16.344209, 49.61288 ], [ 16.286441, 49.622717 ], [ 16.238994, 49.660481 ], [ 16.138309, 49.689423 ], [ 16.102365, 49.685466 ], [ 16.074447, 49.711144 ], [ 16.019977, 49.718382 ], [ 16.001763, 49.73584 ], [ 15.95231, 49.689609 ], [ 15.917726, 49.687813 ], [ 15.85648, 49.711407 ], [ 15.861425, 49.741379 ], [ 15.778256, 49.75814 ], [ 15.773661, 49.778157 ], [ 15.665909, 49.81312 ], [ 15.596131, 49.810581 ], [ 15.496953, 49.861184 ], [ 15.501238, 49.895386 ], [ 15.528725, 49.925898 ], [ 15.52942, 49.960256 ], [ 15.467118, 49.98541 ], [ 15.468286, 50.00271 ], [ 15.367614, 50.039 ], [ 15.411687, 50.066211 ], [ 15.40636, 50.100567 ], [ 15.467131, 50.099494 ], [ 15.572352, 50.148663 ], [ 15.690409, 50.129088 ], [ 15.776716, 50.172768 ], [ 15.805036, 50.164102 ], [ 15.810084, 50.13988 ], [ 15.838961, 50.133756 ], [ 15.921052, 50.168294 ], [ 15.988099, 50.156444 ], [ 16.007662, 50.14336 ], [ 16.012929, 50.114119 ], [ 16.059539, 50.111849 ], [ 16.076742, 50.08876 ], [ 16.19587, 50.041358 ], [ 16.325782, 50.041463 ], [ 16.316228, 50.06327 ], [ 16.347922, 50.07736 ], [ 16.345265, 50.094621 ], [ 16.469325, 50.136692 ], [ 16.49011, 50.165767 ] ] ] } },
{ "type": "Feature", "properties": { "loc": "CZ063" }, "geometry": { "type": "Polygon", "coordinates": [ [ [ 16.393628, 49.58061 ], [ 16.379662, 49.550011 ], [ 16.415398, 49.522423 ], [ 16.37006, 49.493572 ], [ 16.376835, 49.457977 ], [ 16.320788, 49.465847 ], [ 16.309473, 49.452309 ], [ 16.325952, 49.43557 ], [ 16.269436, 49.425505 ], [ 16.233116, 49.390613 ], [ 16.225184, 49.352186 ], [ 16.249451, 49.324235 ], [ 16.287667, 49.311648 ], [ 16.260541, 49.284489 ], [ 16.281547, 49.259706 ], [ 16.238231, 49.224029 ], [ 16.267788, 49.185006 ], [ 16.235373, 49.16942 ], [ 16.239406, 49.14503 ], [ 16.216591, 49.133458 ], [ 16.24867, 49.108434 ], [ 16.214781, 49.079213 ], [ 16.143812, 49.067437 ], [ 16.114636, 49.040253 ], [ 16.002227, 49.030208 ], [ 15.948664, 49.052164 ], [ 15.888409, 49.035196 ], [ 15.869073, 49.011131 ], [ 15.812749, 49.005143 ], [ 15.733201, 48.952759 ], [ 15.692521, 48.96587 ], [ 15.644403, 48.943591 ], [ 15.586757, 48.947159 ], [ 15.498919, 48.999757 ], [ 15.55527, 49.070512 ], [ 15.594187, 49.081462 ], [ 15.558992, 49.128907 ], [ 15.41888, 49.124261 ], [ 15.35107, 49.159422 ], [ 15.335285, 49.215574 ], [ 15.262549, 49.213198 ], [ 15.195426, 49.231349 ], [ 15.152981, 49.219616 ], [ 15.102788, 49.246572 ], [ 15.094671, 49.269533 ], [ 15.029708, 49.292717 ], [ 14.981161, 49.279556 ], [ 14.926409, 49.312822 ], [ 14.910007, 49.332619 ], [ 14.920462, 49.36071 ], [ 14.892827, 49.382097 ], [ 14.925464, 49.462214 ], [ 14.909499, 49.515598 ], [ 14.938107, 49.526943 ], [ 14.942956, 49.574822 ], [ 14.976721, 49.58491 ], [ 14.985352, 49.603724 ], [ 15.156837, 49.592541 ], [ 15.186036, 49.615209 ], [ 15.233207, 49.619712 ], [ 15.246024, 49.637053 ], [ 15.237116, 49.656703 ], [ 15.187928, 49.671662 ], [ 15.179921, 49.691585 ], [ 15.227432, 49.752789 ], [ 15.424643, 49.796447 ], [ 15.424278, 49.830758 ], [ 15.496953, 49.861184 ], [ 15.596131, 49.810581 ], [ 15.665909, 49.81312 ], [ 15.773661, 49.778157 ], [ 15.778256, 49.75814 ], [ 15.861425, 49.741379 ], [ 15.85648, 49.711407 ], [ 15.917726, 49.687813 ], [ 15.95231, 49.689609 ], [ 16.001763, 49.73584 ], [ 16.019977, 49.718382 ], [ 16.074447, 49.711144 ], [ 16.102365, 49.685466 ], [ 16.138309, 49.689423 ], [ 16.238994, 49.660481 ], [ 16.286441, 49.622717 ], [ 16.344209, 49.61288 ], [ 16.393628, 49.58061 ] ] ] } }
]
}
