{
"type": "FeatureCollection",
"name": "regions_RO",
"crs": { "type": "name", "properties": { "name": "urn:ogc:def:crs:OGC:1.3:CRS84" } },
"features": [
{ "type": "Feature", "properties": { "loc": "RO111" }, "geometry": { "type": "Polygon", "coordinates": [ [ [ 22.811951, 46.568859 ], [ 22.804114, 46.628561 ], [ 22.704867, 46.76211 ], [ 22.662916, 46.794164 ], [ 22.725583, 46.823233 ], [ 22.771155, 46.893154 ], [ 22.764271, 46.910451 ], [ 22.679516, 46.952791 ], [ 22.725583, 47.00863 ], [ 22.681741, 47.04861 ], [ 22.597706, 47.064562 ], [ 22.531733, 47.104944 ], [ 22.558971, 47.126662 ], [ 22.500067, 47.186242 ], [ 22.516956, 47.227045 ], [ 22.555854, 47.25378 ], [ 22.553358, 47.29955 ], [ 22.61268, 47.334741 ], [ 22.523334, 47.419305 ], [ 22.356996, 47.431588 ], [ 22.337022, 47.492071 ], [ 22.292452, 47.506654 ], [ 22.288499, 47.537081 ], [ 22.26108, 47.54018 ], [ 22.255536, 47.564037 ], [ 22.180838, 47.600094 ], [ 22.12832, 47.598089 ], [ 22.015606, 47.503172 ], [ 22.032214, 47.420755 ], [ 22.017465, 47.387305 ], [ 21.943409, 47.371342 ], [ 21.853328, 47.239582 ], [ 21.855487, 47.187814 ], [ 21.815296, 47.168237 ], [ 21.790523, 47.109477 ], [ 21.726506, 47.097281 ], [ 21.697635, 47.059965 ], [ 21.652622, 47.038479 ], [ 21.684522, 47.003351 ], [ 21.67637, 46.960852 ], [ 21.60116, 46.92738 ], [ 21.611773, 46.889779 ], [ 21.598045, 46.864455 ], [ 21.521911, 46.834542 ], [ 21.51604, 46.797861 ], [ 21.486367, 46.765563 ], [ 21.526476, 46.721874 ], [ 21.491321, 46.68905 ], [ 21.432973, 46.69221 ], [ 21.451785, 46.664217 ], [ 21.441398, 46.651467 ], [ 21.500865, 46.656589 ], [ 21.560983, 46.601456 ], [ 21.570673, 46.646833 ], [ 21.617125, 46.646516 ], [ 21.648885, 46.663643 ], [ 21.796849, 46.655228 ], [ 21.878024, 46.678029 ], [ 21.905247, 46.663027 ], [ 21.886566, 46.632508 ], [ 21.950396, 46.618343 ], [ 21.997533, 46.62497 ], [ 22.023622, 46.650203 ], [ 22.081784, 46.635406 ], [ 22.117637, 46.604553 ], [ 22.169252, 46.600449 ], [ 22.177618, 46.537418 ], [ 22.199162, 46.515068 ], [ 22.272838, 46.502688 ], [ 22.322912, 46.512655 ], [ 22.352708, 46.445356 ], [ 22.459624, 46.385696 ], [ 22.636862, 46.390515 ], [ 22.676576, 46.405825 ], [ 22.707993, 46.428715 ], [ 22.676035, 46.478977 ], [ 22.678693, 46.517007 ], [ 22.760687, 46.572413 ], [ 22.811951, 46.568859 ] ] ] } },
{ "type": "Feature", "properties": { "loc": "RO112" }, "geometry": { "type": "Polygon", "coordinates": [ [ [ 24.179576, 46.804696 ], [ 24.297519, 46.755173 ], [ 24.372503, 46.747646 ], [ 24.412603, 46.771223 ], [ 24.45378, 46.768302 ], [ 24.468929, 46.782461 ], [ 24.453622, 46.790925 ], [ 24.461311, 46.820639 ], [ 24.527541, 46.858207 ], [ 24.536102, 46.904976 ], [ 24.580231, 46.915756 ], [ 24.597316, 46.944855 ], [ 24.629315, 46.947531 ], [ 24.658468, 46.910793 ], [ 24.74591, 46.908624 ], [ 24.725631, 46.93559 ], [ 24.744466, 46.985243 ], [ 24.790466, 47.045437 ], [ 24.867313, 47.102763 ], [ 25.015133, 47.112455 ], [ 25.063383, 47.136538 ], [ 25.047709, 47.218334 ], [ 25.074308, 47.25378 ], [ 25.035325, 47.287557 ], [ 25.073222, 47.31577 ], [ 25.062572, 47.371857 ], [ 24.998816, 47.418061 ], [ 25.079688, 47.442173 ], [ 25.05127, 47.476812 ], [ 25.090502, 47.512344 ], [ 25.048477, 47.557686 ], [ 24.960838, 47.596851 ], [ 24.829558, 47.595461 ], [ 24.806393, 47.56911 ], [ 24.724027, 47.573748 ], [ 24.664981, 47.557583 ], [ 24.632827, 47.573835 ], [ 24.566422, 47.563676 ], [ 24.387198, 47.605865 ], [ 24.345566, 47.567444 ], [ 24.305444, 47.575228 ], [ 24.272146, 47.523663 ], [ 24.236774, 47.501332 ], [ 24.125385, 47.49352 ], [ 24.118963, 47.438452 ], [ 24.022715, 47.361948 ], [ 24.023212, 47.318629 ], [ 23.934461, 47.303558 ], [ 23.921925, 47.246452 ], [ 23.960489, 47.164835 ], [ 24.016556, 47.175509 ], [ 24.020592, 47.144532 ], [ 24.078627, 47.117564 ], [ 24.103311, 47.123028 ], [ 24.136508, 47.092312 ], [ 24.102359, 46.987511 ], [ 24.117559, 46.962506 ], [ 24.172193, 46.960863 ], [ 24.163709, 46.936363 ], [ 24.19066, 46.930729 ], [ 24.223756, 46.889992 ], [ 24.179576, 46.804696 ] ] ] } },
{ "type": "Feature", "properties": { "loc": "RO113" }, "geometry": { "type": "Polygon", "coordinates": [ [ [ 22.725583, 47.00863 ], [ 22.679516, 46.952791 ], [ 22.764271, 46.910451 ], [ 22.771155, 46.893154 ], [ 22.725583, 46.823233 ], [ 22.662916, 46.794164 ], [ 22.704867, 46.76211 ], [ 22.804114, 46.628561 ], [ 22.820452, 46.555143 ], [ 22.878793, 46.538336 ], [ 22.988707, 46.551061 ], [ 23.0129, 46.507889 ], [ 23.063564, 46.469314 ], [ 23.155938, 46.505184 ], [ 23.235015, 46.492497 ], [ 23.394733, 46.536936 ], [ 23.511394, 46.492421 ], [ 23.599801, 46.486958 ], [ 23.603355, 46.421623 ], [ 23.649397, 46.401351 ], [ 23.673581, 46.409377 ], [ 23.658806, 46.425468 ], [ 23.678873, 46.446957 ], [ 23.710703, 46.456692 ], [ 23.828834, 46.465781 ], [ 23.870578, 46.452135 ], [ 23.90417, 46.46158 ], [ 23.985275, 46.430918 ], [ 24.000025, 46.441901 ], [ 23.968448, 46.467281 ], [ 23.963093, 46.516905 ], [ 23.989413, 46.540832 ], [ 24.022057, 46.532835 ], [ 24.040115, 46.544628 ], [ 24.065475, 46.603052 ], [ 24.023422, 46.627007 ], [ 24.03971, 46.64575 ], [ 24.100039, 46.661521 ], [ 24.119922, 46.698052 ], [ 24.07, 46.737899 ], [ 24.120398, 46.746716 ], [ 24.119754, 46.77165 ], [ 24.18368, 46.793373 ], [ 24.223756, 46.889992 ], [ 24.19066, 46.930729 ], [ 24.163709, 46.936363 ], [ 24.172193, 46.960863 ], [ 24.117559, 46.962506 ], [ 24.102359, 46.987511 ], [ 24.136508, 47.092312 ], [ 24.103311, 47.123028 ], [ 24.078627, 47.117564 ], [ 24.020592, 47.144532 ], [ 24.016556, 47.175509 ], [ 23.960489, 47.164835 ], [ 23.938753, 47.196606 ], [ 23.921925, 47.246452 ], [ 23.934461, 47.303558 ], [ 24.023212, 47.318629 ], [ 24.022715, 47.361948 ], [ 23.913972, 47.354276 ], [ 23.869701, 47.374266 ], [ 23.846449, 47.36862 ], [ 23.803088, 47.282146 ], [ 23.807809, 47.255594 ], [ 23.762364, 47.279704 ], [ 23.748585, 47.244596 ], [ 23.720222, 47.250936 ], [ 23.650706, 47.226661 ], [ 23.615217, 47.172702 ], [ 23.56328, 47.176805 ], [ 23.504015, 47.153291 ], [ 23.481622, 47.094637 ], [ 23.437272, 47.086169 ], [ 23.478186, 47.026384 ], [ 23.387895, 46.973799 ], [ 23.379773, 46.944911 ], [ 23.346031, 46.915888 ], [ 23.282782, 46.902952 ], [ 23.232407, 46.953808 ], [ 23.194507, 46.875164 ], [ 23.104032, 46.858103 ], [ 23.074333, 46.898079 ], [ 23.039734, 46.888266 ], [ 22.929415, 46.92253 ], [ 22.902788, 46.939603 ], [ 22.890766, 46.971582 ], [ 22.860179, 46.985629 ], [ 22.795286, 46.980616 ], [ 22.725583, 47.00863 ] ] ] } },
{ "type": "Feature", "properties": { "loc": "RO114" }, "geometry": { "type": "Polygon", "coordinates": [ [ [ 23.493605, 47.967811 ], [ 23.56156, 47.939996 ], [ 23.635023, 47.861129 ], [ 23.577939, 47.835244 ], [ 23.55684, 47.804858 ], [ 23.454016, 47.763839 ], [ 23.320529, 47.776487 ], [ 23.273692, 47.794718 ], [ 23.243114, 47.78084 ], [ 23.230845, 47.763395 ], [ 23.244304, 47.728478 ], [ 23.339523, 47.71163 ], [ 23.382908, 47.68303 ], [ 23.289154, 47.626672 ], [ 23.286504, 47.586742 ], [ 23.261503, 47.576825 ], [ 23.255019, 47.552832 ], [ 23.225358, 47.55615 ], [ 23.138902, 47.621626 ], [ 23.05872, 47.56188 ], [ 23.042156, 47.489889 ], [ 22.96391, 47.481821 ], [ 22.981279, 47.465047 ], [ 22.967909, 47.440363 ], [ 23.030816, 47.419527 ], [ 23.059555, 47.439265 ], [ 23.183058, 47.4558 ], [ 23.21777, 47.43596 ], [ 23.355966, 47.413567 ], [ 23.377699, 47.390008 ], [ 23.506539, 47.364131 ], [ 23.574532, 47.363267 ], [ 23.638454, 47.393005 ], [ 23.732791, 47.321653 ], [ 23.841384, 47.340007 ], [ 23.846449, 47.36862 ], [ 23.869701, 47.374266 ], [ 23.913972, 47.354276 ], [ 24.022715, 47.361948 ], [ 24.118963, 47.438452 ], [ 24.125385, 47.49352 ], [ 24.236774, 47.501332 ], [ 24.272146, 47.523663 ], [ 24.305444, 47.575228 ], [ 24.345566, 47.567444 ], [ 24.387198, 47.605865 ], [ 24.566422, 47.563676 ], [ 24.632827, 47.573835 ], [ 24.664981, 47.557583 ], [ 24.724027, 47.573748 ], [ 24.806393, 47.56911 ], [ 24.829558, 47.595461 ], [ 24.960838, 47.596851 ], [ 24.958822, 47.61481 ], [ 25.055598, 47.648341 ], [ 24.953031, 47.706226 ], [ 24.947101, 47.729124 ], [ 24.888752, 47.727775 ], [ 24.820019, 47.819091 ], [ 24.685286, 47.85643 ], [ 24.626205, 47.94618 ], [ 24.572292, 47.96671 ], [ 24.506601, 47.953217 ], [ 24.432662, 47.967638 ], [ 24.367822, 47.922371 ], [ 24.226218, 47.898683 ], [ 24.193079, 47.915085 ], [ 24.114478, 47.916418 ], [ 24.065712, 47.95059 ], [ 24.00734, 47.965317 ], [ 23.860636, 47.934607 ], [ 23.814195, 47.981291 ], [ 23.761419, 47.995418 ], [ 23.667126, 47.985489 ], [ 23.530602, 48.016517 ], [ 23.493605, 47.967811 ] ] ] } },
{ "type": "Feature", "properties": { "loc": "RO115" }, "geometry": { "type": "Polygon", "coordinates": [ [ [ 22.61268, 47.334741 ], [ 22.650417, 47.374357 ], [ 22.774084, 47.417828 ], [ 22.811642, 47.403614 ], [ 22.844468, 47.420599 ], [ 22.909608, 47.413001 ], [ 22.978222, 47.354314 ], [ 23.004263, 47.367055 ], [ 23.054627, 47.353259 ], [ 23.096753, 47.370367 ], [ 23.095098, 47.387447 ], [ 23.117346, 47.399537 ], [ 23.106107, 47.442358 ], [ 23.059555, 47.439265 ], [ 23.030816, 47.419527 ], [ 22.967909, 47.440363 ], [ 22.981279, 47.465047 ], [ 22.96391, 47.481821 ], [ 23.042156, 47.489889 ], [ 23.05872, 47.56188 ], [ 23.138902, 47.621626 ], [ 23.225358, 47.55615 ], [ 23.255019, 47.552832 ], [ 23.261503, 47.576825 ], [ 23.286504, 47.586742 ], [ 23.289154, 47.626672 ], [ 23.382908, 47.68303 ], [ 23.339523, 47.71163 ], [ 23.244304, 47.728478 ], [ 23.230845, 47.763395 ], [ 23.243114, 47.78084 ], [ 23.273692, 47.794718 ], [ 23.320529, 47.776487 ], [ 23.454016, 47.763839 ], [ 23.55684, 47.804858 ], [ 23.577939, 47.835244 ], [ 23.635023, 47.861129 ], [ 23.62923, 47.881625 ], [ 23.56156, 47.939996 ], [ 23.289047, 48.047438 ], [ 23.287708, 48.073756 ], [ 23.264693, 48.098936 ], [ 23.198048, 48.097121 ], [ 23.170838, 48.118149 ], [ 23.119467, 48.087739 ], [ 23.089362, 48.007898 ], [ 23.014029, 47.991991 ], [ 22.928887, 48.016721 ], [ 22.943301, 47.967361 ], [ 22.896271, 47.95412 ], [ 22.848946, 47.911208 ], [ 22.762183, 47.89244 ], [ 22.772814, 47.843704 ], [ 22.716047, 47.834918 ], [ 22.669893, 47.786224 ], [ 22.555915, 47.772828 ], [ 22.478534, 47.808939 ], [ 22.44503, 47.797065 ], [ 22.425421, 47.742089 ], [ 22.321081, 47.764608 ], [ 22.314897, 47.744041 ], [ 22.266437, 47.728998 ], [ 22.180838, 47.600094 ], [ 22.255536, 47.564037 ], [ 22.26108, 47.54018 ], [ 22.288499, 47.537081 ], [ 22.292452, 47.506654 ], [ 22.337022, 47.492071 ], [ 22.356996, 47.431588 ], [ 22.523334, 47.419305 ], [ 22.61268, 47.334741 ] ] ] } },
{ "type": "Feature", "properties": { "loc": "RO116" }, "geometry": { "type": "Polygon", "coordinates": [ [ [ 22.725583, 47.00863 ], [ 22.795286, 46.980616 ], [ 22.860179, 46.985629 ], [ 22.890766, 46.971582 ], [ 22.902788, 46.939603 ], [ 22.929415, 46.92253 ], [ 23.039734, 46.888266 ], [ 23.074333, 46.898079 ], [ 23.104032, 46.858103 ], [ 23.194507, 46.875164 ], [ 23.232407, 46.953808 ], [ 23.282782, 46.902952 ], [ 23.346031, 46.915888 ], [ 23.379773, 46.944911 ], [ 23.387895, 46.973799 ], [ 23.478186, 47.026384 ], [ 23.437272, 47.086169 ], [ 23.481622, 47.094637 ], [ 23.504015, 47.153291 ], [ 23.56328, 47.176805 ], [ 23.615217, 47.172702 ], [ 23.650706, 47.226661 ], [ 23.720222, 47.250936 ], [ 23.748585, 47.244596 ], [ 23.762364, 47.279704 ], [ 23.807809, 47.255594 ], [ 23.803088, 47.282146 ], [ 23.841384, 47.340007 ], [ 23.732791, 47.321653 ], [ 23.638454, 47.393005 ], [ 23.574532, 47.363267 ], [ 23.506539, 47.364131 ], [ 23.377699, 47.390008 ], [ 23.355966, 47.413567 ], [ 23.21777, 47.43596 ], [ 23.183058, 47.4558 ], [ 23.106107, 47.442358 ], [ 23.117346, 47.399537 ], [ 23.095098, 47.387447 ], [ 23.096753, 47.370367 ], [ 23.054627, 47.353259 ], [ 23.004263, 47.367055 ], [ 22.965236, 47.356852 ], [ 22.909608, 47.413001 ], [ 22.844468, 47.420599 ], [ 22.811642, 47.403614 ], [ 22.774084, 47.417828 ], [ 22.650417, 47.374357 ], [ 22.628825, 47.338549 ], [ 22.553358, 47.29955 ], [ 22.555854, 47.25378 ], [ 22.516956, 47.227045 ], [ 22.500067, 47.186242 ], [ 22.558971, 47.126662 ], [ 22.531733, 47.104944 ], [ 22.597706, 47.064562 ], [ 22.681741, 47.04861 ], [ 22.725583, 47.00863 ] ] ] } },
{ "type": "Feature", "properties": { "loc": "RO121" }, "geometry": { "type": "Polygon", "coordinates": [ [ [ 23.985275, 46.430918 ], [ 23.90417, 46.46158 ], [ 23.710703, 46.456692 ], [ 23.678873, 46.446957 ], [ 23.658806, 46.425468 ], [ 23.673581, 46.409377 ], [ 23.649397, 46.401351 ], [ 23.603355, 46.421623 ], [ 23.599801, 46.486958 ], [ 23.511394, 46.492421 ], [ 23.394733, 46.536936 ], [ 23.235015, 46.492497 ], [ 23.155938, 46.505184 ], [ 23.063564, 46.469314 ], [ 23.0129, 46.507889 ], [ 22.988707, 46.551061 ], [ 22.878793, 46.538336 ], [ 22.811951, 46.568859 ], [ 22.760687, 46.572413 ], [ 22.678693, 46.517007 ], [ 22.676035, 46.478977 ], [ 22.707993, 46.428715 ], [ 22.676576, 46.405825 ], [ 22.699997, 46.365854 ], [ 22.815297, 46.327814 ], [ 22.929762, 46.327378 ], [ 22.961928, 46.28515 ], [ 22.951307, 46.266083 ], [ 22.96459, 46.235925 ], [ 22.993205, 46.214813 ], [ 23.062256, 46.209458 ], [ 23.09237, 46.181859 ], [ 23.1001, 46.143603 ], [ 23.05773, 46.135622 ], [ 23.104498, 46.048012 ], [ 23.183403, 46.029346 ], [ 23.238014, 46.035665 ], [ 23.237073, 45.988555 ], [ 23.261981, 45.941238 ], [ 23.326606, 45.912744 ], [ 23.310484, 45.894315 ], [ 23.327392, 45.875767 ], [ 23.331017, 45.826894 ], [ 23.374124, 45.763084 ], [ 23.367501, 45.713109 ], [ 23.416502, 45.677678 ], [ 23.374223, 45.630731 ], [ 23.416729, 45.627099 ], [ 23.429595, 45.588547 ], [ 23.496907, 45.574995 ], [ 23.563177, 45.527086 ], [ 23.620681, 45.457479 ], [ 23.680671, 45.472637 ], [ 23.703613, 45.496772 ], [ 23.661913, 45.501352 ], [ 23.616654, 45.562291 ], [ 23.645448, 45.597918 ], [ 23.640639, 45.636478 ], [ 23.600322, 45.671575 ], [ 23.593115, 45.703483 ], [ 23.619679, 45.742352 ], [ 23.652113, 45.758366 ], [ 23.623766, 45.801407 ], [ 23.685314, 45.805904 ], [ 23.727729, 45.832717 ], [ 23.765011, 45.878256 ], [ 23.73732, 45.896607 ], [ 23.740134, 45.913921 ], [ 23.811683, 45.926369 ], [ 23.866476, 45.954522 ], [ 23.855261, 46.009821 ], [ 23.876234, 46.032231 ], [ 23.938375, 46.043529 ], [ 23.974581, 46.034491 ], [ 24.004128, 46.005225 ], [ 24.0469, 46.087119 ], [ 24.121812, 46.133868 ], [ 24.208009, 46.15619 ], [ 24.194744, 46.214914 ], [ 24.240127, 46.238558 ], [ 24.231312, 46.25964 ], [ 24.191712, 46.281031 ], [ 24.164362, 46.27443 ], [ 24.138551, 46.332735 ], [ 24.060132, 46.341529 ], [ 23.99628, 46.373753 ], [ 24.031802, 46.40831 ], [ 24.027815, 46.456816 ], [ 23.985275, 46.430918 ] ] ] } },
{ "type": "Feature", "properties": { "loc": "RO122" }, "geometry": { "type": "MultiPolygon", "coordinates": [ [ [ [ 26.093335, 45.516306 ], [ 26.091243, 45.568848 ], [ 26.010748, 45.641615 ], [ 25.965757, 45.65167 ], [ 25.963258, 45.688204 ], [ 25.865572, 45.710491 ], [ 25.789107, 45.760401 ], [ 25.706737, 45.769945 ], [ 25.675176, 45.754903 ], [ 25.660169, 45.789875 ], [ 25.573941, 45.836666 ], [ 25.562914, 45.870612 ], [ 25.597513, 45.887397 ], [ 25.553498, 45.896745 ], [ 25.540692, 45.966484 ], [ 25.575307, 46.027902 ], [ 25.554174, 46.050283 ], [ 25.506735, 46.048011 ], [ 25.465814, 46.065673 ], [ 25.447377, 46.121526 ], [ 25.372227, 46.137476 ], [ 25.329922, 46.17594 ], [ 25.27513, 46.172892 ], [ 25.26016, 46.187336 ], [ 25.245664, 46.14329 ], [ 25.191474, 46.168401 ], [ 25.121714, 46.142979 ], [ 25.013266, 46.142928 ], [ 24.958627, 46.110918 ], [ 24.954965, 46.059296 ], [ 24.828806, 46.006811 ], [ 24.829416, 45.979842 ], [ 24.775352, 45.972643 ], [ 24.746948, 45.940559 ], [ 24.707086, 45.937239 ], [ 24.717826, 45.898269 ], [ 24.771695, 45.850439 ], [ 24.712431, 45.822075 ], [ 24.685105, 45.82933 ], [ 24.64522, 45.798165 ], [ 24.677453, 45.702859 ], [ 24.671446, 45.634185 ], [ 24.684926, 45.604111 ], [ 24.813576, 45.608701 ], [ 24.938348, 45.583747 ], [ 25.10786, 45.581973 ], [ 25.188895, 45.52444 ], [ 25.22834, 45.515784 ], [ 25.270747, 45.443691 ], [ 25.259074, 45.42307 ], [ 25.271956, 45.410615 ], [ 25.300835, 45.417403 ], [ 25.321578, 45.381089 ], [ 25.401997, 45.387628 ], [ 25.412178, 45.428619 ], [ 25.427788, 45.436804 ], [ 25.508774, 45.468414 ], [ 25.596666, 45.463172 ], [ 25.632255, 45.493444 ], [ 25.678306, 45.498775 ], [ 25.729818, 45.466888 ], [ 25.791477, 45.47623 ], [ 25.827497, 45.432277 ], [ 25.863681, 45.424975 ], [ 25.921137, 45.518236 ], [ 25.996036, 45.511604 ], [ 26.042991, 45.480021 ], [ 26.093335, 45.516306 ] ] ], [ [ [ 25.630001, 45.889946 ], [ 25.648242, 45.896595 ], [ 25.643518, 45.906314 ], [ 25.630001, 45.889946 ] ] ] ] } },
{ "type": "Feature", "properties": { "loc": "RO123" }, "geometry": { "type": "Polygon", "coordinates": [ [ [ 26.392095, 45.802389 ], [ 26.376195, 45.822577 ], [ 26.377039, 45.904868 ], [ 26.392706, 45.958162 ], [ 26.434201, 45.989427 ], [ 26.439985, 46.038876 ], [ 26.426166, 46.07981 ], [ 26.371107, 46.112927 ], [ 26.38318, 46.143164 ], [ 26.345841, 46.140912 ], [ 26.339126, 46.208344 ], [ 26.30573, 46.239616 ], [ 26.263439, 46.246338 ], [ 26.255002, 46.214487 ], [ 26.167831, 46.16336 ], [ 26.05839, 46.158897 ], [ 26.014194, 46.129449 ], [ 25.858873, 46.121093 ], [ 25.79313, 46.178137 ], [ 25.727054, 46.270641 ], [ 25.695339, 46.275048 ], [ 25.511848, 46.188513 ], [ 25.505067, 46.15857 ], [ 25.451242, 46.104094 ], [ 25.465814, 46.065673 ], [ 25.506735, 46.048011 ], [ 25.554174, 46.050283 ], [ 25.575307, 46.027902 ], [ 25.540692, 45.966484 ], [ 25.553498, 45.896745 ], [ 25.597513, 45.887397 ], [ 25.562914, 45.870612 ], [ 25.573941, 45.836666 ], [ 25.660169, 45.789875 ], [ 25.675176, 45.754903 ], [ 25.706737, 45.769945 ], [ 25.789107, 45.760401 ], [ 25.865572, 45.710491 ], [ 25.963258, 45.688204 ], [ 25.965757, 45.65167 ], [ 26.010748, 45.641615 ], [ 26.091243, 45.568848 ], [ 26.093335, 45.516306 ], [ 26.145526, 45.580386 ], [ 26.172846, 45.566918 ], [ 26.187615, 45.606326 ], [ 26.213117, 45.62005 ], [ 26.246835, 45.623265 ], [ 26.279305, 45.589064 ], [ 26.309821, 45.606822 ], [ 26.356827, 45.720279 ], [ 26.381534, 45.738155 ], [ 26.392095, 45.802389 ] ], [ [ 25.643518, 45.906314 ], [ 25.648242, 45.896595 ], [ 25.630001, 45.889946 ], [ 25.643518, 45.906314 ] ] ] } },
{ "type": "Feature", "properties": { "loc": "RO124" }, "geometry": { "type": "Polygon", "coordinates": [ [ [ 25.173251, 46.165519 ], [ 25.245664, 46.14329 ], [ 25.26016, 46.187336 ], [ 25.27513, 46.172892 ], [ 25.329922, 46.17594 ], [ 25.372227, 46.137476 ], [ 25.447377, 46.121526 ], [ 25.451242, 46.104094 ], [ 25.505067, 46.15857 ], [ 25.511848, 46.188513 ], [ 25.695339, 46.275048 ], [ 25.727054, 46.270641 ], [ 25.79313, 46.178137 ], [ 25.858873, 46.121093 ], [ 26.014194, 46.129449 ], [ 26.05839, 46.158897 ], [ 26.167831, 46.16336 ], [ 26.255002, 46.214487 ], [ 26.255134, 46.273425 ], [ 26.28591, 46.337525 ], [ 26.163257, 46.314054 ], [ 26.151824, 46.328125 ], [ 26.159651, 46.385617 ], [ 26.047714, 46.414553 ], [ 25.997232, 46.410104 ], [ 25.991631, 46.437894 ], [ 26.014701, 46.464029 ], [ 26.012203, 46.485172 ], [ 26.072666, 46.488388 ], [ 26.080069, 46.50844 ], [ 25.996219, 46.607066 ], [ 26.015193, 46.638042 ], [ 25.97516, 46.697312 ], [ 25.898467, 46.699032 ], [ 25.902319, 46.657201 ], [ 25.877098, 46.651804 ], [ 25.803376, 46.712216 ], [ 25.80495, 46.794642 ], [ 25.783896, 46.824223 ], [ 25.795778, 46.841496 ], [ 25.769638, 46.84297 ], [ 25.771523, 46.88506 ], [ 25.803068, 46.922352 ], [ 25.847554, 46.934319 ], [ 25.829503, 46.968535 ], [ 25.798269, 46.975963 ], [ 25.736647, 47.070311 ], [ 25.661583, 47.091646 ], [ 25.540461, 47.083294 ], [ 25.524756, 47.113182 ], [ 25.418434, 47.181388 ], [ 25.359416, 47.177672 ], [ 25.305091, 47.162992 ], [ 25.292503, 47.114094 ], [ 25.246711, 47.097919 ], [ 25.23092, 47.075582 ], [ 25.288119, 46.993233 ], [ 25.253707, 46.845248 ], [ 25.283775, 46.831626 ], [ 25.285515, 46.801162 ], [ 25.314677, 46.776935 ], [ 25.262857, 46.745302 ], [ 25.287751, 46.698156 ], [ 25.282869, 46.677791 ], [ 25.243539, 46.668161 ], [ 25.226145, 46.634665 ], [ 25.152124, 46.582878 ], [ 25.099851, 46.578613 ], [ 25.023956, 46.538362 ], [ 24.994216, 46.500585 ], [ 25.016283, 46.469601 ], [ 24.939656, 46.422103 ], [ 24.971094, 46.38456 ], [ 24.895873, 46.383855 ], [ 24.860175, 46.347593 ], [ 24.870564, 46.30434 ], [ 24.943499, 46.2494 ], [ 25.078321, 46.238725 ], [ 25.173251, 46.165519 ] ] ] } },
{ "type": "Feature", "properties": { "loc": "RO125" }, "geometry": { "type": "Polygon", "coordinates": [ [ [ 24.946549, 46.079109 ], [ 24.958627, 46.110918 ], [ 25.013266, 46.142928 ], [ 25.121714, 46.142979 ], [ 25.173251, 46.165519 ], [ 25.078321, 46.238725 ], [ 24.943499, 46.2494 ], [ 24.870564, 46.30434 ], [ 24.860175, 46.347593 ], [ 24.895873, 46.383855 ], [ 24.971094, 46.38456 ], [ 24.939656, 46.422103 ], [ 25.016283, 46.469601 ], [ 24.994216, 46.500585 ], [ 25.023956, 46.538362 ], [ 25.099851, 46.578613 ], [ 25.152124, 46.582878 ], [ 25.226145, 46.634665 ], [ 25.243539, 46.668161 ], [ 25.282869, 46.677791 ], [ 25.287751, 46.698156 ], [ 25.262857, 46.745302 ], [ 25.314677, 46.776935 ], [ 25.285515, 46.801162 ], [ 25.283775, 46.831626 ], [ 25.253707, 46.845248 ], [ 25.28914, 46.984846 ], [ 25.266353, 47.01033 ], [ 25.269514, 47.030601 ], [ 25.230702, 47.065026 ], [ 25.246711, 47.097919 ], [ 25.173359, 47.130489 ], [ 25.144426, 47.113308 ], [ 25.063383, 47.136538 ], [ 25.015133, 47.112455 ], [ 24.867313, 47.102763 ], [ 24.790466, 47.045437 ], [ 24.744466, 46.985243 ], [ 24.725631, 46.93559 ], [ 24.74591, 46.908624 ], [ 24.658468, 46.910793 ], [ 24.629315, 46.947531 ], [ 24.597316, 46.944855 ], [ 24.580231, 46.915756 ], [ 24.536102, 46.904976 ], [ 24.527541, 46.858207 ], [ 24.461311, 46.820639 ], [ 24.453622, 46.790925 ], [ 24.468929, 46.782461 ], [ 24.45378, 46.768302 ], [ 24.412603, 46.771223 ], [ 24.372503, 46.747646 ], [ 24.297519, 46.755173 ], [ 24.179576, 46.804696 ], [ 24.171888, 46.784662 ], [ 24.119754, 46.77165 ], [ 24.120398, 46.746716 ], [ 24.07, 46.737899 ], [ 24.119922, 46.698052 ], [ 24.100039, 46.661521 ], [ 24.03971, 46.64575 ], [ 24.023422, 46.627007 ], [ 24.065475, 46.603052 ], [ 24.040115, 46.544628 ], [ 24.022057, 46.532835 ], [ 23.989413, 46.540832 ], [ 23.963093, 46.516905 ], [ 23.968448, 46.467281 ], [ 24.000025, 46.441901 ], [ 23.985275, 46.430918 ], [ 24.027815, 46.456816 ], [ 24.031802, 46.40831 ], [ 23.99628, 46.373753 ], [ 24.060132, 46.341529 ], [ 24.138551, 46.332735 ], [ 24.164362, 46.27443 ], [ 24.191712, 46.281031 ], [ 24.257817, 46.252771 ], [ 24.286597, 46.281352 ], [ 24.309704, 46.253452 ], [ 24.375828, 46.245507 ], [ 24.420976, 46.263237 ], [ 24.500762, 46.24556 ], [ 24.573292, 46.271207 ], [ 24.619533, 46.253376 ], [ 24.663801, 46.279052 ], [ 24.674154, 46.246889 ], [ 24.654644, 46.231277 ], [ 24.682415, 46.195507 ], [ 24.674411, 46.107899 ], [ 24.697816, 46.084762 ], [ 24.868139, 46.110254 ], [ 24.946549, 46.079109 ] ] ] } },
{ "type": "Feature", "properties": { "loc": "RO126" }, "geometry": { "type": "Polygon", "coordinates": [ [ [ 24.946549, 46.079109 ], [ 24.868139, 46.110254 ], [ 24.697816, 46.084762 ], [ 24.674411, 46.107899 ], [ 24.682415, 46.195507 ], [ 24.654644, 46.231277 ], [ 24.674154, 46.246889 ], [ 24.663801, 46.279052 ], [ 24.619533, 46.253376 ], [ 24.573292, 46.271207 ], [ 24.500762, 46.24556 ], [ 24.420976, 46.263237 ], [ 24.375828, 46.245507 ], [ 24.309704, 46.253452 ], [ 24.286597, 46.281352 ], [ 24.257817, 46.252771 ], [ 24.231312, 46.25964 ], [ 24.240127, 46.238558 ], [ 24.194744, 46.214914 ], [ 24.208009, 46.15619 ], [ 24.121812, 46.133868 ], [ 24.0469, 46.087119 ], [ 24.004128, 46.005225 ], [ 23.974581, 46.034491 ], [ 23.938375, 46.043529 ], [ 23.876234, 46.032231 ], [ 23.855261, 46.009821 ], [ 23.866476, 45.954522 ], [ 23.811683, 45.926369 ], [ 23.740134, 45.913921 ], [ 23.73732, 45.896607 ], [ 23.765011, 45.878256 ], [ 23.727729, 45.832717 ], [ 23.685314, 45.805904 ], [ 23.623766, 45.801407 ], [ 23.652113, 45.758366 ], [ 23.619679, 45.742352 ], [ 23.593115, 45.703483 ], [ 23.600322, 45.671575 ], [ 23.640639, 45.636478 ], [ 23.645448, 45.597918 ], [ 23.616654, 45.562291 ], [ 23.661913, 45.501352 ], [ 23.703613, 45.496772 ], [ 23.850497, 45.533647 ], [ 24.168403, 45.51574 ], [ 24.329612, 45.57771 ], [ 24.447305, 45.587958 ], [ 24.484652, 45.575971 ], [ 24.56998, 45.581526 ], [ 24.629206, 45.60284 ], [ 24.669612, 45.597085 ], [ 24.684926, 45.604111 ], [ 24.671446, 45.634185 ], [ 24.677453, 45.702859 ], [ 24.64522, 45.798165 ], [ 24.685105, 45.82933 ], [ 24.712431, 45.822075 ], [ 24.771695, 45.850439 ], [ 24.717826, 45.898269 ], [ 24.707086, 45.937239 ], [ 24.746948, 45.940559 ], [ 24.775352, 45.972643 ], [ 24.829416, 45.979842 ], [ 24.828806, 46.006811 ], [ 24.954965, 46.059296 ], [ 24.946549, 46.079109 ] ] ] } },
{ "type": "Feature", "properties": { "loc": "RO211" }, "geometry": { "type": "Polygon", "coordinates": [ [ [ 27.206219, 46.769848 ], [ 27.157615, 46.739889 ], [ 27.093357, 46.766418 ], [ 26.958143, 46.757916 ], [ 26.913103, 46.788134 ], [ 26.908726, 46.819488 ], [ 26.891199, 46.826528 ], [ 26.854272, 46.803665 ], [ 26.829508, 46.772682 ], [ 26.832588, 46.748893 ], [ 26.794762, 46.72352 ], [ 26.73563, 46.764662 ], [ 26.687012, 46.766427 ], [ 26.668199, 46.73651 ], [ 26.571135, 46.681863 ], [ 26.432023, 46.683536 ], [ 26.381724, 46.65153 ], [ 26.302785, 46.657191 ], [ 26.258751, 46.697335 ], [ 26.203944, 46.653724 ], [ 26.100278, 46.650494 ], [ 26.061271, 46.710971 ], [ 25.97516, 46.697312 ], [ 26.015193, 46.638042 ], [ 25.996219, 46.607066 ], [ 26.080069, 46.50844 ], [ 26.072666, 46.488388 ], [ 26.012203, 46.485172 ], [ 26.014701, 46.464029 ], [ 25.991631, 46.437894 ], [ 25.997232, 46.410104 ], [ 26.047714, 46.414553 ], [ 26.159651, 46.385617 ], [ 26.151824, 46.328125 ], [ 26.163257, 46.314054 ], [ 26.28591, 46.337525 ], [ 26.255134, 46.273425 ], [ 26.263439, 46.246338 ], [ 26.329637, 46.22504 ], [ 26.345841, 46.140912 ], [ 26.38318, 46.143164 ], [ 26.371107, 46.112927 ], [ 26.426166, 46.07981 ], [ 26.439985, 46.038876 ], [ 26.490048, 46.043032 ], [ 26.572573, 46.019143 ], [ 26.648127, 46.07557 ], [ 26.704005, 46.091881 ], [ 26.776646, 46.091179 ], [ 26.807997, 46.068399 ], [ 26.867949, 46.083196 ], [ 26.92768, 46.066857 ], [ 26.953186, 46.103637 ], [ 26.9763, 46.11096 ], [ 27.101785, 46.091697 ], [ 27.134079, 46.122469 ], [ 27.12831, 46.147989 ], [ 27.170803, 46.178049 ], [ 27.260393, 46.181448 ], [ 27.276201, 46.20184 ], [ 27.312685, 46.202903 ], [ 27.353979, 46.155142 ], [ 27.397938, 46.193716 ], [ 27.444599, 46.183275 ], [ 27.461253, 46.159657 ], [ 27.492819, 46.159213 ], [ 27.506846, 46.20764 ], [ 27.474865, 46.236956 ], [ 27.462069, 46.370428 ], [ 27.377144, 46.523192 ], [ 27.283148, 46.623519 ], [ 27.311945, 46.652741 ], [ 27.299994, 46.677989 ], [ 27.320748, 46.698156 ], [ 27.246661, 46.732367 ], [ 27.206219, 46.769848 ] ] ] } },
{ "type": "Feature", "properties": { "loc": "RO212" }, "geometry": { "type": "Polygon", "coordinates": [ [ [ 27.391167, 47.589397 ], [ 27.324364, 47.636504 ], [ 27.258511, 47.721807 ], [ 27.287098, 47.72868 ], [ 27.284028, 47.748931 ], [ 27.23669, 47.799395 ], [ 27.226597, 47.822196 ], [ 27.240027, 47.833868 ], [ 27.211873, 47.850859 ], [ 27.197597, 47.897913 ], [ 27.159407, 47.920345 ], [ 27.169193, 47.943879 ], [ 27.152655, 47.988998 ], [ 27.099241, 48.014696 ], [ 27.039693, 48.082824 ], [ 27.022814, 48.127719 ], [ 26.969405, 48.135845 ], [ 26.936692, 48.189128 ], [ 26.907, 48.18963 ], [ 26.813286, 48.246653 ], [ 26.63056, 48.25975 ], [ 26.540875, 48.213948 ], [ 26.471472, 48.216689 ], [ 26.33853, 48.184177 ], [ 26.271683, 48.082824 ], [ 26.215452, 48.051594 ], [ 26.191099, 47.99978 ], [ 26.098828, 47.978796 ], [ 26.130796, 47.935337 ], [ 26.178409, 47.917494 ], [ 26.191613, 47.893086 ], [ 26.256499, 47.884679 ], [ 26.337984, 47.798007 ], [ 26.400297, 47.778625 ], [ 26.398869, 47.746256 ], [ 26.460027, 47.720112 ], [ 26.507559, 47.657576 ], [ 26.537323, 47.643872 ], [ 26.547961, 47.5823 ], [ 26.598401, 47.528352 ], [ 26.562191, 47.506459 ], [ 26.592962, 47.46604 ], [ 26.716268, 47.477021 ], [ 26.702594, 47.500861 ], [ 26.717618, 47.512929 ], [ 26.953101, 47.495487 ], [ 27.004282, 47.480296 ], [ 27.040279, 47.444929 ], [ 27.078341, 47.46929 ], [ 27.076357, 47.5118 ], [ 27.100109, 47.543543 ], [ 27.223364, 47.517779 ], [ 27.251733, 47.529701 ], [ 27.263981, 47.567457 ], [ 27.391167, 47.589397 ] ] ] } },
{ "type": "Feature", "properties": { "loc": "RO213" }, "geometry": { "type": "Polygon", "coordinates": [ [ [ 28.113806, 46.838411 ], [ 28.085275, 46.977395 ], [ 28.043652, 47.008115 ], [ 28.050377, 47.023485 ], [ 27.967653, 47.043023 ], [ 27.80691, 47.14163 ], [ 27.7938, 47.195252 ], [ 27.728892, 47.286362 ], [ 27.600691, 47.321151 ], [ 27.558469, 47.465081 ], [ 27.474838, 47.494607 ], [ 27.420969, 47.574517 ], [ 27.391167, 47.589397 ], [ 27.263981, 47.567457 ], [ 27.251733, 47.529701 ], [ 27.223364, 47.517779 ], [ 27.100109, 47.543543 ], [ 27.076357, 47.5118 ], [ 27.078341, 47.46929 ], [ 27.040279, 47.444929 ], [ 27.004282, 47.480296 ], [ 26.953101, 47.495487 ], [ 26.717618, 47.512929 ], [ 26.702594, 47.500861 ], [ 26.716268, 47.477021 ], [ 26.68078, 47.448926 ], [ 26.700285, 47.407 ], [ 26.648365, 47.397814 ], [ 26.67333, 47.379505 ], [ 26.666723, 47.359509 ], [ 26.61077, 47.35689 ], [ 26.525481, 47.402155 ], [ 26.497543, 47.392181 ], [ 26.502189, 47.345394 ], [ 26.570387, 47.305939 ], [ 26.50779, 47.271693 ], [ 26.606081, 47.195338 ], [ 26.605766, 47.153179 ], [ 26.63526, 47.096893 ], [ 26.680796, 47.1085 ], [ 26.721835, 47.089221 ], [ 26.761931, 47.093394 ], [ 26.82612, 47.043744 ], [ 26.873704, 47.053408 ], [ 26.907598, 47.031334 ], [ 26.953134, 47.046 ], [ 26.977309, 47.073604 ], [ 27.018598, 47.037446 ], [ 27.07077, 47.085103 ], [ 27.156537, 47.079426 ], [ 27.187847, 47.033239 ], [ 27.238223, 47.002483 ], [ 27.224822, 46.97694 ], [ 27.179724, 46.98575 ], [ 27.129347, 46.951483 ], [ 27.230896, 46.871401 ], [ 27.315899, 46.866061 ], [ 27.389909, 46.890281 ], [ 27.426257, 46.866797 ], [ 27.456277, 46.867064 ], [ 27.522204, 46.8804 ], [ 27.535745, 46.91218 ], [ 27.59635, 46.883289 ], [ 27.637486, 46.899391 ], [ 27.609644, 46.957979 ], [ 27.627108, 46.986094 ], [ 27.771562, 46.882035 ], [ 27.785484, 46.890852 ], [ 27.774757, 46.941694 ], [ 27.80505, 46.931402 ], [ 27.804516, 46.861288 ], [ 27.862427, 46.858322 ], [ 27.901529, 46.815027 ], [ 27.936511, 46.825203 ], [ 27.933404, 46.861891 ], [ 28.011239, 46.836769 ], [ 28.070312, 46.848551 ], [ 28.113806, 46.838411 ] ] ] } },
{ "type": "Feature", "properties": { "loc": "RO214" }, "geometry": { "type": "Polygon", "coordinates": [ [ [ 27.202391, 46.88241 ], [ 27.129347, 46.951483 ], [ 27.179724, 46.98575 ], [ 27.224822, 46.97694 ], [ 27.238223, 47.002483 ], [ 27.187847, 47.033239 ], [ 27.156537, 47.079426 ], [ 27.07077, 47.085103 ], [ 27.018598, 47.037446 ], [ 26.977309, 47.073604 ], [ 26.953134, 47.046 ], [ 26.907598, 47.031334 ], [ 26.873704, 47.053408 ], [ 26.82612, 47.043744 ], [ 26.761931, 47.093394 ], [ 26.721835, 47.089221 ], [ 26.680796, 47.1085 ], [ 26.63526, 47.096893 ], [ 26.605766, 47.153179 ], [ 26.606081, 47.195338 ], [ 26.406036, 47.338588 ], [ 26.261775, 47.281713 ], [ 26.18587, 47.305013 ], [ 26.058916, 47.276181 ], [ 25.979338, 47.287382 ], [ 25.918052, 47.260294 ], [ 25.83668, 47.309415 ], [ 25.776244, 47.319272 ], [ 25.809135, 47.258772 ], [ 25.733016, 47.217575 ], [ 25.661583, 47.091646 ], [ 25.736647, 47.070311 ], [ 25.798269, 46.975963 ], [ 25.829503, 46.968535 ], [ 25.847554, 46.934319 ], [ 25.803068, 46.922352 ], [ 25.771523, 46.88506 ], [ 25.769638, 46.84297 ], [ 25.795778, 46.841496 ], [ 25.783896, 46.824223 ], [ 25.80495, 46.794642 ], [ 25.803376, 46.712216 ], [ 25.877098, 46.651804 ], [ 25.902319, 46.657201 ], [ 25.898467, 46.699032 ], [ 26.061271, 46.710971 ], [ 26.087183, 46.65707 ], [ 26.165635, 46.645306 ], [ 26.203944, 46.653724 ], [ 26.258751, 46.697335 ], [ 26.302785, 46.657191 ], [ 26.381724, 46.65153 ], [ 26.432023, 46.683536 ], [ 26.571135, 46.681863 ], [ 26.668199, 46.73651 ], [ 26.687012, 46.766427 ], [ 26.73563, 46.764662 ], [ 26.794762, 46.72352 ], [ 26.832588, 46.748893 ], [ 26.829508, 46.772682 ], [ 26.854272, 46.803665 ], [ 26.891199, 46.826528 ], [ 26.908726, 46.819488 ], [ 26.913103, 46.788134 ], [ 26.958143, 46.757916 ], [ 27.093357, 46.766418 ], [ 27.157615, 46.739889 ], [ 27.230883, 46.776644 ], [ 27.213621, 46.796692 ], [ 27.21456, 46.848743 ], [ 27.192506, 46.871391 ], [ 27.202391, 46.88241 ] ] ] } },
{ "type": "Feature", "properties": { "loc": "RO215" }, "geometry": { "type": "Polygon", "coordinates": [ [ [ 25.661583, 47.091646 ], [ 25.733016, 47.217575 ], [ 25.809135, 47.258772 ], [ 25.776244, 47.319272 ], [ 25.83668, 47.309415 ], [ 25.918052, 47.260294 ], [ 25.979338, 47.287382 ], [ 26.058916, 47.276181 ], [ 26.18587, 47.305013 ], [ 26.261775, 47.281713 ], [ 26.406036, 47.338588 ], [ 26.50779, 47.271693 ], [ 26.570387, 47.305939 ], [ 26.502189, 47.345394 ], [ 26.497543, 47.392181 ], [ 26.525481, 47.402155 ], [ 26.61077, 47.35689 ], [ 26.666723, 47.359509 ], [ 26.67333, 47.379505 ], [ 26.648365, 47.397814 ], [ 26.700285, 47.407 ], [ 26.68078, 47.448926 ], [ 26.700572, 47.471712 ], [ 26.592962, 47.46604 ], [ 26.562191, 47.506459 ], [ 26.598401, 47.528352 ], [ 26.547961, 47.5823 ], [ 26.537323, 47.643872 ], [ 26.507559, 47.657576 ], [ 26.460027, 47.720112 ], [ 26.398869, 47.746256 ], [ 26.400297, 47.778625 ], [ 26.37129, 47.777529 ], [ 26.256499, 47.884679 ], [ 26.191613, 47.893086 ], [ 26.178409, 47.917494 ], [ 26.130796, 47.935337 ], [ 26.11672, 47.967311 ], [ 26.058578, 47.987024 ], [ 25.833281, 47.964779 ], [ 25.773561, 47.94009 ], [ 25.630493, 47.948403 ], [ 25.311798, 47.913459 ], [ 25.230419, 47.890951 ], [ 25.167284, 47.796684 ], [ 25.110083, 47.754296 ], [ 25.03665, 47.727725 ], [ 24.947101, 47.729124 ], [ 24.953031, 47.706226 ], [ 25.055598, 47.648341 ], [ 24.958822, 47.61481 ], [ 24.960838, 47.596851 ], [ 25.048477, 47.557686 ], [ 25.090502, 47.512344 ], [ 25.05127, 47.476812 ], [ 25.079688, 47.442173 ], [ 24.998816, 47.418061 ], [ 25.062572, 47.371857 ], [ 25.073222, 47.31577 ], [ 25.035325, 47.287557 ], [ 25.074308, 47.25378 ], [ 25.047709, 47.218334 ], [ 25.063383, 47.136538 ], [ 25.144426, 47.113308 ], [ 25.173359, 47.130489 ], [ 25.246711, 47.097919 ], [ 25.292503, 47.114094 ], [ 25.305091, 47.162992 ], [ 25.418434, 47.181388 ], [ 25.524756, 47.113182 ], [ 25.540461, 47.083294 ], [ 25.661583, 47.091646 ] ] ] } },
{ "type": "Feature", "properties": { "loc": "RO216" }, "geometry": { "type": "Polygon", "coordinates": [ [ [ 28.115802, 46.107827 ], [ 28.13934, 46.187533 ], [ 28.121293, 46.196676 ], [ 28.109822, 46.236808 ], [ 28.139527, 46.253787 ], [ 28.139696, 46.28093 ], [ 28.201258, 46.311333 ], [ 28.191679, 46.351386 ], [ 28.258561, 46.434842 ], [ 28.245787, 46.472574 ], [ 28.212696, 46.503991 ], [ 28.225478, 46.574687 ], [ 28.249532, 46.613552 ], [ 28.236144, 46.672726 ], [ 28.178962, 46.741562 ], [ 28.170684, 46.782312 ], [ 28.113806, 46.838411 ], [ 28.070312, 46.848551 ], [ 28.011239, 46.836769 ], [ 27.933404, 46.861891 ], [ 27.936511, 46.825203 ], [ 27.901529, 46.815027 ], [ 27.862427, 46.858322 ], [ 27.804516, 46.861288 ], [ 27.80505, 46.931402 ], [ 27.774757, 46.941694 ], [ 27.785484, 46.890852 ], [ 27.771562, 46.882035 ], [ 27.627108, 46.986094 ], [ 27.609644, 46.957979 ], [ 27.637486, 46.899391 ], [ 27.59635, 46.883289 ], [ 27.535745, 46.91218 ], [ 27.522204, 46.8804 ], [ 27.456277, 46.867064 ], [ 27.426257, 46.866797 ], [ 27.389909, 46.890281 ], [ 27.315899, 46.866061 ], [ 27.202391, 46.88241 ], [ 27.192506, 46.871391 ], [ 27.21456, 46.848743 ], [ 27.213621, 46.796692 ], [ 27.230883, 46.776644 ], [ 27.206219, 46.769848 ], [ 27.246661, 46.732367 ], [ 27.320748, 46.698156 ], [ 27.299994, 46.677989 ], [ 27.311945, 46.652741 ], [ 27.283148, 46.623519 ], [ 27.377144, 46.523192 ], [ 27.462069, 46.370428 ], [ 27.474865, 46.236956 ], [ 27.506846, 46.20764 ], [ 27.488546, 46.14656 ], [ 27.532126, 46.098729 ], [ 27.519626, 46.052541 ], [ 27.545016, 46.017127 ], [ 27.565563, 46.004677 ], [ 27.598048, 46.015881 ], [ 27.601507, 46.052488 ], [ 27.623583, 46.061983 ], [ 27.60632, 46.073023 ], [ 27.586184, 46.144623 ], [ 27.756856, 46.127114 ], [ 27.800506, 46.100348 ], [ 27.834118, 46.116172 ], [ 27.860247, 46.161627 ], [ 27.878344, 46.146346 ], [ 27.963025, 46.139113 ], [ 28.015234, 46.105036 ], [ 28.081204, 46.117152 ], [ 28.115802, 46.107827 ] ] ] } },
{ "type": "Feature", "properties": { "loc": "RO221" }, "geometry": { "type": "Polygon", "coordinates": [ [ [ 28.030518, 45.404328 ], [ 27.979946, 45.393498 ], [ 27.886434, 45.418407 ], [ 27.862428, 45.39802 ], [ 27.82075, 45.39839 ], [ 27.779371, 45.420501 ], [ 27.744003, 45.416735 ], [ 27.740654, 45.439607 ], [ 27.680411, 45.444437 ], [ 27.690248, 45.475816 ], [ 27.664832, 45.474948 ], [ 27.660545, 45.488501 ], [ 27.631432, 45.457817 ], [ 27.598467, 45.484372 ], [ 27.558516, 45.488375 ], [ 27.438575, 45.412763 ], [ 27.438502, 45.376075 ], [ 27.4034, 45.361073 ], [ 27.406348, 45.341964 ], [ 27.382786, 45.328012 ], [ 27.385119, 45.28675 ], [ 27.363658, 45.275699 ], [ 27.316776, 45.289935 ], [ 27.347899, 45.229385 ], [ 27.338378, 45.215351 ], [ 27.279828, 45.203279 ], [ 27.172673, 45.246561 ], [ 27.123787, 45.214309 ], [ 27.069914, 45.161487 ], [ 27.099299, 45.133385 ], [ 27.148075, 45.168203 ], [ 27.179875, 45.093025 ], [ 27.203493, 45.087607 ], [ 27.199939, 45.031556 ], [ 27.246244, 45.024924 ], [ 27.252168, 44.997897 ], [ 27.276073, 44.990028 ], [ 27.238147, 44.877793 ], [ 27.217098, 44.867782 ], [ 27.228338, 44.854776 ], [ 27.214937, 44.816811 ], [ 27.195598, 44.808002 ], [ 27.203459, 44.787074 ], [ 27.255586, 44.752278 ], [ 27.286957, 44.78238 ], [ 27.310994, 44.777518 ], [ 27.342491, 44.800234 ], [ 27.380656, 44.777383 ], [ 27.409359, 44.776 ], [ 27.437943, 44.796479 ], [ 27.476513, 44.777611 ], [ 27.520163, 44.77496 ], [ 27.527501, 44.786616 ], [ 27.713784, 44.767948 ], [ 27.741344, 44.782149 ], [ 27.733249, 44.80251 ], [ 27.816447, 44.819499 ], [ 27.828247, 44.783112 ], [ 27.881007, 44.763076 ], [ 27.947975, 44.779239 ], [ 28.03318, 44.762696 ], [ 28.062267, 44.783313 ], [ 28.103107, 44.863361 ], [ 28.138612, 44.889385 ], [ 28.12607, 44.923204 ], [ 28.147883, 44.971203 ], [ 28.130432, 45.01404 ], [ 28.149395, 45.038615 ], [ 28.13641, 45.096887 ], [ 28.171828, 45.103633 ], [ 28.19354, 45.137868 ], [ 28.096387, 45.189656 ], [ 28.126403, 45.232521 ], [ 28.115723, 45.253945 ], [ 28.052766, 45.256264 ], [ 27.997486, 45.28646 ], [ 28.030518, 45.404328 ] ] ] } },
{ "type": "Feature", "properties": { "loc": "RO222" }, "geometry": { "type": "Polygon", "coordinates": [ [ [ 26.392095, 45.802389 ], [ 26.381534, 45.738155 ], [ 26.356827, 45.720279 ], [ 26.309821, 45.606822 ], [ 26.279305, 45.589064 ], [ 26.246835, 45.623265 ], [ 26.213117, 45.62005 ], [ 26.187615, 45.606326 ], [ 26.172846, 45.566918 ], [ 26.145526, 45.580386 ], [ 26.072719, 45.505788 ], [ 26.142788, 45.457825 ], [ 26.161032, 45.368657 ], [ 26.226951, 45.318024 ], [ 26.197836, 45.280432 ], [ 26.223793, 45.266825 ], [ 26.251517, 45.206102 ], [ 26.34694, 45.21226 ], [ 26.369276, 45.162274 ], [ 26.458572, 45.190439 ], [ 26.466093, 45.147868 ], [ 26.450266, 45.075641 ], [ 26.494424, 45.008172 ], [ 26.529983, 45.009674 ], [ 26.591258, 44.962201 ], [ 26.534683, 44.925567 ], [ 26.598221, 44.879651 ], [ 26.63194, 44.816482 ], [ 26.772912, 44.813919 ], [ 26.807738, 44.798506 ], [ 26.880257, 44.817844 ], [ 26.970485, 44.790208 ], [ 27.010603, 44.821907 ], [ 27.105131, 44.782491 ], [ 27.100772, 44.746402 ], [ 27.179027, 44.738335 ], [ 27.154741, 44.7806 ], [ 27.203459, 44.787074 ], [ 27.195598, 44.808002 ], [ 27.214937, 44.816811 ], [ 27.228338, 44.854776 ], [ 27.217098, 44.867782 ], [ 27.238147, 44.877793 ], [ 27.276073, 44.990028 ], [ 27.252168, 44.997897 ], [ 27.246244, 45.024924 ], [ 27.199939, 45.031556 ], [ 27.203493, 45.087607 ], [ 27.179875, 45.093025 ], [ 27.148075, 45.168203 ], [ 27.099299, 45.133385 ], [ 27.069914, 45.161487 ], [ 27.172673, 45.246561 ], [ 27.279828, 45.203279 ], [ 27.338378, 45.215351 ], [ 27.347899, 45.229385 ], [ 27.316776, 45.289935 ], [ 27.363658, 45.275699 ], [ 27.385119, 45.28675 ], [ 27.382786, 45.328012 ], [ 27.406348, 45.341964 ], [ 27.4034, 45.361073 ], [ 27.438502, 45.376075 ], [ 27.434727, 45.394702 ], [ 27.346936, 45.372098 ], [ 27.277038, 45.39018 ], [ 27.273254, 45.451259 ], [ 27.230342, 45.429296 ], [ 27.197278, 45.451571 ], [ 27.120995, 45.410078 ], [ 27.111005, 45.439001 ], [ 27.149389, 45.468226 ], [ 27.108329, 45.471763 ], [ 27.087096, 45.447375 ], [ 27.048745, 45.452986 ], [ 26.969901, 45.531874 ], [ 26.833288, 45.519883 ], [ 26.799312, 45.548823 ], [ 26.745951, 45.551871 ], [ 26.678775, 45.608039 ], [ 26.551426, 45.6321 ], [ 26.440138, 45.736831 ], [ 26.438061, 45.777592 ], [ 26.392095, 45.802389 ] ] ] } },
{ "type": "Feature", "properties": { "loc": "RO223" }, "geometry": { "type": "Polygon", "coordinates": [ [ [ 28.994085, 44.679625 ], [ 28.921141, 44.695658 ], [ 28.817292, 44.633062 ], [ 28.774026, 44.654112 ], [ 28.735601, 44.648911 ], [ 28.674947, 44.667409 ], [ 28.538423, 44.660507 ], [ 28.518055, 44.635628 ], [ 28.435712, 44.670589 ], [ 28.444768, 44.639563 ], [ 28.424554, 44.617345 ], [ 28.385735, 44.646136 ], [ 28.376017, 44.683227 ], [ 28.320136, 44.695712 ], [ 28.314178, 44.709953 ], [ 28.272825, 44.700305 ], [ 28.25763, 44.754641 ], [ 28.191022, 44.756753 ], [ 28.178076, 44.786148 ], [ 28.151478, 44.799522 ], [ 28.074109, 44.803887 ], [ 28.03318, 44.762696 ], [ 27.947975, 44.779239 ], [ 27.881007, 44.763076 ], [ 27.880759, 44.710722 ], [ 28.028029, 44.628523 ], [ 28.016727, 44.568547 ], [ 28.05353, 44.510492 ], [ 28.087247, 44.488714 ], [ 28.107649, 44.440177 ], [ 28.0411, 44.3815 ], [ 27.964575, 44.271974 ], [ 27.930486, 44.250216 ], [ 27.803025, 44.240429 ], [ 27.719973, 44.19723 ], [ 27.601282, 44.198221 ], [ 27.452095, 44.125854 ], [ 27.309664, 44.140049 ], [ 27.271341, 44.126335 ], [ 27.293985, 44.076437 ], [ 27.354589, 44.05756 ], [ 27.399163, 44.014942 ], [ 27.607607, 44.013062 ], [ 27.645522, 44.045302 ], [ 27.673418, 44.028275 ], [ 27.711295, 43.960642 ], [ 27.740083, 43.954597 ], [ 27.843082, 43.967153 ], [ 27.917894, 44.005587 ], [ 27.943776, 43.982933 ], [ 28.002115, 43.84051 ], [ 28.236033, 43.759098 ], [ 28.446057, 43.734248 ], [ 28.578884, 43.738739 ], [ 28.592216, 43.836062 ], [ 28.664931, 43.988632 ], [ 28.640579, 44.074608 ], [ 28.665705, 44.093642 ], [ 28.641614, 44.109812 ], [ 28.659957, 44.175946 ], [ 28.624477, 44.24685 ], [ 28.629194, 44.303075 ], [ 28.831937, 44.485974 ], [ 28.994085, 44.679625 ] ] ] } },
{ "type": "Feature", "properties": { "loc": "RO224" }, "geometry": { "type": "Polygon", "coordinates": [ [ [ 28.21136, 45.46728 ], [ 28.161338, 45.505449 ], [ 28.152156, 45.565082 ], [ 28.091962, 45.605017 ], [ 28.167726, 45.640885 ], [ 28.152741, 45.777665 ], [ 28.122953, 45.787352 ], [ 28.110233, 45.819675 ], [ 28.109831, 45.857734 ], [ 28.129798, 45.875926 ], [ 28.089895, 46.025063 ], [ 28.102541, 46.049852 ], [ 28.092644, 46.072773 ], [ 28.115802, 46.107827 ], [ 28.081204, 46.117152 ], [ 28.015234, 46.105036 ], [ 27.963025, 46.139113 ], [ 27.878344, 46.146346 ], [ 27.860247, 46.161627 ], [ 27.834118, 46.116172 ], [ 27.800506, 46.100348 ], [ 27.756856, 46.127114 ], [ 27.586184, 46.144623 ], [ 27.60632, 46.073023 ], [ 27.623583, 46.061983 ], [ 27.601507, 46.052488 ], [ 27.598048, 46.015881 ], [ 27.565563, 46.004677 ], [ 27.519626, 46.052541 ], [ 27.532126, 46.098729 ], [ 27.503053, 46.139621 ], [ 27.426955, 46.13354 ], [ 27.415679, 46.089035 ], [ 27.293775, 46.080215 ], [ 27.271468, 46.049559 ], [ 27.239161, 46.040777 ], [ 27.241902, 45.951357 ], [ 27.276417, 45.891622 ], [ 27.263071, 45.874934 ], [ 27.298251, 45.848479 ], [ 27.397141, 45.690866 ], [ 27.442014, 45.674914 ], [ 27.506834, 45.620378 ], [ 27.5287, 45.584152 ], [ 27.510888, 45.566306 ], [ 27.5348, 45.500898 ], [ 27.598467, 45.484372 ], [ 27.631432, 45.457817 ], [ 27.660545, 45.488501 ], [ 27.664832, 45.474948 ], [ 27.690248, 45.475816 ], [ 27.680411, 45.444437 ], [ 27.740654, 45.439607 ], [ 27.744003, 45.416735 ], [ 27.779371, 45.420501 ], [ 27.82075, 45.39839 ], [ 27.862428, 45.39802 ], [ 27.886434, 45.418407 ], [ 27.979946, 45.393498 ], [ 28.10005, 45.440575 ], [ 28.187097, 45.415178 ], [ 28.194688, 45.456726 ], [ 28.21136, 45.46728 ] ] ] } },
{ "type": "Feature", "properties": { "loc": "RO225" }, "geometry": { "type": "MultiPolygon", "coordinates": [ [ [ [ 28.994085, 44.679625 ], [ 29.086102, 44.749336 ], [ 29.178784, 44.782754 ], [ 29.59481, 44.834153 ], [ 29.622733, 44.891539 ], [ 29.653941, 45.095598 ], [ 29.702334, 45.161145 ], [ 29.648782, 45.165784 ], [ 29.633645, 45.206799 ], [ 29.67964, 45.211838 ], [ 29.660557, 45.246621 ], [ 29.677084, 45.273872 ], [ 29.652844, 45.337535 ], [ 29.554288, 45.406095 ], [ 29.428349, 45.441517 ], [ 29.329125, 45.447728 ], [ 29.290416, 45.428181 ], [ 29.241578, 45.433696 ], [ 29.167453, 45.394519 ], [ 28.966076, 45.330186 ], [ 28.943019, 45.28169 ], [ 28.794631, 45.334326 ], [ 28.780371, 45.323956 ], [ 28.801435, 45.302612 ], [ 28.751637, 45.282796 ], [ 28.790903, 45.242305 ], [ 28.714536, 45.224567 ], [ 28.560983, 45.249576 ], [ 28.347485, 45.321405 ], [ 28.26009, 45.455425 ], [ 28.21136, 45.46728 ], [ 28.194688, 45.456726 ], [ 28.187097, 45.415178 ], [ 28.10005, 45.440575 ], [ 28.030518, 45.404328 ], [ 27.997486, 45.28646 ], [ 28.052766, 45.256264 ], [ 28.115723, 45.253945 ], [ 28.126403, 45.232521 ], [ 28.096387, 45.189656 ], [ 28.19354, 45.137868 ], [ 28.171828, 45.103633 ], [ 28.13641, 45.096887 ], [ 28.149395, 45.038615 ], [ 28.130432, 45.01404 ], [ 28.147883, 44.971203 ], [ 28.12607, 44.923204 ], [ 28.138612, 44.889385 ], [ 28.103107, 44.863361 ], [ 28.074109, 44.803887 ], [ 28.151478, 44.799522 ], [ 28.178076, 44.786148 ], [ 28.191022, 44.756753 ], [ 28.25763, 44.754641 ], [ 28.272825, 44.700305 ], [ 28.314178, 44.709953 ], [ 28.320136, 44.695712 ], [ 28.376017, 44.683227 ], [ 28.385735, 44.646136 ], [ 28.424554, 44.617345 ], [ 28.444768, 44.639563 ], [ 28.435712, 44.670589 ], [ 28.518055, 44.635628 ], [ 28.538423, 44.660507 ], [ 28.674947, 44.667409 ], [ 28.735601, 44.648911 ], [ 28.774026, 44.654112 ], [ 28.817292, 44.633062 ], [ 28.921141, 44.695658 ], [ 28.994085, 44.679625 ] ] ], [ [ [ 29.539575, 44.78392 ], [ 29.523834, 44.787742 ], [ 29.515161, 44.777676 ], [ 29.519049, 44.775034 ], [ 29.539575, 44.78392 ] ] ], [ [ [ 29.510048, 44.777604 ], [ 29.482062, 44.774533 ], [ 29.488318, 44.770659 ], [ 29.510048, 44.777604 ] ] ] ] } },
{ "type": "Feature", "properties": { "loc": "RO226" }, "geometry": { "type": "Polygon", "coordinates": [ [ [ 27.434727, 45.394702 ], [ 27.438575, 45.412763 ], [ 27.558516, 45.488375 ], [ 27.5348, 45.500898 ], [ 27.510888, 45.566306 ], [ 27.5287, 45.584152 ], [ 27.506834, 45.620378 ], [ 27.365402, 45.727352 ], [ 27.298251, 45.848479 ], [ 27.263071, 45.874934 ], [ 27.276417, 45.891622 ], [ 27.23025, 46.007446 ], [ 27.239161, 46.040777 ], [ 27.271468, 46.049559 ], [ 27.293775, 46.080215 ], [ 27.415679, 46.089035 ], [ 27.426955, 46.13354 ], [ 27.503053, 46.139621 ], [ 27.492819, 46.159213 ], [ 27.461253, 46.159657 ], [ 27.444599, 46.183275 ], [ 27.397938, 46.193716 ], [ 27.353979, 46.155142 ], [ 27.312685, 46.202903 ], [ 27.276201, 46.20184 ], [ 27.260393, 46.181448 ], [ 27.170803, 46.178049 ], [ 27.12831, 46.147989 ], [ 27.134079, 46.122469 ], [ 27.101785, 46.091697 ], [ 26.9763, 46.11096 ], [ 26.953186, 46.103637 ], [ 26.92768, 46.066857 ], [ 26.867949, 46.083196 ], [ 26.807997, 46.068399 ], [ 26.776646, 46.091179 ], [ 26.704005, 46.091881 ], [ 26.648127, 46.07557 ], [ 26.572573, 46.019143 ], [ 26.490048, 46.043032 ], [ 26.439985, 46.038876 ], [ 26.434201, 45.989427 ], [ 26.392706, 45.958162 ], [ 26.376195, 45.822577 ], [ 26.438061, 45.777592 ], [ 26.440138, 45.736831 ], [ 26.551426, 45.6321 ], [ 26.678775, 45.608039 ], [ 26.745951, 45.551871 ], [ 26.799312, 45.548823 ], [ 26.833288, 45.519883 ], [ 26.969901, 45.531874 ], [ 27.048745, 45.452986 ], [ 27.087096, 45.447375 ], [ 27.108329, 45.471763 ], [ 27.149389, 45.468226 ], [ 27.111005, 45.439001 ], [ 27.120995, 45.410078 ], [ 27.197278, 45.451571 ], [ 27.230342, 45.429296 ], [ 27.273254, 45.451259 ], [ 27.277038, 45.39018 ], [ 27.346936, 45.372098 ], [ 27.434727, 45.394702 ] ] ] } },
{ "type": "Feature", "properties": { "loc": "RO311" }, "geometry": { "type": "Polygon", "coordinates": [ [ [ 24.523132, 45.580564 ], [ 24.537618, 45.539087 ], [ 24.514767, 45.517642 ], [ 24.524262, 45.479098 ], [ 24.481159, 45.448104 ], [ 24.503609, 45.356123 ], [ 24.471871, 45.350396 ], [ 24.489864, 45.322361 ], [ 24.490261, 45.28129 ], [ 24.468989, 45.228901 ], [ 24.518419, 45.181956 ], [ 24.500299, 45.161962 ], [ 24.515519, 45.118811 ], [ 24.491939, 45.107202 ], [ 24.503532, 45.085343 ], [ 24.484441, 45.063672 ], [ 24.518173, 45.046045 ], [ 24.489396, 45.01614 ], [ 24.502063, 44.997541 ], [ 24.477091, 44.965726 ], [ 24.495301, 44.944987 ], [ 24.466298, 44.915822 ], [ 24.47648, 44.894461 ], [ 24.42937, 44.821631 ], [ 24.474188, 44.820487 ], [ 24.506392, 44.847162 ], [ 24.521301, 44.888948 ], [ 24.536066, 44.889665 ], [ 24.593492, 44.757168 ], [ 24.632089, 44.732267 ], [ 24.679024, 44.737172 ], [ 24.71504, 44.720971 ], [ 24.690316, 44.698683 ], [ 24.713838, 44.626971 ], [ 24.710856, 44.587274 ], [ 24.740016, 44.540388 ], [ 24.73496, 44.469468 ], [ 24.755938, 44.460791 ], [ 24.748875, 44.395813 ], [ 24.971836, 44.382128 ], [ 25.012976, 44.408053 ], [ 25.069736, 44.400538 ], [ 25.199652, 44.45428 ], [ 25.23475, 44.424252 ], [ 25.274677, 44.443348 ], [ 25.261224, 44.511705 ], [ 25.289676, 44.550442 ], [ 25.198748, 44.612385 ], [ 25.199411, 44.634113 ], [ 25.171949, 44.659124 ], [ 25.233734, 44.694678 ], [ 25.183276, 44.715092 ], [ 25.179664, 44.731074 ], [ 25.211322, 44.774907 ], [ 25.189882, 44.828058 ], [ 25.194664, 44.90264 ], [ 25.164358, 44.925154 ], [ 25.171446, 44.976884 ], [ 25.196202, 44.994635 ], [ 25.195943, 45.016471 ], [ 25.149159, 45.04032 ], [ 25.128069, 45.069708 ], [ 25.177916, 45.093245 ], [ 25.14949, 45.132152 ], [ 25.147422, 45.209971 ], [ 25.16464, 45.211353 ], [ 25.209308, 45.161632 ], [ 25.250983, 45.182809 ], [ 25.250757, 45.209477 ], [ 25.290895, 45.227682 ], [ 25.282416, 45.267023 ], [ 25.324253, 45.351266 ], [ 25.300835, 45.417403 ], [ 25.271956, 45.410615 ], [ 25.259074, 45.42307 ], [ 25.270747, 45.443691 ], [ 25.22834, 45.515784 ], [ 25.188895, 45.52444 ], [ 25.10786, 45.581973 ], [ 24.938348, 45.583747 ], [ 24.813576, 45.608701 ], [ 24.629206, 45.60284 ], [ 24.523132, 45.580564 ] ] ] } },
{ "type": "Feature", "properties": { "loc": "RO312" }, "geometry": { "type": "Polygon", "coordinates": [ [ [ 26.259957, 44.294986 ], [ 26.412978, 44.202395 ], [ 26.400962, 44.191215 ], [ 26.426932, 44.15292 ], [ 26.418783, 44.129516 ], [ 26.360864, 44.105241 ], [ 26.381823, 44.038612 ], [ 26.766281, 44.078784 ], [ 26.920926, 44.139076 ], [ 27.13568, 44.139894 ], [ 27.221996, 44.115883 ], [ 27.309664, 44.140049 ], [ 27.452095, 44.125854 ], [ 27.601282, 44.198221 ], [ 27.719973, 44.19723 ], [ 27.803025, 44.240429 ], [ 27.930486, 44.250216 ], [ 28.017374, 44.340249 ], [ 27.858792, 44.378508 ], [ 27.815878, 44.337111 ], [ 27.764917, 44.348135 ], [ 27.748931, 44.378727 ], [ 27.759455, 44.396353 ], [ 27.721805, 44.418758 ], [ 27.657524, 44.42233 ], [ 27.640735, 44.469068 ], [ 27.572986, 44.470521 ], [ 27.571191, 44.552189 ], [ 27.55872, 44.559024 ], [ 27.526014, 44.539356 ], [ 27.509476, 44.49572 ], [ 27.394535, 44.496839 ], [ 27.35883, 44.516584 ], [ 27.338961, 44.486962 ], [ 27.293614, 44.489379 ], [ 27.274746, 44.505228 ], [ 27.258266, 44.490422 ], [ 27.225367, 44.504612 ], [ 27.200702, 44.485676 ], [ 27.145131, 44.499413 ], [ 27.13133, 44.484015 ], [ 27.099805, 44.484851 ], [ 27.088025, 44.507459 ], [ 27.008866, 44.509226 ], [ 26.994494, 44.528869 ], [ 26.790459, 44.51298 ], [ 26.774971, 44.518499 ], [ 26.780798, 44.542603 ], [ 26.730131, 44.536007 ], [ 26.720957, 44.55805 ], [ 26.680621, 44.565584 ], [ 26.670052, 44.59324 ], [ 26.637349, 44.536036 ], [ 26.605082, 44.52334 ], [ 26.562344, 44.528119 ], [ 26.483256, 44.57415 ], [ 26.447607, 44.561736 ], [ 26.457305, 44.541715 ], [ 26.369343, 44.483733 ], [ 26.445352, 44.446018 ], [ 26.32743, 44.392469 ], [ 26.285587, 44.410197 ], [ 26.319638, 44.368463 ], [ 26.261075, 44.333454 ], [ 26.259957, 44.294986 ] ] ] } },
{ "type": "Feature", "properties": { "loc": "RO313" }, "geometry": { "type": "Polygon", "coordinates": [ [ [ 25.452539, 45.441342 ], [ 25.412178, 45.428619 ], [ 25.401997, 45.387628 ], [ 25.321578, 45.381089 ], [ 25.313114, 45.31777 ], [ 25.282416, 45.267023 ], [ 25.290895, 45.227682 ], [ 25.250757, 45.209477 ], [ 25.250983, 45.182809 ], [ 25.209308, 45.161632 ], [ 25.16464, 45.211353 ], [ 25.147422, 45.209971 ], [ 25.14949, 45.132152 ], [ 25.177916, 45.093245 ], [ 25.128069, 45.069708 ], [ 25.149159, 45.04032 ], [ 25.195943, 45.016471 ], [ 25.196202, 44.994635 ], [ 25.171446, 44.976884 ], [ 25.164358, 44.925154 ], [ 25.194664, 44.90264 ], [ 25.189882, 44.828058 ], [ 25.211322, 44.774907 ], [ 25.179664, 44.731074 ], [ 25.183276, 44.715092 ], [ 25.233734, 44.694678 ], [ 25.171949, 44.659124 ], [ 25.199411, 44.634113 ], [ 25.198748, 44.612385 ], [ 25.289676, 44.550442 ], [ 25.261224, 44.511705 ], [ 25.274677, 44.443348 ], [ 25.23475, 44.424252 ], [ 25.253356, 44.407188 ], [ 25.358821, 44.464959 ], [ 25.36772, 44.494222 ], [ 25.396414, 44.51613 ], [ 25.440941, 44.499855 ], [ 25.4338, 44.473065 ], [ 25.480489, 44.451998 ], [ 25.507719, 44.485446 ], [ 25.485408, 44.503347 ], [ 25.540627, 44.537761 ], [ 25.591909, 44.528592 ], [ 25.64345, 44.551249 ], [ 25.682431, 44.525882 ], [ 25.714298, 44.544069 ], [ 25.782105, 44.530478 ], [ 25.811177, 44.546351 ], [ 25.843944, 44.530693 ], [ 25.89074, 44.540953 ], [ 25.88588, 44.554468 ], [ 25.989504, 44.61309 ], [ 25.942089, 44.646982 ], [ 25.977234, 44.669667 ], [ 25.969547, 44.681856 ], [ 25.986582, 44.696636 ], [ 25.970744, 44.710408 ], [ 25.923096, 44.709511 ], [ 25.914626, 44.731237 ], [ 25.934386, 44.75803 ], [ 25.874339, 44.824934 ], [ 25.834476, 44.813295 ], [ 25.779727, 44.830671 ], [ 25.820264, 44.899316 ], [ 25.816254, 44.915578 ], [ 25.796135, 44.93574 ], [ 25.687274, 44.954677 ], [ 25.677988, 45.004673 ], [ 25.697035, 45.047146 ], [ 25.53562, 45.195726 ], [ 25.518812, 45.227326 ], [ 25.548122, 45.276539 ], [ 25.478, 45.328731 ], [ 25.47953, 45.39732 ], [ 25.452539, 45.441342 ] ] ] } },
{ "type": "Feature", "properties": { "loc": "RO314" }, "geometry": { "type": "Polygon", "coordinates": [ [ [ 25.89074, 44.540953 ], [ 25.843944, 44.530693 ], [ 25.811177, 44.546351 ], [ 25.782105, 44.530478 ], [ 25.714298, 44.544069 ], [ 25.682431, 44.525882 ], [ 25.64345, 44.551249 ], [ 25.591909, 44.528592 ], [ 25.540627, 44.537761 ], [ 25.485408, 44.503347 ], [ 25.507719, 44.485446 ], [ 25.431856, 44.400502 ], [ 25.475285, 44.37044 ], [ 25.475218, 44.327291 ], [ 25.616183, 44.314396 ], [ 25.628259, 44.286694 ], [ 25.66309, 44.290915 ], [ 25.698001, 44.248234 ], [ 25.659573, 44.176586 ], [ 25.685821, 44.162124 ], [ 25.680605, 44.135846 ], [ 25.706247, 44.128979 ], [ 25.705872, 44.112321 ], [ 25.685649, 44.114517 ], [ 25.67188, 44.096945 ], [ 25.651793, 44.108381 ], [ 25.6268, 44.084231 ], [ 25.595759, 43.993975 ], [ 25.615841, 43.943944 ], [ 25.585867, 43.923108 ], [ 25.611957, 43.895872 ], [ 25.611224, 43.848391 ], [ 25.659255, 43.811122 ], [ 25.672201, 43.688148 ], [ 25.77771, 43.707941 ], [ 25.806787, 43.741103 ], [ 25.873627, 43.774024 ], [ 25.9543, 43.859494 ], [ 26.057965, 43.907831 ], [ 26.10412, 43.967866 ], [ 26.381823, 44.038612 ], [ 26.360864, 44.105241 ], [ 26.418783, 44.129516 ], [ 26.426932, 44.15292 ], [ 26.39681, 44.222261 ], [ 26.366472, 44.224306 ], [ 26.259957, 44.294986 ], [ 26.187972, 44.24443 ], [ 26.142869, 44.236507 ], [ 26.055668, 44.270812 ], [ 25.979379, 44.323073 ], [ 25.956489, 44.317563 ], [ 25.890987, 44.345377 ], [ 25.829644, 44.395195 ], [ 25.854322, 44.414022 ], [ 25.851375, 44.476444 ], [ 25.895853, 44.455111 ], [ 25.909532, 44.469171 ], [ 25.898817, 44.486891 ], [ 25.917311, 44.516684 ], [ 25.89074, 44.540953 ] ] ] } },
{ "type": "Feature", "properties": { "loc": "RO315" }, "geometry": { "type": "Polygon", "coordinates": [ [ [ 26.301819, 44.768875 ], [ 26.370559, 44.720418 ], [ 26.363644, 44.693318 ], [ 26.334785, 44.678631 ], [ 26.399042, 44.615071 ], [ 26.346714, 44.547826 ], [ 26.366646, 44.530202 ], [ 26.393919, 44.536162 ], [ 26.416061, 44.521683 ], [ 26.457305, 44.541715 ], [ 26.447607, 44.561736 ], [ 26.483256, 44.57415 ], [ 26.562344, 44.528119 ], [ 26.605082, 44.52334 ], [ 26.637349, 44.536036 ], [ 26.670052, 44.59324 ], [ 26.680621, 44.565584 ], [ 26.720957, 44.55805 ], [ 26.730131, 44.536007 ], [ 26.780798, 44.542603 ], [ 26.774971, 44.518499 ], [ 26.790459, 44.51298 ], [ 26.994494, 44.528869 ], [ 27.008866, 44.509226 ], [ 27.088025, 44.507459 ], [ 27.099805, 44.484851 ], [ 27.13133, 44.484015 ], [ 27.145131, 44.499413 ], [ 27.200702, 44.485676 ], [ 27.225367, 44.504612 ], [ 27.258266, 44.490422 ], [ 27.274746, 44.505228 ], [ 27.293614, 44.489379 ], [ 27.338961, 44.486962 ], [ 27.35883, 44.516584 ], [ 27.394535, 44.496839 ], [ 27.509476, 44.49572 ], [ 27.526014, 44.539356 ], [ 27.55872, 44.559024 ], [ 27.571191, 44.552189 ], [ 27.572986, 44.470521 ], [ 27.640735, 44.469068 ], [ 27.657524, 44.42233 ], [ 27.721805, 44.418758 ], [ 27.759455, 44.396353 ], [ 27.753599, 44.357946 ], [ 27.815878, 44.337111 ], [ 27.858792, 44.378508 ], [ 28.017374, 44.340249 ], [ 28.0411, 44.3815 ], [ 28.107649, 44.440177 ], [ 28.087247, 44.488714 ], [ 28.05353, 44.510492 ], [ 28.016727, 44.568547 ], [ 28.028029, 44.628523 ], [ 27.880759, 44.710722 ], [ 27.881007, 44.763076 ], [ 27.828247, 44.783112 ], [ 27.816447, 44.819499 ], [ 27.733249, 44.80251 ], [ 27.741344, 44.782149 ], [ 27.713784, 44.767948 ], [ 27.527501, 44.786616 ], [ 27.520163, 44.77496 ], [ 27.476513, 44.777611 ], [ 27.437943, 44.796479 ], [ 27.409359, 44.776 ], [ 27.380656, 44.777383 ], [ 27.342491, 44.800234 ], [ 27.310994, 44.777518 ], [ 27.286957, 44.78238 ], [ 27.255586, 44.752278 ], [ 27.203459, 44.787074 ], [ 27.164176, 44.787943 ], [ 27.152974, 44.768153 ], [ 27.183486, 44.749894 ], [ 27.179027, 44.738335 ], [ 27.128775, 44.737344 ], [ 27.100772, 44.746402 ], [ 27.105131, 44.782491 ], [ 27.010603, 44.821907 ], [ 26.970485, 44.790208 ], [ 26.880257, 44.817844 ], [ 26.807738, 44.798506 ], [ 26.772912, 44.813919 ], [ 26.63194, 44.816482 ], [ 26.605552, 44.856994 ], [ 26.533829, 44.829406 ], [ 26.497721, 44.793325 ], [ 26.452829, 44.808645 ], [ 26.386831, 44.764897 ], [ 26.337539, 44.787807 ], [ 26.301819, 44.768875 ] ] ] } },
{ "type": "Feature", "properties": { "loc": "RO316" }, "geometry": { "type": "Polygon", "coordinates": [ [ [ 26.072719, 45.505788 ], [ 26.042991, 45.480021 ], [ 25.996036, 45.511604 ], [ 25.921137, 45.518236 ], [ 25.863681, 45.424975 ], [ 25.827497, 45.432277 ], [ 25.791477, 45.47623 ], [ 25.729818, 45.466888 ], [ 25.678306, 45.498775 ], [ 25.632255, 45.493444 ], [ 25.596666, 45.463172 ], [ 25.508774, 45.468414 ], [ 25.452539, 45.441342 ], [ 25.47953, 45.39732 ], [ 25.478, 45.328731 ], [ 25.548122, 45.276539 ], [ 25.518812, 45.227326 ], [ 25.53562, 45.195726 ], [ 25.697035, 45.047146 ], [ 25.677988, 45.004673 ], [ 25.687274, 44.954677 ], [ 25.796135, 44.93574 ], [ 25.816254, 44.915578 ], [ 25.820264, 44.899316 ], [ 25.779727, 44.830671 ], [ 25.834476, 44.813295 ], [ 25.874339, 44.824934 ], [ 25.934386, 44.75803 ], [ 25.914626, 44.731237 ], [ 25.934153, 44.701586 ], [ 25.970744, 44.710408 ], [ 25.981954, 44.742002 ], [ 26.091822, 44.742187 ], [ 26.10053, 44.764177 ], [ 26.248096, 44.740266 ], [ 26.337539, 44.787807 ], [ 26.386831, 44.764897 ], [ 26.452829, 44.808645 ], [ 26.497721, 44.793325 ], [ 26.533829, 44.829406 ], [ 26.605552, 44.856994 ], [ 26.598221, 44.879651 ], [ 26.534683, 44.925567 ], [ 26.591258, 44.962201 ], [ 26.529983, 45.009674 ], [ 26.494424, 45.008172 ], [ 26.450266, 45.075641 ], [ 26.466093, 45.147868 ], [ 26.458572, 45.190439 ], [ 26.369276, 45.162274 ], [ 26.34694, 45.21226 ], [ 26.251517, 45.206102 ], [ 26.223793, 45.266825 ], [ 26.197836, 45.280432 ], [ 26.226951, 45.318024 ], [ 26.161032, 45.368657 ], [ 26.142788, 45.457825 ], [ 26.072719, 45.505788 ] ] ] } },
{ "type": "Feature", "properties": { "loc": "RO317" }, "geometry": { "type": "MultiPolygon", "coordinates": [ [ [ [ 25.672201, 43.688148 ], [ 25.659255, 43.811122 ], [ 25.611224, 43.848391 ], [ 25.611957, 43.895872 ], [ 25.585867, 43.923108 ], [ 25.615841, 43.943944 ], [ 25.595759, 43.993975 ], [ 25.6268, 44.084231 ], [ 25.651793, 44.108381 ], [ 25.67188, 44.096945 ], [ 25.685649, 44.114517 ], [ 25.705872, 44.112321 ], [ 25.706247, 44.128979 ], [ 25.680605, 44.135846 ], [ 25.685821, 44.162124 ], [ 25.659573, 44.176586 ], [ 25.698001, 44.248234 ], [ 25.66309, 44.290915 ], [ 25.628259, 44.286694 ], [ 25.616183, 44.314396 ], [ 25.475218, 44.327291 ], [ 25.475285, 44.37044 ], [ 25.431856, 44.400502 ], [ 25.480489, 44.451998 ], [ 25.4338, 44.473065 ], [ 25.440941, 44.499855 ], [ 25.396414, 44.51613 ], [ 25.36772, 44.494222 ], [ 25.358821, 44.464959 ], [ 25.253356, 44.407188 ], [ 25.199652, 44.45428 ], [ 25.069736, 44.400538 ], [ 25.012976, 44.408053 ], [ 24.971836, 44.382128 ], [ 24.88402, 44.382636 ], [ 24.820955, 44.359656 ], [ 24.841066, 44.316433 ], [ 24.823303, 44.290424 ], [ 24.831993, 44.224883 ], [ 24.796184, 44.191135 ], [ 24.80988, 44.156459 ], [ 24.844525, 44.129556 ], [ 24.854072, 44.092747 ], [ 24.717997, 44.059625 ], [ 24.716314, 44.03842 ], [ 24.62273, 44.017133 ], [ 24.608282, 43.996278 ], [ 24.605175, 43.964377 ], [ 24.630013, 43.958764 ], [ 24.631052, 43.928657 ], [ 24.674114, 43.895482 ], [ 24.667479, 43.871783 ], [ 24.691494, 43.867768 ], [ 24.7443, 43.817098 ], [ 24.742403, 43.792189 ], [ 24.655002, 43.751019 ], [ 24.65478, 43.723586 ], [ 24.696309, 43.697095 ], [ 24.734567, 43.688526 ], [ 24.99052, 43.727421 ], [ 25.081477, 43.688258 ], [ 25.182367, 43.699175 ], [ 25.384504, 43.620738 ], [ 25.489672, 43.646946 ], [ 25.54454, 43.642845 ], [ 25.672201, 43.688148 ] ] ], [ [ [ 24.707161, 43.823782 ], [ 24.695721, 43.835733 ], [ 24.688408, 43.82725 ], [ 24.692193, 43.821413 ], [ 24.707161, 43.823782 ] ] ] ] } },
{ "type": "Feature", "properties": { "loc": "RO321" }, "geometry": { "type": "Polygon", "coordinates": [ [ [ 25.96476, 44.418253 ], [ 26.153674, 44.334796 ], [ 26.165461, 44.345165 ], [ 26.143575, 44.36946 ], [ 26.161924, 44.398253 ], [ 26.212112, 44.395623 ], [ 26.225626, 44.432404 ], [ 26.156952, 44.455759 ], [ 26.175063, 44.480298 ], [ 26.114825, 44.487412 ], [ 26.104463, 44.539601 ], [ 26.029253, 44.527742 ], [ 26.006461, 44.50045 ], [ 25.98377, 44.497613 ], [ 25.978005, 44.466601 ], [ 26.020236, 44.447443 ], [ 25.968238, 44.44065 ], [ 25.96476, 44.418253 ] ] ] } },
{ "type": "Feature", "properties": { "loc": "RO322" }, "geometry": { "type": "Polygon", "coordinates": [ [ [ 26.416061, 44.521683 ], [ 26.346714, 44.547826 ], [ 26.399042, 44.615071 ], [ 26.334785, 44.678631 ], [ 26.363644, 44.693318 ], [ 26.370559, 44.720418 ], [ 26.301819, 44.768875 ], [ 26.248096, 44.740266 ], [ 26.10053, 44.764177 ], [ 26.091822, 44.742187 ], [ 25.981954, 44.742002 ], [ 25.970289, 44.733877 ], [ 25.986582, 44.696636 ], [ 25.969547, 44.681856 ], [ 25.977234, 44.669667 ], [ 25.942089, 44.646982 ], [ 25.989504, 44.61309 ], [ 25.88588, 44.554468 ], [ 25.917311, 44.516684 ], [ 25.898817, 44.486891 ], [ 25.909532, 44.469171 ], [ 25.895853, 44.455111 ], [ 25.851375, 44.476444 ], [ 25.854322, 44.414022 ], [ 25.829644, 44.395195 ], [ 25.910943, 44.333776 ], [ 25.979379, 44.323073 ], [ 26.055668, 44.270812 ], [ 26.142869, 44.236507 ], [ 26.187972, 44.24443 ], [ 26.259957, 44.294986 ], [ 26.261075, 44.333454 ], [ 26.319638, 44.368463 ], [ 26.285587, 44.410197 ], [ 26.32743, 44.392469 ], [ 26.445352, 44.446018 ], [ 26.369343, 44.483733 ], [ 26.416061, 44.521683 ] ], [ [ 25.96476, 44.418253 ], [ 25.968238, 44.44065 ], [ 26.020236, 44.447443 ], [ 25.978005, 44.466601 ], [ 25.98377, 44.497613 ], [ 26.006461, 44.50045 ], [ 26.029253, 44.527742 ], [ 26.104463, 44.539601 ], [ 26.114825, 44.487412 ], [ 26.175063, 44.480298 ], [ 26.156952, 44.455759 ], [ 26.225626, 44.432404 ], [ 26.212112, 44.395623 ], [ 26.161924, 44.398253 ], [ 26.143575, 44.36946 ], [ 26.165461, 44.345165 ], [ 26.153674, 44.334796 ], [ 25.96476, 44.418253 ] ] ] } },
{ "type": "Feature", "properties": { "loc": "RO411" }, "geometry": { "type": "Polygon", "coordinates": [ [ [ 22.966369, 44.098288 ], [ 23.031259, 44.083387 ], [ 23.04281, 44.052917 ], [ 23.008403, 44.012655 ], [ 22.888745, 43.987002 ], [ 22.84222, 43.874267 ], [ 22.876598, 43.835356 ], [ 23.053721, 43.796906 ], [ 23.123505, 43.80249 ], [ 23.263513, 43.844718 ], [ 23.426508, 43.852741 ], [ 23.51203, 43.835764 ], [ 23.557751, 43.802267 ], [ 23.630393, 43.79105 ], [ 23.738077, 43.803649 ], [ 23.858022, 43.755642 ], [ 23.986137, 43.746317 ], [ 24.112044, 43.699946 ], [ 24.153003, 43.806965 ], [ 24.191228, 43.813032 ], [ 24.198914, 43.854016 ], [ 24.225655, 43.856867 ], [ 24.245172, 43.927758 ], [ 24.226889, 43.947464 ], [ 24.250828, 43.96149 ], [ 24.261216, 43.990932 ], [ 24.176401, 44.010454 ], [ 24.180432, 44.0633 ], [ 24.224149, 44.082946 ], [ 24.221901, 44.225485 ], [ 24.117164, 44.269895 ], [ 24.027537, 44.378781 ], [ 23.982815, 44.377342 ], [ 23.956483, 44.4126 ], [ 23.889105, 44.421028 ], [ 23.897785, 44.511026 ], [ 23.928197, 44.530225 ], [ 23.917953, 44.567082 ], [ 23.886995, 44.597489 ], [ 23.888149, 44.626922 ], [ 23.790088, 44.640435 ], [ 23.7805, 44.713986 ], [ 23.725379, 44.726916 ], [ 23.708751, 44.588901 ], [ 23.691227, 44.600402 ], [ 23.619933, 44.590942 ], [ 23.585542, 44.613429 ], [ 23.520743, 44.601748 ], [ 23.416933, 44.533107 ], [ 23.271867, 44.528966 ], [ 23.273664, 44.506077 ], [ 23.208544, 44.465766 ], [ 23.205132, 44.431649 ], [ 23.180831, 44.41397 ], [ 23.210315, 44.377101 ], [ 23.171254, 44.32711 ], [ 23.126549, 44.306483 ], [ 23.097754, 44.259284 ], [ 23.108448, 44.160024 ], [ 23.013369, 44.153716 ], [ 22.966369, 44.098288 ] ] ] } },
{ "type": "Feature", "properties": { "loc": "RO412" }, "geometry": { "type": "Polygon", "coordinates": [ [ [ 23.7805, 44.713986 ], [ 23.772998, 44.779754 ], [ 23.79154, 44.820508 ], [ 23.760025, 44.876943 ], [ 23.769921, 44.947486 ], [ 23.759097, 44.995664 ], [ 23.790963, 45.025774 ], [ 23.788598, 45.06177 ], [ 23.824455, 45.07871 ], [ 23.817961, 45.125668 ], [ 23.851298, 45.154077 ], [ 23.800868, 45.255148 ], [ 23.840441, 45.322978 ], [ 23.796469, 45.349387 ], [ 23.69745, 45.329788 ], [ 23.59064, 45.353072 ], [ 23.451291, 45.300802 ], [ 23.376717, 45.335441 ], [ 23.309127, 45.303217 ], [ 23.246889, 45.304884 ], [ 23.202397, 45.280472 ], [ 23.097244, 45.288235 ], [ 23.015389, 45.25581 ], [ 22.929758, 45.277067 ], [ 22.868638, 45.265671 ], [ 22.827797, 45.281591 ], [ 22.686247, 45.257961 ], [ 22.561586, 45.161308 ], [ 22.583513, 45.137921 ], [ 22.647705, 45.125991 ], [ 22.706418, 45.070293 ], [ 22.725583, 45.074315 ], [ 22.809972, 45.036221 ], [ 22.853898, 44.994537 ], [ 22.893401, 44.988617 ], [ 22.873122, 44.951192 ], [ 22.908703, 44.827174 ], [ 22.937456, 44.8113 ], [ 22.944093, 44.786655 ], [ 22.980345, 44.785363 ], [ 23.012137, 44.743535 ], [ 23.11104, 44.689257 ], [ 23.29466, 44.670923 ], [ 23.389527, 44.625012 ], [ 23.411759, 44.590495 ], [ 23.455036, 44.569561 ], [ 23.585542, 44.613429 ], [ 23.619933, 44.590942 ], [ 23.691227, 44.600402 ], [ 23.708751, 44.588901 ], [ 23.717885, 44.721622 ], [ 23.7805, 44.713986 ] ], [ [ 22.944796, 45.239133 ], [ 22.926269, 45.242592 ], [ 22.943712, 45.266215 ], [ 22.944796, 45.239133 ] ] ] } },
{ "type": "Feature", "properties": { "loc": "RO413" }, "geometry": { "type": "Polygon", "coordinates": [ [ [ 23.455036, 44.569561 ], [ 23.411759, 44.590495 ], [ 23.389527, 44.625012 ], [ 23.29466, 44.670923 ], [ 23.11104, 44.689257 ], [ 23.012137, 44.743535 ], [ 22.980345, 44.785363 ], [ 22.944093, 44.786655 ], [ 22.894209, 44.851241 ], [ 22.873122, 44.951192 ], [ 22.893401, 44.988617 ], [ 22.853898, 44.994537 ], [ 22.809972, 45.036221 ], [ 22.706418, 45.070293 ], [ 22.686453, 45.100895 ], [ 22.656632, 45.108167 ], [ 22.49626, 44.976033 ], [ 22.513415, 44.958162 ], [ 22.48962, 44.94737 ], [ 22.486085, 44.885305 ], [ 22.426824, 44.800958 ], [ 22.415031, 44.757929 ], [ 22.357889, 44.74327 ], [ 22.336665, 44.77503 ], [ 22.268733, 44.78374 ], [ 22.209728, 44.815176 ], [ 22.200136, 44.759057 ], [ 22.154988, 44.722856 ], [ 22.141392, 44.662417 ], [ 22.175941, 44.632269 ], [ 22.150213, 44.591335 ], [ 22.114838, 44.594872 ], [ 22.083044, 44.620082 ], [ 22.016133, 44.599202 ], [ 22.037487, 44.543807 ], [ 22.145439, 44.471151 ], [ 22.182614, 44.484846 ], [ 22.311881, 44.660173 ], [ 22.386484, 44.678646 ], [ 22.433524, 44.709651 ], [ 22.48037, 44.708986 ], [ 22.61384, 44.618277 ], [ 22.710268, 44.599488 ], [ 22.755551, 44.561736 ], [ 22.757767, 44.538033 ], [ 22.695448, 44.518143 ], [ 22.594035, 44.550968 ], [ 22.565756, 44.534527 ], [ 22.548099, 44.482631 ], [ 22.459544, 44.468266 ], [ 22.471383, 44.439489 ], [ 22.498352, 44.417555 ], [ 22.523478, 44.34339 ], [ 22.558396, 44.310749 ], [ 22.679469, 44.2762 ], [ 22.675162, 44.215663 ], [ 22.757401, 44.189348 ], [ 22.918416, 44.102075 ], [ 22.966369, 44.098288 ], [ 23.013369, 44.153716 ], [ 23.108448, 44.160024 ], [ 23.097754, 44.259284 ], [ 23.126549, 44.306483 ], [ 23.171254, 44.32711 ], [ 23.210315, 44.377101 ], [ 23.180831, 44.41397 ], [ 23.205132, 44.431649 ], [ 23.208544, 44.465766 ], [ 23.273664, 44.506077 ], [ 23.271867, 44.528966 ], [ 23.416933, 44.533107 ], [ 23.455036, 44.569561 ] ] ] } },
{ "type": "Feature", "properties": { "loc": "RO414" }, "geometry": { "type": "Polygon", "coordinates": [ [ [ 24.88402, 44.382636 ], [ 24.748875, 44.395813 ], [ 24.755938, 44.460791 ], [ 24.73496, 44.469468 ], [ 24.740016, 44.540388 ], [ 24.710856, 44.587274 ], [ 24.713838, 44.626971 ], [ 24.690316, 44.698683 ], [ 24.71504, 44.720971 ], [ 24.679024, 44.737172 ], [ 24.632089, 44.732267 ], [ 24.593492, 44.757168 ], [ 24.536066, 44.889665 ], [ 24.521301, 44.888948 ], [ 24.506392, 44.847162 ], [ 24.449569, 44.812896 ], [ 24.425915, 44.829635 ], [ 24.438121, 44.845375 ], [ 24.419435, 44.855872 ], [ 24.421012, 44.889171 ], [ 24.389808, 44.898708 ], [ 24.36782, 44.873303 ], [ 24.336791, 44.86757 ], [ 24.318641, 44.790038 ], [ 24.27734, 44.766445 ], [ 24.280308, 44.708897 ], [ 24.323923, 44.612046 ], [ 24.322353, 44.562765 ], [ 24.289678, 44.567762 ], [ 24.282073, 44.596617 ], [ 24.26531, 44.598979 ], [ 24.249377, 44.552956 ], [ 24.146926, 44.55577 ], [ 24.074754, 44.492293 ], [ 23.986871, 44.537026 ], [ 23.897785, 44.511026 ], [ 23.889105, 44.421028 ], [ 23.956483, 44.4126 ], [ 23.982815, 44.377342 ], [ 24.027537, 44.378781 ], [ 24.117164, 44.269895 ], [ 24.221901, 44.225485 ], [ 24.224149, 44.082946 ], [ 24.180432, 44.0633 ], [ 24.176401, 44.010454 ], [ 24.261216, 43.990932 ], [ 24.250828, 43.96149 ], [ 24.226889, 43.947464 ], [ 24.245172, 43.927758 ], [ 24.225655, 43.856867 ], [ 24.198914, 43.854016 ], [ 24.191228, 43.813032 ], [ 24.153003, 43.806965 ], [ 24.112044, 43.699946 ], [ 24.190893, 43.683979 ], [ 24.323523, 43.697686 ], [ 24.494645, 43.761216 ], [ 24.580264, 43.753992 ], [ 24.65478, 43.723586 ], [ 24.655002, 43.751019 ], [ 24.742403, 43.792189 ], [ 24.7443, 43.817098 ], [ 24.691494, 43.867768 ], [ 24.667479, 43.871783 ], [ 24.674114, 43.895482 ], [ 24.631052, 43.928657 ], [ 24.630013, 43.958764 ], [ 24.605175, 43.964377 ], [ 24.608282, 43.996278 ], [ 24.62273, 44.017133 ], [ 24.716314, 44.03842 ], [ 24.717997, 44.059625 ], [ 24.854072, 44.092747 ], [ 24.844525, 44.129556 ], [ 24.80988, 44.156459 ], [ 24.796184, 44.191135 ], [ 24.831993, 44.224883 ], [ 24.823303, 44.290424 ], [ 24.841066, 44.316433 ], [ 24.820955, 44.359656 ], [ 24.88402, 44.382636 ] ], [ [ 24.707161, 43.823782 ], [ 24.692193, 43.821413 ], [ 24.688408, 43.82725 ], [ 24.695721, 43.835733 ], [ 24.707161, 43.823782 ] ] ] } },
{ "type": "Feature", "properties": { "loc": "RO415" }, "geometry": { "type": "Polygon", "coordinates": [ [ [ 23.597271, 45.473471 ], [ 23.579797, 45.429284 ], [ 23.599545, 45.385165 ], [ 23.59064, 45.353072 ], [ 23.69745, 45.329788 ], [ 23.796469, 45.349387 ], [ 23.840441, 45.322978 ], [ 23.800868, 45.255148 ], [ 23.851298, 45.154077 ], [ 23.817961, 45.125668 ], [ 23.824455, 45.07871 ], [ 23.788598, 45.06177 ], [ 23.790963, 45.025774 ], [ 23.759097, 44.995664 ], [ 23.769921, 44.947486 ], [ 23.760025, 44.876943 ], [ 23.79154, 44.820508 ], [ 23.772998, 44.779754 ], [ 23.790088, 44.640435 ], [ 23.888149, 44.626922 ], [ 23.886995, 44.597489 ], [ 23.917953, 44.567082 ], [ 23.928197, 44.530225 ], [ 24.016577, 44.531307 ], [ 24.074754, 44.492293 ], [ 24.146926, 44.55577 ], [ 24.249377, 44.552956 ], [ 24.26531, 44.598979 ], [ 24.282073, 44.596617 ], [ 24.289678, 44.567762 ], [ 24.322353, 44.562765 ], [ 24.323923, 44.612046 ], [ 24.280308, 44.708897 ], [ 24.27734, 44.766445 ], [ 24.318641, 44.790038 ], [ 24.336791, 44.86757 ], [ 24.36782, 44.873303 ], [ 24.389808, 44.898708 ], [ 24.421012, 44.889171 ], [ 24.419435, 44.855872 ], [ 24.438121, 44.845375 ], [ 24.460818, 44.862381 ], [ 24.47648, 44.894461 ], [ 24.466298, 44.915822 ], [ 24.495301, 44.944987 ], [ 24.476061, 44.952361 ], [ 24.502063, 44.997541 ], [ 24.489396, 45.01614 ], [ 24.518173, 45.046045 ], [ 24.484441, 45.063672 ], [ 24.503532, 45.085343 ], [ 24.491939, 45.107202 ], [ 24.515519, 45.118811 ], [ 24.500299, 45.161962 ], [ 24.518419, 45.181956 ], [ 24.468989, 45.228901 ], [ 24.490261, 45.28129 ], [ 24.489864, 45.322361 ], [ 24.471871, 45.350396 ], [ 24.503609, 45.356123 ], [ 24.481159, 45.448104 ], [ 24.524262, 45.479098 ], [ 24.514767, 45.517642 ], [ 24.537618, 45.539087 ], [ 24.523132, 45.580564 ], [ 24.329612, 45.57771 ], [ 24.168403, 45.51574 ], [ 23.798821, 45.529708 ], [ 23.703613, 45.496772 ], [ 23.646568, 45.457761 ], [ 23.597271, 45.473471 ] ] ] } },
{ "type": "Feature", "properties": { "loc": "RO421" }, "geometry": { "type": "Polygon", "coordinates": [ [ [ 22.676576, 46.405825 ], [ 22.636862, 46.390515 ], [ 22.430165, 46.392333 ], [ 22.352708, 46.445356 ], [ 22.322912, 46.512655 ], [ 22.272838, 46.502688 ], [ 22.199162, 46.515068 ], [ 22.177618, 46.537418 ], [ 22.169252, 46.600449 ], [ 22.117637, 46.604553 ], [ 22.081784, 46.635406 ], [ 22.023622, 46.650203 ], [ 21.997533, 46.62497 ], [ 21.950396, 46.618343 ], [ 21.886566, 46.632508 ], [ 21.905247, 46.663027 ], [ 21.878024, 46.678029 ], [ 21.796849, 46.655228 ], [ 21.648885, 46.663643 ], [ 21.617125, 46.646516 ], [ 21.570673, 46.646833 ], [ 21.560983, 46.601456 ], [ 21.500865, 46.656589 ], [ 21.465119, 46.660027 ], [ 21.406594, 46.62445 ], [ 21.365659, 46.635288 ], [ 21.315162, 46.61722 ], [ 21.304722, 46.594156 ], [ 21.316258, 46.579576 ], [ 21.262827, 46.503255 ], [ 21.314042, 46.445651 ], [ 21.289101, 46.4057 ], [ 21.230066, 46.412356 ], [ 21.206752, 46.399214 ], [ 21.173469, 46.301214 ], [ 21.119377, 46.301184 ], [ 21.101881, 46.265297 ], [ 21.06114, 46.244896 ], [ 20.942619, 46.277786 ], [ 20.913931, 46.264417 ], [ 20.870843, 46.286014 ], [ 20.7756, 46.27591 ], [ 20.749375, 46.250412 ], [ 20.761239, 46.205256 ], [ 20.727376, 46.207413 ], [ 20.733121, 46.192431 ], [ 20.705304, 46.160937 ], [ 20.772746, 46.139965 ], [ 20.83547, 46.092631 ], [ 20.911408, 46.071951 ], [ 20.946956, 46.040729 ], [ 21.064283, 46.034436 ], [ 21.1102, 45.981913 ], [ 21.170673, 45.994655 ], [ 21.234696, 45.975582 ], [ 21.288661, 46.016401 ], [ 21.364409, 45.987075 ], [ 21.438494, 46.025815 ], [ 21.4424, 46.050849 ], [ 21.500585, 46.064519 ], [ 21.529311, 46.037994 ], [ 21.532831, 46.010707 ], [ 21.633796, 45.972206 ], [ 21.634953, 45.947342 ], [ 21.671908, 45.911984 ], [ 21.734392, 45.982434 ], [ 21.767937, 45.952636 ], [ 21.778433, 45.919651 ], [ 21.797534, 45.923222 ], [ 21.823562, 45.962071 ], [ 21.852911, 45.948337 ], [ 21.894331, 45.954698 ], [ 21.929472, 45.984236 ], [ 21.969815, 45.992908 ], [ 21.998266, 45.970361 ], [ 22.22889, 45.903943 ], [ 22.257624, 45.931377 ], [ 22.305709, 45.935566 ], [ 22.319556, 45.969117 ], [ 22.352795, 45.972686 ], [ 22.34219, 45.995824 ], [ 22.436856, 46.016753 ], [ 22.428283, 46.073451 ], [ 22.407888, 46.095802 ], [ 22.463682, 46.144606 ], [ 22.443967, 46.212115 ], [ 22.492996, 46.24024 ], [ 22.51682, 46.225895 ], [ 22.607455, 46.221609 ], [ 22.65832, 46.241176 ], [ 22.681245, 46.319677 ], [ 22.748716, 46.351207 ], [ 22.699997, 46.365854 ], [ 22.676576, 46.405825 ] ] ] } },
{ "type": "Feature", "properties": { "loc": "RO422" }, "geometry": { "type": "Polygon", "coordinates": [ [ [ 22.686247, 45.257961 ], [ 22.695174, 45.326063 ], [ 22.660559, 45.371438 ], [ 22.709441, 45.420087 ], [ 22.673634, 45.515657 ], [ 22.630507, 45.539823 ], [ 22.636651, 45.56767 ], [ 22.597208, 45.563199 ], [ 22.584278, 45.5818 ], [ 22.512692, 45.597086 ], [ 22.426479, 45.668884 ], [ 22.319598, 45.659613 ], [ 22.267544, 45.586524 ], [ 22.189575, 45.614662 ], [ 22.15373, 45.602437 ], [ 22.146678, 45.61203 ], [ 22.074968, 45.575106 ], [ 22.043699, 45.587867 ], [ 22.068265, 45.533288 ], [ 22.036166, 45.498479 ], [ 21.946724, 45.509423 ], [ 21.920664, 45.565704 ], [ 21.877144, 45.560827 ], [ 21.869527, 45.535865 ], [ 21.823562, 45.529134 ], [ 21.666303, 45.582086 ], [ 21.599334, 45.565303 ], [ 21.564331, 45.497103 ], [ 21.464797, 45.473592 ], [ 21.482714, 45.423498 ], [ 21.449091, 45.407121 ], [ 21.447003, 45.394182 ], [ 21.526286, 45.327115 ], [ 21.548639, 45.274926 ], [ 21.504171, 45.203665 ], [ 21.479179, 45.193027 ], [ 21.518332, 45.164849 ], [ 21.524032, 45.138475 ], [ 21.477448, 45.116743 ], [ 21.479038, 45.09007 ], [ 21.450195, 45.040297 ], [ 21.364019, 45.018824 ], [ 21.431799, 44.964441 ], [ 21.542124, 44.93202 ], [ 21.558179, 44.893406 ], [ 21.483352, 44.869114 ], [ 21.375033, 44.866402 ], [ 21.35847, 44.821612 ], [ 21.407299, 44.776327 ], [ 21.585649, 44.758483 ], [ 21.635098, 44.661807 ], [ 21.917979, 44.646209 ], [ 21.992566, 44.631283 ], [ 22.016133, 44.599202 ], [ 22.083044, 44.620082 ], [ 22.114838, 44.594872 ], [ 22.150213, 44.591335 ], [ 22.175941, 44.632269 ], [ 22.141392, 44.662417 ], [ 22.154988, 44.722856 ], [ 22.200136, 44.759057 ], [ 22.209728, 44.815176 ], [ 22.268733, 44.78374 ], [ 22.336665, 44.77503 ], [ 22.357889, 44.74327 ], [ 22.415031, 44.757929 ], [ 22.426824, 44.800958 ], [ 22.486085, 44.885305 ], [ 22.48962, 44.94737 ], [ 22.513415, 44.958162 ], [ 22.49626, 44.976033 ], [ 22.656632, 45.108167 ], [ 22.647705, 45.125991 ], [ 22.583513, 45.137921 ], [ 22.561586, 45.161308 ], [ 22.686247, 45.257961 ] ] ] } },
{ "type": "Feature", "properties": { "loc": "RO423" }, "geometry": { "type": "MultiPolygon", "coordinates": [ [ [ [ 22.748716, 46.351207 ], [ 22.681245, 46.319677 ], [ 22.647743, 46.230513 ], [ 22.51682, 46.225895 ], [ 22.492996, 46.24024 ], [ 22.443967, 46.212115 ], [ 22.463682, 46.144606 ], [ 22.407888, 46.095802 ], [ 22.428283, 46.073451 ], [ 22.436856, 46.016753 ], [ 22.34219, 45.995824 ], [ 22.339579, 45.983808 ], [ 22.416553, 45.936659 ], [ 22.407357, 45.907297 ], [ 22.380615, 45.889776 ], [ 22.405234, 45.859869 ], [ 22.474362, 45.835025 ], [ 22.483084, 45.788348 ], [ 22.5303, 45.799974 ], [ 22.546721, 45.787368 ], [ 22.538077, 45.764193 ], [ 22.470546, 45.729617 ], [ 22.464867, 45.690401 ], [ 22.426479, 45.668884 ], [ 22.512692, 45.597086 ], [ 22.584278, 45.5818 ], [ 22.597208, 45.563199 ], [ 22.636651, 45.56767 ], [ 22.630507, 45.539823 ], [ 22.673634, 45.515657 ], [ 22.704476, 45.457382 ], [ 22.709441, 45.420087 ], [ 22.660559, 45.371438 ], [ 22.695174, 45.326063 ], [ 22.686247, 45.257961 ], [ 22.827797, 45.281591 ], [ 22.868638, 45.265671 ], [ 22.929758, 45.277067 ], [ 23.015389, 45.25581 ], [ 23.097244, 45.288235 ], [ 23.202397, 45.280472 ], [ 23.246889, 45.304884 ], [ 23.309127, 45.303217 ], [ 23.376717, 45.335441 ], [ 23.451291, 45.300802 ], [ 23.59064, 45.353072 ], [ 23.599545, 45.385165 ], [ 23.579797, 45.429284 ], [ 23.592999, 45.491321 ], [ 23.496907, 45.574995 ], [ 23.429595, 45.588547 ], [ 23.416729, 45.627099 ], [ 23.374223, 45.630731 ], [ 23.416502, 45.677678 ], [ 23.367501, 45.713109 ], [ 23.374124, 45.763084 ], [ 23.331017, 45.826894 ], [ 23.327392, 45.875767 ], [ 23.310484, 45.894315 ], [ 23.326606, 45.912744 ], [ 23.261981, 45.941238 ], [ 23.237073, 45.988555 ], [ 23.238014, 46.035665 ], [ 23.183403, 46.029346 ], [ 23.104498, 46.048012 ], [ 23.05773, 46.135622 ], [ 23.1001, 46.143603 ], [ 23.09237, 46.181859 ], [ 23.062256, 46.209458 ], [ 22.993205, 46.214813 ], [ 22.96459, 46.235925 ], [ 22.951307, 46.266083 ], [ 22.961928, 46.28515 ], [ 22.929762, 46.327378 ], [ 22.815297, 46.327814 ], [ 22.748716, 46.351207 ] ] ], [ [ [ 22.943712, 45.266215 ], [ 22.926269, 45.242592 ], [ 22.944796, 45.239133 ], [ 22.943712, 45.266215 ] ] ] ] } },
{ "type": "Feature", "properties": { "loc": "RO424" }, "geometry": { "type": "Polygon", "coordinates": [ [ [ 20.662833, 45.794116 ], [ 20.682078, 45.792769 ], [ 20.709671, 45.750318 ], [ 20.770612, 45.756282 ], [ 20.78691, 45.783229 ], [ 20.818236, 45.775632 ], [ 20.802661, 45.658322 ], [ 20.76783, 45.602957 ], [ 20.828826, 45.536702 ], [ 20.773082, 45.50092 ], [ 20.775134, 45.486903 ], [ 20.860785, 45.466021 ], [ 20.874319, 45.430324 ], [ 20.919545, 45.412723 ], [ 21.016575, 45.324627 ], [ 21.058265, 45.329893 ], [ 21.10061, 45.298409 ], [ 21.17789, 45.320911 ], [ 21.218272, 45.2529 ], [ 21.272115, 45.232597 ], [ 21.406019, 45.225367 ], [ 21.479179, 45.193027 ], [ 21.504171, 45.203665 ], [ 21.548639, 45.274926 ], [ 21.526286, 45.327115 ], [ 21.447003, 45.394182 ], [ 21.482714, 45.423498 ], [ 21.464797, 45.473592 ], [ 21.564331, 45.497103 ], [ 21.599334, 45.565303 ], [ 21.666303, 45.582086 ], [ 21.823562, 45.529134 ], [ 21.869527, 45.535865 ], [ 21.877144, 45.560827 ], [ 21.920664, 45.565704 ], [ 21.946724, 45.509423 ], [ 22.036166, 45.498479 ], [ 22.068265, 45.533288 ], [ 22.043699, 45.587867 ], [ 22.074968, 45.575106 ], [ 22.146678, 45.61203 ], [ 22.15373, 45.602437 ], [ 22.189575, 45.614662 ], [ 22.267544, 45.586524 ], [ 22.319598, 45.659613 ], [ 22.426479, 45.668884 ], [ 22.464867, 45.690401 ], [ 22.470546, 45.729617 ], [ 22.538077, 45.764193 ], [ 22.546721, 45.787368 ], [ 22.5303, 45.799974 ], [ 22.483084, 45.788348 ], [ 22.474362, 45.835025 ], [ 22.405234, 45.859869 ], [ 22.380615, 45.889776 ], [ 22.407357, 45.907297 ], [ 22.416553, 45.936659 ], [ 22.352795, 45.972686 ], [ 22.319556, 45.969117 ], [ 22.305709, 45.935566 ], [ 22.257624, 45.931377 ], [ 22.22889, 45.903943 ], [ 21.998266, 45.970361 ], [ 21.969815, 45.992908 ], [ 21.929472, 45.984236 ], [ 21.894331, 45.954698 ], [ 21.852911, 45.948337 ], [ 21.823562, 45.962071 ], [ 21.797534, 45.923222 ], [ 21.778433, 45.919651 ], [ 21.767937, 45.952636 ], [ 21.734392, 45.982434 ], [ 21.671908, 45.911984 ], [ 21.634953, 45.947342 ], [ 21.633796, 45.972206 ], [ 21.532831, 46.010707 ], [ 21.529311, 46.037994 ], [ 21.500585, 46.064519 ], [ 21.4424, 46.050849 ], [ 21.438494, 46.025815 ], [ 21.364409, 45.987075 ], [ 21.288661, 46.016401 ], [ 21.234696, 45.975582 ], [ 21.170673, 45.994655 ], [ 21.1102, 45.981913 ], [ 21.064283, 46.034436 ], [ 20.946956, 46.040729 ], [ 20.911408, 46.071951 ], [ 20.83547, 46.092631 ], [ 20.772746, 46.139965 ], [ 20.705304, 46.160937 ], [ 20.63329, 46.129153 ], [ 20.502557, 46.187704 ], [ 20.456699, 46.143727 ], [ 20.352843, 46.167214 ], [ 20.264296, 46.126373 ], [ 20.273051, 46.100987 ], [ 20.342232, 46.048543 ], [ 20.35587, 45.995559 ], [ 20.403235, 45.967327 ], [ 20.477773, 45.955045 ], [ 20.516018, 45.895238 ], [ 20.569069, 45.905934 ], [ 20.583077, 45.872367 ], [ 20.654305, 45.832697 ], [ 20.662833, 45.794116 ] ] ] } }
]
}
