{
"type": "FeatureCollection",
"name": "border_ES",
"crs": { "type": "name", "properties": { "name": "urn:ogc:def:crs:OGC:1.3:CRS84" } },
"features": [
{ "type": "Feature", "properties": { }, "geometry": { "type": "Polygon", "coordinates": [ [ [ -7.453725551778092, 37.097787583966067 ], [ -7.537105475281024, 37.428904323876239 ], [ -7.166507941099865, 37.803894354802225 ], [ -7.029281175148796, 38.075764065089771 ], [ -7.374092169616318, 38.373058580064921 ], [ -7.098036668313128, 39.030072740223787 ], [ -7.498632371439726, 39.629571031241809 ], [ -7.066591559263529, 39.711891587882775 ], [ -7.026413133156595, 40.184524237624245 ], [ -6.864019944679385, 40.330871893874829 ], [ -6.851126674822552, 41.111082668617527 ], [ -6.389087693700915, 41.381815497394655 ], [ -6.668605515967656, 41.883386949219584 ], [ -7.251308966490824, 41.918346055665047 ], [ -7.422512986673795, 41.792074693359837 ], [ -8.013174607769912, 41.790886135417125 ], [ -8.263856980817792, 42.28046865495034 ], [ -8.67194576662672, 42.134689439454959 ], [ -9.034817674180246, 41.880570583659676 ], [ -8.984433152695672, 42.592775173506269 ], [ -9.392883673530648, 43.026624660812701 ], [ -7.97818966310831, 43.748337714200993 ], [ -6.754491746436756, 43.567909450853925 ], [ -5.411886359061597, 43.574239813809683 ], [ -4.347842779955783, 43.403449205085039 ], [ -1.901351284177764, 43.422802028978339 ], [ -1.502770961910528, 43.034014390630432 ], [ 0.338046909190581, 42.57954600683955 ], [ 0.701590610363894, 42.795734361332606 ], [ 1.826793247087153, 42.343384711265692 ], [ 2.985998976258458, 42.473015041669861 ], [ 3.039484083680549, 41.892120266276905 ], [ 2.091841668312185, 41.226088568683096 ], [ 0.810524529635188, 41.014731960609339 ], [ 0.721331007499401, 40.678318386389236 ], [ 0.106691521819869, 40.123933620762017 ], [ -0.278711310212941, 39.30997813573272 ], [ 0.111290724293838, 38.73851430923304 ], [ -0.467123582349103, 38.292365831041153 ], [ -0.683389451490598, 37.642353827457825 ], [ -1.438382127274849, 37.443063666324221 ], [ -2.146452602538119, 36.674144192037289 ], [ -4.368900926114719, 36.677839056946155 ], [ -4.995219285492212, 36.324708156879637 ], [ -5.377159796561457, 35.946850083961465 ], [ -5.866432257500904, 36.029816596006057 ], [ -6.236693894872175, 36.367677110330334 ], [ -6.520190802425404, 36.942913316387319 ], [ -7.453725551778092, 37.097787583966067 ] ] ] } }
]
}
