{
"type": "FeatureCollection",
"name": "regions_HU",
"crs": { "type": "name", "properties": { "name": "urn:ogc:def:crs:OGC:1.3:CRS84" } },
"features": [
{ "type": "Feature", "properties": { "loc": "HU232" }, "geometry": { "type": "MultiPolygon", "coordinates": [ [ [ [ 16.876044, 46.320602 ], [ 16.930763, 46.315893 ], [ 16.943025, 46.293679 ], [ 16.986517, 46.313501 ], [ 17.02065, 46.308418 ], [ 17.035849, 46.315924 ], [ 17.041082, 46.332165 ], [ 17.057409, 46.345248 ], [ 17.03203, 46.396457 ], [ 17.039453, 46.413498 ], [ 17.069522, 46.403347 ], [ 17.092347, 46.418725 ], [ 17.131142, 46.407461 ], [ 17.145202, 46.42689 ], [ 17.186925, 46.432113 ], [ 17.191095, 46.481739 ], [ 17.224549, 46.512408 ], [ 17.215679, 46.608298 ], [ 17.222967, 46.670001 ], [ 17.254665, 46.687008 ], [ 17.273106, 46.732122 ], [ 17.362033, 46.732302 ], [ 17.419068, 46.750656 ], [ 17.496984, 46.75495 ], [ 17.850375, 46.88184 ], [ 17.891426, 46.882459 ], [ 17.908501, 46.893841 ], [ 17.913954, 46.91747 ], [ 18.076404, 46.972398 ], [ 18.164643, 46.995751 ], [ 18.205249, 46.971632 ], [ 18.177425, 46.94612 ], [ 18.209805, 46.893211 ], [ 18.197972, 46.876019 ], [ 18.200242, 46.811966 ], [ 18.210898, 46.778161 ], [ 18.175758, 46.76923 ], [ 18.166172, 46.747674 ], [ 18.1213, 46.730794 ], [ 18.138748, 46.696968 ], [ 18.077169, 46.623636 ], [ 18.083624, 46.592855 ], [ 18.072871, 46.569014 ], [ 18.058045, 46.55714 ], [ 18.038774, 46.555143 ], [ 18.034328, 46.50031 ], [ 18.066712, 46.429369 ], [ 18.004498, 46.398511 ], [ 18.015937, 46.385259 ], [ 18.051332, 46.38982 ], [ 18.064197, 46.368717 ], [ 18.079899, 46.363193 ], [ 18.084374, 46.328553 ], [ 18.07079, 46.306056 ], [ 18.052896, 46.295814 ], [ 17.993867, 46.308358 ], [ 17.94918, 46.300831 ], [ 17.936353, 46.285578 ], [ 17.931183, 46.242034 ], [ 17.921567, 46.228489 ], [ 17.838231, 46.209195 ], [ 17.79084, 46.223595 ], [ 17.77498, 46.204522 ], [ 17.762044, 46.202255 ], [ 17.732527, 46.229758 ], [ 17.72029, 46.226692 ], [ 17.72391, 46.205909 ], [ 17.705041, 46.191704 ], [ 17.684281, 46.144921 ], [ 17.684045, 46.110576 ], [ 17.668746, 46.101331 ], [ 17.677696, 46.087943 ], [ 17.673966, 46.071197 ], [ 17.630812, 46.04372 ], [ 17.652545, 46.003157 ], [ 17.630471, 45.983534 ], [ 17.645485, 45.937988 ], [ 17.653992, 45.936989 ], [ 17.658099, 45.946553 ], [ 17.672113, 45.944319 ], [ 17.685697, 45.925867 ], [ 17.720246, 45.915876 ], [ 17.731835, 45.874516 ], [ 17.723821, 45.866571 ], [ 17.677682, 45.868581 ], [ 17.651499, 45.847835 ], [ 17.623752, 45.899798 ], [ 17.571028, 45.933385 ], [ 17.446536, 45.94788 ], [ 17.426675, 45.931145 ], [ 17.348697, 45.948049 ], [ 17.363808, 45.979161 ], [ 17.336496, 45.989198 ], [ 17.318048, 45.971037 ], [ 17.313717, 45.985557 ], [ 17.294325, 45.988544 ], [ 17.296495, 46.000885 ], [ 17.269428, 46.013161 ], [ 17.28163, 46.02945 ], [ 17.265101, 46.035665 ], [ 17.262178, 46.056493 ], [ 17.225734, 46.081127 ], [ 17.213782, 46.105817 ], [ 17.182069, 46.112076 ], [ 17.17959, 46.143182 ], [ 17.159036, 46.164819 ], [ 16.982352, 46.224891 ], [ 16.892273, 46.279758 ], [ 16.876044, 46.320602 ] ], [ [ 17.396147, 45.958973 ], [ 17.38895, 45.968976 ], [ 17.372553, 45.959753 ], [ 17.384947, 45.953717 ], [ 17.396147, 45.958973 ] ] ], [ [ [ 17.194113, 46.080077 ], [ 17.204598, 46.086421 ], [ 17.215759, 46.083682 ], [ 17.206227, 46.072938 ], [ 17.194113, 46.080077 ] ] ] ] } },
{ "type": "Feature", "properties": { "loc": "HU233" }, "geometry": { "type": "Polygon", "coordinates": [ [ [ 18.925097, 46.857168 ], [ 18.926428, 46.82217 ], [ 18.977606, 46.760202 ], [ 19.004854, 46.69895 ], [ 18.96698, 46.655095 ], [ 18.88422, 46.635452 ], [ 18.861848, 46.611657 ], [ 18.863737, 46.597161 ], [ 18.893337, 46.561703 ], [ 18.897162, 46.519589 ], [ 18.922348, 46.469524 ], [ 18.918864, 46.449093 ], [ 18.886203, 46.397514 ], [ 18.899334, 46.336767 ], [ 18.919923, 46.304003 ], [ 18.909217, 46.263919 ], [ 18.86851, 46.267651 ], [ 18.872136, 46.239051 ], [ 18.826655, 46.211843 ], [ 18.835916, 46.203355 ], [ 18.86817, 46.218735 ], [ 18.867436, 46.196117 ], [ 18.845357, 46.182669 ], [ 18.835216, 46.140588 ], [ 18.802291, 46.108765 ], [ 18.746888, 46.112196 ], [ 18.691509, 46.127253 ], [ 18.617501, 46.183411 ], [ 18.587513, 46.188902 ], [ 18.562702, 46.220201 ], [ 18.535227, 46.232078 ], [ 18.536992, 46.269576 ], [ 18.500369, 46.290312 ], [ 18.482824, 46.288803 ], [ 18.47011, 46.263606 ], [ 18.443796, 46.245572 ], [ 18.388309, 46.220307 ], [ 18.370128, 46.220996 ], [ 18.369624, 46.229666 ], [ 18.401766, 46.246696 ], [ 18.4157, 46.279343 ], [ 18.379043, 46.297518 ], [ 18.375646, 46.321037 ], [ 18.384023, 46.344603 ], [ 18.351983, 46.363987 ], [ 18.341312, 46.400217 ], [ 18.31695, 46.413073 ], [ 18.193554, 46.396968 ], [ 18.193884, 46.334631 ], [ 18.157843, 46.319826 ], [ 18.119876, 46.316062 ], [ 18.116294, 46.290314 ], [ 18.093863, 46.299578 ], [ 18.052896, 46.295814 ], [ 18.07079, 46.306056 ], [ 18.084374, 46.328553 ], [ 18.079899, 46.363193 ], [ 18.064197, 46.368717 ], [ 18.051332, 46.38982 ], [ 18.015937, 46.385259 ], [ 18.004498, 46.398511 ], [ 18.066712, 46.429369 ], [ 18.034328, 46.50031 ], [ 18.038774, 46.555143 ], [ 18.058045, 46.55714 ], [ 18.072871, 46.569014 ], [ 18.083624, 46.592855 ], [ 18.077169, 46.623636 ], [ 18.138748, 46.696968 ], [ 18.1213, 46.730794 ], [ 18.166172, 46.747674 ], [ 18.175758, 46.76923 ], [ 18.250356, 46.785212 ], [ 18.301807, 46.814932 ], [ 18.317156, 46.793294 ], [ 18.361844, 46.777372 ], [ 18.379997, 46.787732 ], [ 18.401485, 46.774794 ], [ 18.410004, 46.799876 ], [ 18.419633, 46.788863 ], [ 18.423684, 46.752537 ], [ 18.461666, 46.740721 ], [ 18.507497, 46.747583 ], [ 18.50975, 46.764619 ], [ 18.554532, 46.782272 ], [ 18.574573, 46.76014 ], [ 18.613671, 46.7441 ], [ 18.631121, 46.694088 ], [ 18.643271, 46.688755 ], [ 18.676391, 46.695794 ], [ 18.725563, 46.72285 ], [ 18.717092, 46.755289 ], [ 18.793864, 46.770744 ], [ 18.798968, 46.788333 ], [ 18.863678, 46.824847 ], [ 18.871516, 46.837169 ], [ 18.866541, 46.85 ], [ 18.925097, 46.857168 ] ] ] } },
{ "type": "Feature", "properties": { "loc": "HU311" }, "geometry": { "type": "Polygon", "coordinates": [ [ [ 20.771699, 47.654476 ], [ 20.710117, 47.688012 ], [ 20.64463, 47.687164 ], [ 20.604103, 47.699123 ], [ 20.573536, 47.718658 ], [ 20.591407, 47.741501 ], [ 20.532704, 47.775151 ], [ 20.506487, 47.803171 ], [ 20.505519, 47.853148 ], [ 20.46472, 47.876644 ], [ 20.453335, 47.892814 ], [ 20.464835, 47.905225 ], [ 20.493388, 47.910872 ], [ 20.511526, 47.930447 ], [ 20.458199, 47.968986 ], [ 20.483742, 48.009149 ], [ 20.48387, 48.055304 ], [ 20.497176, 48.071328 ], [ 20.479567, 48.119545 ], [ 20.460552, 48.140523 ], [ 20.437837, 48.14999 ], [ 20.39713, 48.14921 ], [ 20.358369, 48.097633 ], [ 20.29933, 48.12121 ], [ 20.273458, 48.09873 ], [ 20.244232, 48.092026 ], [ 20.209069, 48.097163 ], [ 20.139359, 48.140806 ], [ 20.093065, 48.14322 ], [ 20.051879, 48.167704 ], [ 20.074189, 48.192773 ], [ 20.129895, 48.224277 ], [ 20.139147, 48.253676 ], [ 20.199518, 48.250317 ], [ 20.238423, 48.2791 ], [ 20.302426, 48.264481 ], [ 20.407644, 48.366473 ], [ 20.4183, 48.418209 ], [ 20.504343, 48.492091 ], [ 20.511412, 48.534687 ], [ 20.534773, 48.530966 ], [ 20.552488, 48.542503 ], [ 20.587325, 48.537805 ], [ 20.710167, 48.568944 ], [ 20.833702, 48.580855 ], [ 20.871699, 48.553244 ], [ 20.9217, 48.557076 ], [ 20.962112, 48.522933 ], [ 21.015084, 48.530815 ], [ 21.064652, 48.524891 ], [ 21.118042, 48.492381 ], [ 21.159875, 48.5188 ], [ 21.220479, 48.535695 ], [ 21.300966, 48.524289 ], [ 21.316546, 48.537513 ], [ 21.319787, 48.557531 ], [ 21.411755, 48.560989 ], [ 21.438045, 48.582631 ], [ 21.508274, 48.553819 ], [ 21.541428, 48.511118 ], [ 21.610297, 48.508282 ], [ 21.624141, 48.466213 ], [ 21.652526, 48.432608 ], [ 21.66973, 48.393506 ], [ 21.698127, 48.381696 ], [ 21.727551, 48.350226 ], [ 21.823562, 48.334257 ], [ 21.847013, 48.361833 ], [ 21.923766, 48.365619 ], [ 22.024955, 48.388542 ], [ 22.085981, 48.376279 ], [ 22.121078, 48.378311 ], [ 22.11917, 48.35236 ], [ 22.100361, 48.328024 ], [ 22.08779, 48.326801 ], [ 22.081821, 48.310889 ], [ 22.068833, 48.310036 ], [ 22.059921, 48.299112 ], [ 22.017398, 48.310029 ], [ 21.919461, 48.242804 ], [ 21.85804, 48.238422 ], [ 21.841784, 48.228708 ], [ 21.829824, 48.240596 ], [ 21.763291, 48.193305 ], [ 21.748506, 48.201697 ], [ 21.726534, 48.200021 ], [ 21.723506, 48.190146 ], [ 21.625957, 48.19401 ], [ 21.580887, 48.207689 ], [ 21.537331, 48.195207 ], [ 21.515564, 48.178769 ], [ 21.484182, 48.179806 ], [ 21.469501, 48.169329 ], [ 21.447197, 48.176281 ], [ 21.426986, 48.157322 ], [ 21.427281, 48.134159 ], [ 21.417217, 48.12014 ], [ 21.445859, 48.092165 ], [ 21.437653, 48.082283 ], [ 21.452873, 48.073528 ], [ 21.438834, 48.065423 ], [ 21.431605, 48.046754 ], [ 21.412332, 48.048788 ], [ 21.40546, 48.032361 ], [ 21.355322, 48.032078 ], [ 21.332036, 48.023935 ], [ 21.269538, 48.038451 ], [ 21.256184, 48.055984 ], [ 21.231468, 48.044626 ], [ 21.216321, 48.024766 ], [ 21.174921, 48.028536 ], [ 21.165825, 48.041441 ], [ 21.131867, 48.044627 ], [ 21.084783, 48.006062 ], [ 21.104723, 47.972751 ], [ 21.122181, 47.961827 ], [ 21.098297, 47.923496 ], [ 21.112849, 47.909416 ], [ 21.059435, 47.852832 ], [ 21.075538, 47.81749 ], [ 21.039983, 47.756098 ], [ 21.006207, 47.752336 ], [ 20.98707, 47.72152 ], [ 20.954078, 47.715233 ], [ 20.918812, 47.692455 ], [ 20.890827, 47.691102 ], [ 20.890988, 47.674692 ], [ 20.860154, 47.672473 ], [ 20.866038, 47.649865 ], [ 20.827972, 47.659017 ], [ 20.825763, 47.669151 ], [ 20.79408, 47.681096 ], [ 20.770733, 47.669901 ], [ 20.771699, 47.654476 ] ] ] } },
{ "type": "Feature", "properties": { "loc": "HU312" }, "geometry": { "type": "Polygon", "coordinates": [ [ [ 19.66633, 47.588549 ], [ 19.640656, 47.645463 ], [ 19.612079, 47.658756 ], [ 19.595142, 47.68401 ], [ 19.603046, 47.713146 ], [ 19.570937, 47.734899 ], [ 19.636529, 47.764747 ], [ 19.642782, 47.807958 ], [ 19.665924, 47.806094 ], [ 19.7164, 47.821508 ], [ 19.758705, 47.867421 ], [ 19.771791, 47.898586 ], [ 19.836983, 47.879373 ], [ 19.846815, 47.892049 ], [ 19.816602, 47.903831 ], [ 19.81743, 47.92227 ], [ 19.873408, 47.928149 ], [ 19.916671, 47.919228 ], [ 19.943843, 47.943575 ], [ 19.964672, 47.950405 ], [ 19.967006, 47.96928 ], [ 19.98203, 47.979928 ], [ 19.982782, 47.997944 ], [ 20.028447, 48.009982 ], [ 20.016162, 48.022281 ], [ 20.008293, 48.056172 ], [ 19.971854, 48.088803 ], [ 20.039052, 48.10766 ], [ 20.093065, 48.14322 ], [ 20.139359, 48.140806 ], [ 20.209069, 48.097163 ], [ 20.244232, 48.092026 ], [ 20.273458, 48.09873 ], [ 20.29933, 48.12121 ], [ 20.358369, 48.097633 ], [ 20.39713, 48.14921 ], [ 20.437837, 48.14999 ], [ 20.460552, 48.140523 ], [ 20.479567, 48.119545 ], [ 20.497176, 48.071328 ], [ 20.48387, 48.055304 ], [ 20.483742, 48.009149 ], [ 20.458199, 47.968986 ], [ 20.511526, 47.930447 ], [ 20.493388, 47.910872 ], [ 20.464835, 47.905225 ], [ 20.453335, 47.892814 ], [ 20.46472, 47.876644 ], [ 20.505519, 47.853148 ], [ 20.506487, 47.803171 ], [ 20.532704, 47.775151 ], [ 20.591407, 47.741501 ], [ 20.573536, 47.718658 ], [ 20.604103, 47.699123 ], [ 20.64463, 47.687164 ], [ 20.710117, 47.688012 ], [ 20.771699, 47.654476 ], [ 20.756621, 47.643001 ], [ 20.720438, 47.635746 ], [ 20.716668, 47.611687 ], [ 20.699511, 47.597709 ], [ 20.706143, 47.584554 ], [ 20.699165, 47.575015 ], [ 20.669225, 47.569015 ], [ 20.663742, 47.554113 ], [ 20.645028, 47.544839 ], [ 20.526411, 47.501099 ], [ 20.503124, 47.469673 ], [ 20.466008, 47.461635 ], [ 20.43686, 47.43149 ], [ 20.401168, 47.421371 ], [ 20.381719, 47.425713 ], [ 20.377004, 47.443229 ], [ 20.335212, 47.444927 ], [ 20.296328, 47.479224 ], [ 20.290491, 47.489496 ], [ 20.301082, 47.516111 ], [ 20.29278, 47.53318 ], [ 20.231823, 47.564795 ], [ 20.204706, 47.606235 ], [ 20.114154, 47.592133 ], [ 20.109734, 47.583449 ], [ 20.126083, 47.566461 ], [ 20.111564, 47.555369 ], [ 20.021047, 47.58058 ], [ 20.00814, 47.593566 ], [ 20.015603, 47.616174 ], [ 20.003163, 47.656963 ], [ 19.986814, 47.673293 ], [ 19.916671, 47.657115 ], [ 19.878337, 47.661823 ], [ 19.865694, 47.630695 ], [ 19.822514, 47.599692 ], [ 19.749637, 47.619062 ], [ 19.710768, 47.607306 ], [ 19.697452, 47.588192 ], [ 19.66633, 47.588549 ] ] ] } },
{ "type": "Feature", "properties": { "loc": "HU313" }, "geometry": { "type": "Polygon", "coordinates": [ [ [ 19.570937, 47.734899 ], [ 19.539086, 47.743197 ], [ 19.493714, 47.71306 ], [ 19.5062, 47.696876 ], [ 19.479221, 47.689938 ], [ 19.438031, 47.73347 ], [ 19.443019, 47.765711 ], [ 19.418482, 47.773517 ], [ 19.441084, 47.805221 ], [ 19.395881, 47.820555 ], [ 19.35317, 47.819615 ], [ 19.32178, 47.831533 ], [ 19.233171, 47.826151 ], [ 19.181771, 47.84794 ], [ 19.114488, 47.850073 ], [ 19.08171, 47.841575 ], [ 19.049712, 47.862876 ], [ 19.036834, 47.883572 ], [ 19.003039, 47.899195 ], [ 18.944952, 47.94367 ], [ 18.945372, 47.955663 ], [ 18.989808, 47.979324 ], [ 19.00209, 47.994624 ], [ 19.003732, 48.014196 ], [ 18.991503, 48.02644 ], [ 18.957489, 48.029261 ], [ 18.928392, 48.056832 ], [ 18.982163, 48.054301 ], [ 19.014323, 48.077736 ], [ 19.056906, 48.060569 ], [ 19.085617, 48.070722 ], [ 19.134967, 48.072483 ], [ 19.238853, 48.055727 ], [ 19.296478, 48.086376 ], [ 19.404883, 48.085054 ], [ 19.443983, 48.09891 ], [ 19.464104, 48.087104 ], [ 19.485106, 48.102702 ], [ 19.495712, 48.139068 ], [ 19.510253, 48.154154 ], [ 19.508644, 48.174911 ], [ 19.529711, 48.203039 ], [ 19.579377, 48.218114 ], [ 19.629362, 48.247797 ], [ 19.66745, 48.237172 ], [ 19.695506, 48.204697 ], [ 19.718176, 48.202624 ], [ 19.752194, 48.213801 ], [ 19.798849, 48.19161 ], [ 19.788902, 48.166941 ], [ 19.79373, 48.158907 ], [ 19.85609, 48.172614 ], [ 19.887283, 48.166715 ], [ 19.906701, 48.15079 ], [ 19.908105, 48.128841 ], [ 19.935209, 48.134355 ], [ 19.982695, 48.165506 ], [ 20.024621, 48.174721 ], [ 20.051879, 48.167704 ], [ 20.093065, 48.14322 ], [ 20.039052, 48.10766 ], [ 19.971854, 48.088803 ], [ 20.008293, 48.056172 ], [ 20.016162, 48.022281 ], [ 20.028447, 48.009982 ], [ 19.982782, 47.997944 ], [ 19.98203, 47.979928 ], [ 19.967006, 47.96928 ], [ 19.964672, 47.950405 ], [ 19.943843, 47.943575 ], [ 19.916671, 47.919228 ], [ 19.873408, 47.928149 ], [ 19.81743, 47.92227 ], [ 19.816602, 47.903831 ], [ 19.846815, 47.892049 ], [ 19.836983, 47.879373 ], [ 19.771791, 47.898586 ], [ 19.758705, 47.867421 ], [ 19.7164, 47.821508 ], [ 19.665924, 47.806094 ], [ 19.642782, 47.807958 ], [ 19.636529, 47.764747 ], [ 19.570937, 47.734899 ] ] ] } },
{ "type": "Feature", "properties": { "loc": "HU321" }, "geometry": { "type": "Polygon", "coordinates": [ [ [ 21.658955, 47.022131 ], [ 21.633278, 47.021751 ], [ 21.604198, 46.999655 ], [ 21.568917, 46.999649 ], [ 21.556659, 46.981838 ], [ 21.557894, 46.962566 ], [ 21.485407, 46.944198 ], [ 21.434076, 46.953291 ], [ 21.437649, 46.967226 ], [ 21.412752, 46.975713 ], [ 21.353912, 46.980518 ], [ 21.249183, 47.009341 ], [ 21.236099, 47.023835 ], [ 21.234953, 47.058415 ], [ 21.292205, 47.086131 ], [ 21.304386, 47.114058 ], [ 21.298321, 47.147844 ], [ 21.257005, 47.147866 ], [ 21.204605, 47.165228 ], [ 21.126343, 47.175307 ], [ 21.066892, 47.206787 ], [ 21.052783, 47.192394 ], [ 21.017528, 47.226328 ], [ 20.992098, 47.232287 ], [ 21.015264, 47.25378 ], [ 21.02832, 47.351062 ], [ 20.997286, 47.463344 ], [ 21.002489, 47.488417 ], [ 20.988583, 47.515302 ], [ 20.992618, 47.562904 ], [ 20.951172, 47.5918 ], [ 20.887863, 47.583806 ], [ 20.849174, 47.596654 ], [ 20.828148, 47.628668 ], [ 20.827972, 47.659017 ], [ 20.866038, 47.649865 ], [ 20.860154, 47.672473 ], [ 20.890988, 47.674692 ], [ 20.890827, 47.691102 ], [ 20.918812, 47.692455 ], [ 20.954078, 47.715233 ], [ 20.98707, 47.72152 ], [ 21.006207, 47.752336 ], [ 21.039983, 47.756098 ], [ 21.075538, 47.81749 ], [ 21.059435, 47.852832 ], [ 21.112849, 47.909416 ], [ 21.098297, 47.923496 ], [ 21.122181, 47.961827 ], [ 21.195523, 47.956832 ], [ 21.257698, 47.924013 ], [ 21.274024, 47.90691 ], [ 21.326869, 47.920158 ], [ 21.491997, 47.926306 ], [ 21.521955, 47.939371 ], [ 21.558136, 47.931374 ], [ 21.563131, 47.926297 ], [ 21.554647, 47.899001 ], [ 21.561986, 47.88494 ], [ 21.544169, 47.791981 ], [ 21.599525, 47.76819 ], [ 21.633936, 47.732341 ], [ 21.701257, 47.730461 ], [ 21.721112, 47.708818 ], [ 21.767364, 47.704457 ], [ 21.773208, 47.687546 ], [ 21.83634, 47.670225 ], [ 21.879961, 47.696081 ], [ 21.890597, 47.725285 ], [ 21.926164, 47.731386 ], [ 21.984513, 47.70265 ], [ 21.983118, 47.678266 ], [ 22.00753, 47.663335 ], [ 22.006365, 47.64238 ], [ 22.021398, 47.624211 ], [ 22.07556, 47.669979 ], [ 22.101175, 47.657305 ], [ 22.107222, 47.629022 ], [ 22.12832, 47.598089 ], [ 22.116125, 47.578915 ], [ 22.064209, 47.549695 ], [ 22.060985, 47.535647 ], [ 22.039766, 47.531505 ], [ 22.015606, 47.503172 ], [ 22.010756, 47.479564 ], [ 22.02807, 47.448928 ], [ 22.032214, 47.420755 ], [ 22.017465, 47.387305 ], [ 21.943409, 47.371342 ], [ 21.894241, 47.310285 ], [ 21.881422, 47.286098 ], [ 21.883337, 47.270636 ], [ 21.853328, 47.239582 ], [ 21.855487, 47.187814 ], [ 21.815296, 47.168237 ], [ 21.790523, 47.109477 ], [ 21.726506, 47.097281 ], [ 21.697635, 47.059965 ], [ 21.652622, 47.038479 ], [ 21.658955, 47.022131 ] ] ] } },
{ "type": "Feature", "properties": { "loc": "HU322" }, "geometry": { "type": "Polygon", "coordinates": [ [ [ 20.424266, 46.80347 ], [ 20.404291, 46.789687 ], [ 20.355157, 46.783298 ], [ 20.330634, 46.762803 ], [ 20.293617, 46.767711 ], [ 20.263393, 46.791793 ], [ 20.232514, 46.79776 ], [ 20.172421, 46.756815 ], [ 20.113314, 46.783488 ], [ 20.093902, 46.765298 ], [ 20.061163, 46.80639 ], [ 20.039337, 46.821696 ], [ 20.036904, 46.802459 ], [ 20.028017, 46.798787 ], [ 20.004315, 46.817781 ], [ 20.05148, 46.838349 ], [ 20.110237, 46.842068 ], [ 20.089302, 46.87512 ], [ 20.157867, 46.921245 ], [ 20.144816, 46.939218 ], [ 20.107727, 46.941386 ], [ 20.107898, 46.952383 ], [ 20.129487, 46.962588 ], [ 20.135622, 46.984698 ], [ 20.094687, 47.007407 ], [ 20.106884, 47.034796 ], [ 20.087925, 47.053987 ], [ 20.051572, 47.125233 ], [ 20.090869, 47.180889 ], [ 20.090817, 47.192919 ], [ 20.072784, 47.220916 ], [ 19.995101, 47.254157 ], [ 20.011907, 47.299289 ], [ 19.992018, 47.338485 ], [ 19.959674, 47.368868 ], [ 19.851307, 47.416122 ], [ 19.804063, 47.458756 ], [ 19.752236, 47.485948 ], [ 19.784585, 47.535055 ], [ 19.735558, 47.535842 ], [ 19.702099, 47.519801 ], [ 19.658553, 47.545398 ], [ 19.653976, 47.565558 ], [ 19.66633, 47.588549 ], [ 19.697452, 47.588192 ], [ 19.710768, 47.607306 ], [ 19.749637, 47.619062 ], [ 19.822514, 47.599692 ], [ 19.865694, 47.630695 ], [ 19.878337, 47.661823 ], [ 19.916671, 47.657115 ], [ 19.986814, 47.673293 ], [ 20.003163, 47.656963 ], [ 20.015603, 47.616174 ], [ 20.00814, 47.593566 ], [ 20.021047, 47.58058 ], [ 20.111564, 47.555369 ], [ 20.126083, 47.566461 ], [ 20.109734, 47.583449 ], [ 20.114154, 47.592133 ], [ 20.204706, 47.606235 ], [ 20.231823, 47.564795 ], [ 20.29278, 47.53318 ], [ 20.301082, 47.516111 ], [ 20.290491, 47.489496 ], [ 20.296328, 47.479224 ], [ 20.335212, 47.444927 ], [ 20.377004, 47.443229 ], [ 20.381719, 47.425713 ], [ 20.401168, 47.421371 ], [ 20.43686, 47.43149 ], [ 20.466008, 47.461635 ], [ 20.503124, 47.469673 ], [ 20.526411, 47.501099 ], [ 20.645028, 47.544839 ], [ 20.663742, 47.554113 ], [ 20.669225, 47.569015 ], [ 20.699165, 47.575015 ], [ 20.706143, 47.584554 ], [ 20.699511, 47.597709 ], [ 20.716668, 47.611687 ], [ 20.720438, 47.635746 ], [ 20.756621, 47.643001 ], [ 20.771699, 47.654476 ], [ 20.770733, 47.669901 ], [ 20.79408, 47.681096 ], [ 20.825763, 47.669151 ], [ 20.828148, 47.628668 ], [ 20.849174, 47.596654 ], [ 20.887863, 47.583806 ], [ 20.951172, 47.5918 ], [ 20.992618, 47.562904 ], [ 20.988583, 47.515302 ], [ 21.002489, 47.488417 ], [ 20.997286, 47.463344 ], [ 21.02832, 47.351062 ], [ 21.015264, 47.25378 ], [ 20.992098, 47.232287 ], [ 20.967535, 47.222275 ], [ 20.940369, 47.187774 ], [ 20.856007, 47.150311 ], [ 20.860556, 47.124674 ], [ 20.848111, 47.109652 ], [ 20.850097, 47.073108 ], [ 20.835902, 47.058664 ], [ 20.800463, 47.038184 ], [ 20.768619, 47.037542 ], [ 20.748488, 47.048113 ], [ 20.710815, 47.030926 ], [ 20.71484, 46.971271 ], [ 20.705581, 46.957368 ], [ 20.723696, 46.947309 ], [ 20.707236, 46.923549 ], [ 20.64631, 46.903995 ], [ 20.591236, 46.91636 ], [ 20.559926, 46.91435 ], [ 20.50512, 46.894178 ], [ 20.450413, 46.891512 ], [ 20.41495, 46.857252 ], [ 20.424266, 46.80347 ] ] ] } },
{ "type": "Feature", "properties": { "loc": "HU323" }, "geometry": { "type": "Polygon", "coordinates": [ [ [ 22.896271, 47.95412 ], [ 22.848946, 47.911208 ], [ 22.795691, 47.893724 ], [ 22.762183, 47.89244 ], [ 22.772814, 47.843704 ], [ 22.716047, 47.834918 ], [ 22.685184, 47.794333 ], [ 22.669893, 47.786224 ], [ 22.605983, 47.772597 ], [ 22.555915, 47.772828 ], [ 22.478534, 47.808939 ], [ 22.44503, 47.797065 ], [ 22.425421, 47.742089 ], [ 22.354939, 47.75114 ], [ 22.321081, 47.764608 ], [ 22.314897, 47.744041 ], [ 22.266437, 47.728998 ], [ 22.256769, 47.699655 ], [ 22.227531, 47.68726 ], [ 22.171308, 47.591837 ], [ 22.12832, 47.598089 ], [ 22.107222, 47.629022 ], [ 22.101175, 47.657305 ], [ 22.07556, 47.669979 ], [ 22.021398, 47.624211 ], [ 22.006365, 47.64238 ], [ 22.00753, 47.663335 ], [ 21.983118, 47.678266 ], [ 21.984513, 47.70265 ], [ 21.926164, 47.731386 ], [ 21.890597, 47.725285 ], [ 21.879961, 47.696081 ], [ 21.83634, 47.670225 ], [ 21.773208, 47.687546 ], [ 21.767364, 47.704457 ], [ 21.721112, 47.708818 ], [ 21.701257, 47.730461 ], [ 21.633936, 47.732341 ], [ 21.599525, 47.76819 ], [ 21.544169, 47.791981 ], [ 21.561986, 47.88494 ], [ 21.554647, 47.899001 ], [ 21.563131, 47.926297 ], [ 21.558136, 47.931374 ], [ 21.521955, 47.939371 ], [ 21.491997, 47.926306 ], [ 21.326869, 47.920158 ], [ 21.274024, 47.90691 ], [ 21.257698, 47.924013 ], [ 21.195523, 47.956832 ], [ 21.122181, 47.961827 ], [ 21.104723, 47.972751 ], [ 21.084783, 48.006062 ], [ 21.131867, 48.044627 ], [ 21.165825, 48.041441 ], [ 21.174921, 48.028536 ], [ 21.216321, 48.024766 ], [ 21.231468, 48.044626 ], [ 21.256184, 48.055984 ], [ 21.269538, 48.038451 ], [ 21.332036, 48.023935 ], [ 21.355322, 48.032078 ], [ 21.40546, 48.032361 ], [ 21.412332, 48.048788 ], [ 21.431605, 48.046754 ], [ 21.438834, 48.065423 ], [ 21.452873, 48.073528 ], [ 21.437653, 48.082283 ], [ 21.445859, 48.092165 ], [ 21.417217, 48.12014 ], [ 21.427281, 48.134159 ], [ 21.426986, 48.157322 ], [ 21.447197, 48.176281 ], [ 21.469501, 48.169329 ], [ 21.484182, 48.179806 ], [ 21.515564, 48.178769 ], [ 21.537331, 48.195207 ], [ 21.580887, 48.207689 ], [ 21.625957, 48.19401 ], [ 21.723506, 48.190146 ], [ 21.726534, 48.200021 ], [ 21.748506, 48.201697 ], [ 21.763291, 48.193305 ], [ 21.829824, 48.240596 ], [ 21.841784, 48.228708 ], [ 21.85804, 48.238422 ], [ 21.919461, 48.242804 ], [ 22.017398, 48.310029 ], [ 22.059921, 48.299112 ], [ 22.068833, 48.310036 ], [ 22.081821, 48.310889 ], [ 22.08779, 48.326801 ], [ 22.100361, 48.328024 ], [ 22.11917, 48.35236 ], [ 22.121078, 48.378311 ], [ 22.155306, 48.403396 ], [ 22.207558, 48.42421 ], [ 22.261156, 48.408243 ], [ 22.245198, 48.385258 ], [ 22.270398, 48.360916 ], [ 22.315908, 48.351851 ], [ 22.316282, 48.323722 ], [ 22.38189, 48.238287 ], [ 22.40797, 48.248396 ], [ 22.496753, 48.249179 ], [ 22.526515, 48.214741 ], [ 22.567424, 48.193984 ], [ 22.570477, 48.169047 ], [ 22.59342, 48.148391 ], [ 22.598978, 48.106116 ], [ 22.669469, 48.092787 ], [ 22.736983, 48.119204 ], [ 22.768596, 48.11165 ], [ 22.780109, 48.119765 ], [ 22.80806, 48.109653 ], [ 22.824713, 48.114243 ], [ 22.833596, 48.09089 ], [ 22.880372, 48.047771 ], [ 22.841117, 47.989553 ], [ 22.896271, 47.95412 ] ] ] } },
{ "type": "Feature", "properties": { "loc": "HU331" }, "geometry": { "type": "Polygon", "coordinates": [ [ [ 20.065859, 47.015481 ], [ 20.135622, 46.984698 ], [ 20.129487, 46.962588 ], [ 20.107898, 46.952383 ], [ 20.107727, 46.941386 ], [ 20.144816, 46.939218 ], [ 20.157867, 46.921245 ], [ 20.089302, 46.87512 ], [ 20.110237, 46.842068 ], [ 20.05148, 46.838349 ], [ 20.004315, 46.817781 ], [ 20.028017, 46.798787 ], [ 20.036904, 46.802459 ], [ 20.039337, 46.821696 ], [ 20.061163, 46.80639 ], [ 19.97284, 46.728277 ], [ 20.009789, 46.692808 ], [ 19.983058, 46.644787 ], [ 19.992494, 46.622594 ], [ 19.989708, 46.588524 ], [ 19.943737, 46.550958 ], [ 19.887996, 46.576357 ], [ 19.78359, 46.531583 ], [ 19.808236, 46.508238 ], [ 19.849679, 46.508896 ], [ 19.896287, 46.476847 ], [ 19.89905, 46.462471 ], [ 19.885202, 46.444374 ], [ 19.896411, 46.418204 ], [ 19.879547, 46.38687 ], [ 19.857042, 46.374849 ], [ 19.817548, 46.386766 ], [ 19.74722, 46.352455 ], [ 19.71311, 46.360786 ], [ 19.658791, 46.345403 ], [ 19.686005, 46.305984 ], [ 19.641533, 46.262106 ], [ 19.698099, 46.187931 ], [ 19.682152, 46.18183 ], [ 19.659217, 46.186914 ], [ 19.628586, 46.170776 ], [ 19.568929, 46.176544 ], [ 19.535215, 46.153017 ], [ 19.510204, 46.146456 ], [ 19.506928, 46.137925 ], [ 19.521086, 46.118473 ], [ 19.471185, 46.098058 ], [ 19.46193, 46.08025 ], [ 19.415634, 46.047436 ], [ 19.383585, 46.038204 ], [ 19.365507, 46.04926 ], [ 19.35317, 46.047145 ], [ 19.28163, 46.014541 ], [ 19.30271, 45.99155 ], [ 19.157685, 45.996723 ], [ 19.132522, 46.032929 ], [ 19.111045, 46.037573 ], [ 19.070916, 46.001931 ], [ 19.071916, 45.966624 ], [ 19.011857, 45.957742 ], [ 19.000405, 45.926711 ], [ 18.914722, 45.932862 ], [ 18.876208, 45.915928 ], [ 18.865379, 45.918806 ], [ 18.866714, 45.911152 ], [ 18.830271, 45.905206 ], [ 18.807032, 45.930318 ], [ 18.839272, 45.948369 ], [ 18.829774, 45.961045 ], [ 18.864533, 46.020777 ], [ 18.839166, 46.038845 ], [ 18.807897, 46.025716 ], [ 18.776593, 46.025752 ], [ 18.744851, 46.030948 ], [ 18.735507, 46.043357 ], [ 18.769929, 46.092073 ], [ 18.802291, 46.108765 ], [ 18.835216, 46.140588 ], [ 18.845357, 46.182669 ], [ 18.867436, 46.196117 ], [ 18.86817, 46.218735 ], [ 18.835916, 46.203355 ], [ 18.826655, 46.211843 ], [ 18.872136, 46.239051 ], [ 18.86851, 46.267651 ], [ 18.909217, 46.263919 ], [ 18.919923, 46.304003 ], [ 18.899334, 46.336767 ], [ 18.886203, 46.397514 ], [ 18.918864, 46.449093 ], [ 18.922348, 46.469524 ], [ 18.897162, 46.519589 ], [ 18.893337, 46.561703 ], [ 18.863737, 46.597161 ], [ 18.861848, 46.611657 ], [ 18.88422, 46.635452 ], [ 18.96698, 46.655095 ], [ 19.004854, 46.69895 ], [ 18.977606, 46.760202 ], [ 18.926428, 46.82217 ], [ 18.925097, 46.857168 ], [ 18.961149, 46.918124 ], [ 18.964276, 46.939064 ], [ 18.95105, 46.989605 ], [ 18.968601, 47.059057 ], [ 19.075857, 47.039097 ], [ 19.15195, 47.088567 ], [ 19.209134, 47.094521 ], [ 19.236332, 47.126361 ], [ 19.263375, 47.132418 ], [ 19.311384, 47.11883 ], [ 19.340861, 47.095057 ], [ 19.303765, 47.039294 ], [ 19.304474, 47.028675 ], [ 19.319023, 47.018015 ], [ 19.427328, 47.060125 ], [ 19.472206, 47.058662 ], [ 19.509751, 47.114282 ], [ 19.556937, 47.109085 ], [ 19.58399, 47.115862 ], [ 19.616611, 47.085702 ], [ 19.650117, 47.02709 ], [ 19.69674, 46.990626 ], [ 19.777595, 46.952036 ], [ 19.839568, 46.949759 ], [ 19.879071, 46.993053 ], [ 19.97591, 46.966939 ], [ 20.012086, 47.001806 ], [ 20.065859, 47.015481 ] ] ] } },
{ "type": "Feature", "properties": { "loc": "HU332" }, "geometry": { "type": "Polygon", "coordinates": [ [ [ 21.451785, 46.664217 ], [ 21.418405, 46.641302 ], [ 21.406594, 46.62445 ], [ 21.365659, 46.635288 ], [ 21.328185, 46.628609 ], [ 21.315162, 46.61722 ], [ 21.304722, 46.594156 ], [ 21.316258, 46.579576 ], [ 21.27656, 46.53858 ], [ 21.262827, 46.503255 ], [ 21.272784, 46.481651 ], [ 21.298717, 46.471712 ], [ 21.314042, 46.445651 ], [ 21.289101, 46.4057 ], [ 21.230066, 46.412356 ], [ 21.206752, 46.399214 ], [ 21.197695, 46.350076 ], [ 21.177196, 46.331495 ], [ 21.173469, 46.301214 ], [ 21.119377, 46.301184 ], [ 21.101881, 46.265297 ], [ 21.06114, 46.244896 ], [ 21.039025, 46.249134 ], [ 21.021891, 46.264191 ], [ 20.958739, 46.264277 ], [ 20.942619, 46.277786 ], [ 20.913931, 46.264417 ], [ 20.870843, 46.286014 ], [ 20.7756, 46.27591 ], [ 20.753156, 46.292871 ], [ 20.759843, 46.342716 ], [ 20.73561, 46.380383 ], [ 20.699289, 46.378965 ], [ 20.67537, 46.353149 ], [ 20.6292, 46.353145 ], [ 20.580693, 46.364894 ], [ 20.557264, 46.385992 ], [ 20.557559, 46.397765 ], [ 20.578464, 46.41451 ], [ 20.585035, 46.443369 ], [ 20.598985, 46.459926 ], [ 20.60935, 46.520287 ], [ 20.581449, 46.568638 ], [ 20.572383, 46.62701 ], [ 20.575693, 46.664347 ], [ 20.586801, 46.687608 ], [ 20.589343, 46.753816 ], [ 20.55981, 46.773786 ], [ 20.503324, 46.77664 ], [ 20.45561, 46.807474 ], [ 20.424266, 46.80347 ], [ 20.41495, 46.857252 ], [ 20.450413, 46.891512 ], [ 20.50512, 46.894178 ], [ 20.559926, 46.91435 ], [ 20.591236, 46.91636 ], [ 20.64631, 46.903995 ], [ 20.707236, 46.923549 ], [ 20.723696, 46.947309 ], [ 20.705581, 46.957368 ], [ 20.71484, 46.971271 ], [ 20.710815, 47.030926 ], [ 20.748488, 47.048113 ], [ 20.768619, 47.037542 ], [ 20.800463, 47.038184 ], [ 20.835902, 47.058664 ], [ 20.850097, 47.073108 ], [ 20.848111, 47.109652 ], [ 20.860556, 47.124674 ], [ 20.856007, 47.150311 ], [ 20.940369, 47.187774 ], [ 20.967535, 47.222275 ], [ 20.992098, 47.232287 ], [ 21.017528, 47.226328 ], [ 21.052783, 47.192394 ], [ 21.066892, 47.206787 ], [ 21.126343, 47.175307 ], [ 21.204605, 47.165228 ], [ 21.257005, 47.147866 ], [ 21.298321, 47.147844 ], [ 21.304386, 47.114058 ], [ 21.292205, 47.086131 ], [ 21.234953, 47.058415 ], [ 21.236099, 47.023835 ], [ 21.249183, 47.009341 ], [ 21.353912, 46.980518 ], [ 21.412752, 46.975713 ], [ 21.437649, 46.967226 ], [ 21.434076, 46.953291 ], [ 21.485407, 46.944198 ], [ 21.557894, 46.962566 ], [ 21.556659, 46.981838 ], [ 21.568917, 46.999649 ], [ 21.604198, 46.999655 ], [ 21.633278, 47.021751 ], [ 21.675601, 47.017 ], [ 21.684522, 47.003351 ], [ 21.671072, 46.975889 ], [ 21.67637, 46.960852 ], [ 21.637439, 46.934814 ], [ 21.60116, 46.92738 ], [ 21.611773, 46.889779 ], [ 21.598045, 46.864455 ], [ 21.521911, 46.834542 ], [ 21.51604, 46.797861 ], [ 21.486367, 46.765563 ], [ 21.523032, 46.738886 ], [ 21.526476, 46.721874 ], [ 21.491321, 46.68905 ], [ 21.432973, 46.69221 ], [ 21.432709, 46.678316 ], [ 21.451785, 46.664217 ] ] ] } },
{ "type": "Feature", "properties": { "loc": "HU333" }, "geometry": { "type": "Polygon", "coordinates": [ [ [ 19.939508, 46.175647 ], [ 19.814159, 46.130891 ], [ 19.760284, 46.148574 ], [ 19.698099, 46.187931 ], [ 19.641533, 46.262106 ], [ 19.686005, 46.305984 ], [ 19.658791, 46.345403 ], [ 19.71311, 46.360786 ], [ 19.74722, 46.352455 ], [ 19.817548, 46.386766 ], [ 19.857042, 46.374849 ], [ 19.879547, 46.38687 ], [ 19.896411, 46.418204 ], [ 19.885202, 46.444374 ], [ 19.89905, 46.462471 ], [ 19.896287, 46.476847 ], [ 19.849679, 46.508896 ], [ 19.808236, 46.508238 ], [ 19.78359, 46.531583 ], [ 19.887996, 46.576357 ], [ 19.943737, 46.550958 ], [ 19.989708, 46.588524 ], [ 19.992494, 46.622594 ], [ 19.983058, 46.644787 ], [ 20.009789, 46.692808 ], [ 19.97284, 46.728277 ], [ 20.061163, 46.80639 ], [ 20.093902, 46.765298 ], [ 20.113314, 46.783488 ], [ 20.172421, 46.756815 ], [ 20.232514, 46.79776 ], [ 20.263393, 46.791793 ], [ 20.293617, 46.767711 ], [ 20.330634, 46.762803 ], [ 20.355157, 46.783298 ], [ 20.404291, 46.789687 ], [ 20.424266, 46.80347 ], [ 20.45561, 46.807474 ], [ 20.503324, 46.77664 ], [ 20.55981, 46.773786 ], [ 20.589343, 46.753816 ], [ 20.586801, 46.687608 ], [ 20.575693, 46.664347 ], [ 20.572383, 46.62701 ], [ 20.581449, 46.568638 ], [ 20.60935, 46.520287 ], [ 20.598985, 46.459926 ], [ 20.585035, 46.443369 ], [ 20.578464, 46.41451 ], [ 20.557559, 46.397765 ], [ 20.557264, 46.385992 ], [ 20.580693, 46.364894 ], [ 20.6292, 46.353145 ], [ 20.67537, 46.353149 ], [ 20.699289, 46.378965 ], [ 20.73561, 46.380383 ], [ 20.759843, 46.342716 ], [ 20.753156, 46.292871 ], [ 20.7756, 46.27591 ], [ 20.749375, 46.250412 ], [ 20.761239, 46.205256 ], [ 20.727376, 46.207413 ], [ 20.733121, 46.192431 ], [ 20.722386, 46.186586 ], [ 20.714553, 46.16767 ], [ 20.68461, 46.147862 ], [ 20.658096, 46.148342 ], [ 20.63329, 46.129153 ], [ 20.550065, 46.17591 ], [ 20.502557, 46.187704 ], [ 20.488441, 46.166184 ], [ 20.456699, 46.143727 ], [ 20.369143, 46.156022 ], [ 20.352843, 46.167214 ], [ 20.298188, 46.151601 ], [ 20.255396, 46.120053 ], [ 20.183604, 46.157184 ], [ 20.136816, 46.146393 ], [ 20.097805, 46.175326 ], [ 20.061767, 46.146093 ], [ 20.035377, 46.148724 ], [ 20.021918, 46.171879 ], [ 20.00582, 46.176552 ], [ 19.939508, 46.175647 ] ] ] } },
{ "type": "Feature", "properties": { "loc": "HU110" }, "geometry": { "type": "Polygon", "coordinates": [ [ [ 18.932741, 47.571165 ], [ 19.027127, 47.587173 ], [ 19.029542, 47.603346 ], [ 19.042817, 47.608729 ], [ 19.072068, 47.606417 ], [ 19.076648, 47.591573 ], [ 19.100875, 47.61042 ], [ 19.142104, 47.595128 ], [ 19.186109, 47.541628 ], [ 19.243647, 47.53499 ], [ 19.266875, 47.509761 ], [ 19.316163, 47.512148 ], [ 19.330269, 47.461995 ], [ 19.300427, 47.454817 ], [ 19.251026, 47.423197 ], [ 19.229252, 47.420448 ], [ 19.17931, 47.361009 ], [ 19.140417, 47.349576 ], [ 19.097565, 47.379135 ], [ 19.104771, 47.387187 ], [ 19.081641, 47.404647 ], [ 19.044069, 47.385772 ], [ 19.007841, 47.389238 ], [ 18.962521, 47.372736 ], [ 18.952863, 47.389238 ], [ 18.959794, 47.418173 ], [ 18.976042, 47.434599 ], [ 18.979237, 47.462936 ], [ 18.940255, 47.49041 ], [ 18.932741, 47.571165 ] ] ] } },
{ "type": "Feature", "properties": { "loc": "HU120" }, "geometry": { "type": "Polygon", "coordinates": [ [ [ 18.965908, 47.028964 ], [ 18.899433, 47.078248 ], [ 18.873526, 47.148475 ], [ 18.88261, 47.195321 ], [ 18.905626, 47.226681 ], [ 18.918098, 47.271001 ], [ 18.879762, 47.280799 ], [ 18.876968, 47.300767 ], [ 18.861772, 47.319665 ], [ 18.761564, 47.401047 ], [ 18.763554, 47.411084 ], [ 18.788753, 47.428463 ], [ 18.784663, 47.457342 ], [ 18.752634, 47.488988 ], [ 18.725485, 47.497047 ], [ 18.704484, 47.521344 ], [ 18.688434, 47.577067 ], [ 18.776445, 47.639556 ], [ 18.764078, 47.656838 ], [ 18.782414, 47.668729 ], [ 18.82259, 47.6552 ], [ 18.86108, 47.656244 ], [ 18.850631, 47.693255 ], [ 18.857071, 47.712823 ], [ 18.893834, 47.719107 ], [ 18.923746, 47.711843 ], [ 18.93734, 47.720861 ], [ 18.921939, 47.7417 ], [ 18.924198, 47.763785 ], [ 18.901046, 47.801017 ], [ 18.848478, 47.818228 ], [ 18.850361, 47.825974 ], [ 18.8182, 47.850796 ], [ 18.76388, 47.875617 ], [ 18.760652, 47.91765 ], [ 18.774254, 47.952939 ], [ 18.758293, 47.975417 ], [ 18.814255, 47.994801 ], [ 18.823261, 48.039084 ], [ 18.836237, 48.047843 ], [ 18.928392, 48.056832 ], [ 18.957489, 48.029261 ], [ 18.991503, 48.02644 ], [ 19.003732, 48.014196 ], [ 19.00209, 47.994624 ], [ 18.989808, 47.979324 ], [ 18.945372, 47.955663 ], [ 18.944952, 47.94367 ], [ 19.003039, 47.899195 ], [ 19.036834, 47.883572 ], [ 19.049712, 47.862876 ], [ 19.08171, 47.841575 ], [ 19.114488, 47.850073 ], [ 19.181771, 47.84794 ], [ 19.233171, 47.826151 ], [ 19.32178, 47.831533 ], [ 19.35317, 47.819615 ], [ 19.395881, 47.820555 ], [ 19.441084, 47.805221 ], [ 19.418482, 47.773517 ], [ 19.443019, 47.765711 ], [ 19.438031, 47.73347 ], [ 19.479221, 47.689938 ], [ 19.5062, 47.696876 ], [ 19.493714, 47.71306 ], [ 19.539086, 47.743197 ], [ 19.570937, 47.734899 ], [ 19.603046, 47.713146 ], [ 19.595142, 47.68401 ], [ 19.612079, 47.658756 ], [ 19.640656, 47.645463 ], [ 19.66633, 47.588549 ], [ 19.653976, 47.565558 ], [ 19.658553, 47.545398 ], [ 19.702099, 47.519801 ], [ 19.735558, 47.535842 ], [ 19.784585, 47.535055 ], [ 19.752236, 47.485948 ], [ 19.804063, 47.458756 ], [ 19.851307, 47.416122 ], [ 19.959674, 47.368868 ], [ 19.992018, 47.338485 ], [ 20.011907, 47.299289 ], [ 19.995101, 47.254157 ], [ 20.072784, 47.220916 ], [ 20.090817, 47.192919 ], [ 20.090869, 47.180889 ], [ 20.051572, 47.125233 ], [ 20.087925, 47.053987 ], [ 20.106884, 47.034796 ], [ 20.094687, 47.007407 ], [ 20.065859, 47.015481 ], [ 20.012086, 47.001806 ], [ 19.97591, 46.966939 ], [ 19.879071, 46.993053 ], [ 19.839568, 46.949759 ], [ 19.777595, 46.952036 ], [ 19.69674, 46.990626 ], [ 19.650117, 47.02709 ], [ 19.616611, 47.085702 ], [ 19.58399, 47.115862 ], [ 19.556937, 47.109085 ], [ 19.509751, 47.114282 ], [ 19.472206, 47.058662 ], [ 19.427328, 47.060125 ], [ 19.319023, 47.018015 ], [ 19.304474, 47.028675 ], [ 19.303765, 47.039294 ], [ 19.340861, 47.095057 ], [ 19.311384, 47.11883 ], [ 19.263375, 47.132418 ], [ 19.236332, 47.126361 ], [ 19.209134, 47.094521 ], [ 19.15195, 47.088567 ], [ 19.075857, 47.039097 ], [ 18.968601, 47.059057 ], [ 18.965908, 47.028964 ] ], [ [ 18.932741, 47.571165 ], [ 18.940255, 47.49041 ], [ 18.979237, 47.462936 ], [ 18.976042, 47.434599 ], [ 18.959794, 47.418173 ], [ 18.952863, 47.389238 ], [ 18.962521, 47.372736 ], [ 19.007841, 47.389238 ], [ 19.044069, 47.385772 ], [ 19.081641, 47.404647 ], [ 19.104771, 47.387187 ], [ 19.097565, 47.379135 ], [ 19.140417, 47.349576 ], [ 19.17931, 47.361009 ], [ 19.229252, 47.420448 ], [ 19.251026, 47.423197 ], [ 19.300427, 47.454817 ], [ 19.330269, 47.461995 ], [ 19.316163, 47.512148 ], [ 19.266875, 47.509761 ], [ 19.243647, 47.53499 ], [ 19.186109, 47.541628 ], [ 19.142104, 47.595128 ], [ 19.100875, 47.61042 ], [ 19.076648, 47.591573 ], [ 19.072068, 47.606417 ], [ 19.042817, 47.608729 ], [ 19.029542, 47.603346 ], [ 19.027127, 47.587173 ], [ 18.932741, 47.571165 ] ] ] } },
{ "type": "Feature", "properties": { "loc": "HU211" }, "geometry": { "type": "Polygon", "coordinates": [ [ [ 18.965908, 47.028964 ], [ 18.95105, 46.989605 ], [ 18.964276, 46.939064 ], [ 18.961149, 46.918124 ], [ 18.925097, 46.857168 ], [ 18.866541, 46.85 ], [ 18.871516, 46.837169 ], [ 18.863678, 46.824847 ], [ 18.798968, 46.788333 ], [ 18.793864, 46.770744 ], [ 18.717092, 46.755289 ], [ 18.725563, 46.72285 ], [ 18.676391, 46.695794 ], [ 18.643271, 46.688755 ], [ 18.631121, 46.694088 ], [ 18.613671, 46.7441 ], [ 18.574573, 46.76014 ], [ 18.554532, 46.782272 ], [ 18.50975, 46.764619 ], [ 18.507497, 46.747583 ], [ 18.461666, 46.740721 ], [ 18.423684, 46.752537 ], [ 18.419633, 46.788863 ], [ 18.410004, 46.799876 ], [ 18.401485, 46.774794 ], [ 18.379997, 46.787732 ], [ 18.361844, 46.777372 ], [ 18.317156, 46.793294 ], [ 18.301807, 46.814932 ], [ 18.250356, 46.785212 ], [ 18.210898, 46.778161 ], [ 18.200242, 46.811966 ], [ 18.197972, 46.876019 ], [ 18.209805, 46.893211 ], [ 18.177425, 46.94612 ], [ 18.205249, 46.971632 ], [ 18.214443, 46.997935 ], [ 18.249502, 47.019343 ], [ 18.215207, 47.046748 ], [ 18.205329, 47.072926 ], [ 18.230829, 47.094552 ], [ 18.213349, 47.156088 ], [ 18.224163, 47.17582 ], [ 18.221992, 47.215191 ], [ 18.182299, 47.233425 ], [ 18.157413, 47.262182 ], [ 18.107039, 47.250827 ], [ 18.076901, 47.276073 ], [ 18.055957, 47.280169 ], [ 18.048688, 47.301384 ], [ 18.061279, 47.317243 ], [ 18.035719, 47.334342 ], [ 18.081508, 47.360507 ], [ 18.121247, 47.442142 ], [ 18.18355, 47.448452 ], [ 18.196078, 47.472957 ], [ 18.231349, 47.459985 ], [ 18.256699, 47.431253 ], [ 18.315551, 47.403659 ], [ 18.364666, 47.417782 ], [ 18.356145, 47.436038 ], [ 18.360671, 47.447779 ], [ 18.375357, 47.456541 ], [ 18.40079, 47.456132 ], [ 18.432946, 47.485634 ], [ 18.470774, 47.476635 ], [ 18.498115, 47.493434 ], [ 18.523672, 47.492289 ], [ 18.499001, 47.525602 ], [ 18.495522, 47.552832 ], [ 18.533669, 47.555403 ], [ 18.57866, 47.572125 ], [ 18.617382, 47.567114 ], [ 18.688434, 47.577067 ], [ 18.704484, 47.521344 ], [ 18.725485, 47.497047 ], [ 18.752634, 47.488988 ], [ 18.784663, 47.457342 ], [ 18.788753, 47.428463 ], [ 18.763554, 47.411084 ], [ 18.761564, 47.401047 ], [ 18.861772, 47.319665 ], [ 18.876968, 47.300767 ], [ 18.879762, 47.280799 ], [ 18.918098, 47.271001 ], [ 18.905626, 47.226681 ], [ 18.88261, 47.195321 ], [ 18.873526, 47.148475 ], [ 18.899433, 47.078248 ], [ 18.965908, 47.028964 ] ] ] } },
{ "type": "Feature", "properties": { "loc": "HU212" }, "geometry": { "type": "Polygon", "coordinates": [ [ [ 18.688434, 47.577067 ], [ 18.617382, 47.567114 ], [ 18.57866, 47.572125 ], [ 18.533669, 47.555403 ], [ 18.495522, 47.552832 ], [ 18.499001, 47.525602 ], [ 18.523672, 47.492289 ], [ 18.498115, 47.493434 ], [ 18.470774, 47.476635 ], [ 18.432946, 47.485634 ], [ 18.40079, 47.456132 ], [ 18.375357, 47.456541 ], [ 18.360671, 47.447779 ], [ 18.356145, 47.436038 ], [ 18.364666, 47.417782 ], [ 18.315551, 47.403659 ], [ 18.256699, 47.431253 ], [ 18.231349, 47.459985 ], [ 18.196078, 47.472957 ], [ 18.18355, 47.448452 ], [ 18.121247, 47.442142 ], [ 18.081508, 47.360507 ], [ 18.035719, 47.334342 ], [ 17.96608, 47.337184 ], [ 17.945398, 47.357652 ], [ 17.941282, 47.380852 ], [ 17.883268, 47.389238 ], [ 17.887941, 47.431992 ], [ 17.877637, 47.466976 ], [ 17.902009, 47.506833 ], [ 17.892053, 47.539034 ], [ 17.918428, 47.551419 ], [ 17.913504, 47.569183 ], [ 17.925533, 47.607912 ], [ 17.893381, 47.641141 ], [ 17.899491, 47.704707 ], [ 17.893923, 47.739457 ], [ 17.970086, 47.755046 ], [ 18.004382, 47.748139 ], [ 18.080415, 47.756356 ], [ 18.293578, 47.73191 ], [ 18.454687, 47.764282 ], [ 18.493805, 47.754061 ], [ 18.560435, 47.765127 ], [ 18.647723, 47.759532 ], [ 18.716344, 47.784401 ], [ 18.745317, 47.812033 ], [ 18.794084, 47.821384 ], [ 18.848478, 47.818228 ], [ 18.901046, 47.801017 ], [ 18.924198, 47.763785 ], [ 18.921939, 47.7417 ], [ 18.93734, 47.720861 ], [ 18.923746, 47.711843 ], [ 18.893834, 47.719107 ], [ 18.857071, 47.712823 ], [ 18.850631, 47.693255 ], [ 18.86108, 47.656244 ], [ 18.82259, 47.6552 ], [ 18.782414, 47.668729 ], [ 18.764078, 47.656838 ], [ 18.776445, 47.639556 ], [ 18.688434, 47.577067 ] ] ] } },
{ "type": "Feature", "properties": { "loc": "HU213" }, "geometry": { "type": "Polygon", "coordinates": [ [ [ 17.074529, 47.048713 ], [ 17.096955, 47.067153 ], [ 17.146411, 47.075539 ], [ 17.186932, 47.070231 ], [ 17.206006, 47.080848 ], [ 17.198436, 47.15012 ], [ 17.207757, 47.191704 ], [ 17.203772, 47.266556 ], [ 17.224883, 47.303304 ], [ 17.275869, 47.327998 ], [ 17.203644, 47.372731 ], [ 17.198055, 47.398056 ], [ 17.172392, 47.432484 ], [ 17.200079, 47.439034 ], [ 17.289496, 47.431996 ], [ 17.333678, 47.439689 ], [ 17.370212, 47.45408 ], [ 17.401643, 47.477977 ], [ 17.422097, 47.46946 ], [ 17.451295, 47.433811 ], [ 17.469537, 47.42793 ], [ 17.496591, 47.43514 ], [ 17.52587, 47.457579 ], [ 17.558809, 47.449693 ], [ 17.594986, 47.462631 ], [ 17.640232, 47.455474 ], [ 17.693629, 47.467972 ], [ 17.716516, 47.454895 ], [ 17.737996, 47.463856 ], [ 17.780599, 47.399325 ], [ 17.725074, 47.340527 ], [ 17.771241, 47.285392 ], [ 17.787214, 47.315726 ], [ 17.816265, 47.331191 ], [ 17.837659, 47.363629 ], [ 17.883268, 47.389238 ], [ 17.941282, 47.380852 ], [ 17.945398, 47.357652 ], [ 17.96608, 47.337184 ], [ 18.035719, 47.334342 ], [ 18.061279, 47.317243 ], [ 18.048688, 47.301384 ], [ 18.055957, 47.280169 ], [ 18.076901, 47.276073 ], [ 18.107039, 47.250827 ], [ 18.157413, 47.262182 ], [ 18.182299, 47.233425 ], [ 18.221992, 47.215191 ], [ 18.224163, 47.17582 ], [ 18.213349, 47.156088 ], [ 18.230829, 47.094552 ], [ 18.205329, 47.072926 ], [ 18.215207, 47.046748 ], [ 18.249502, 47.019343 ], [ 18.214443, 46.997935 ], [ 18.205249, 46.971632 ], [ 18.164643, 46.995751 ], [ 18.076404, 46.972398 ], [ 17.913954, 46.91747 ], [ 17.908501, 46.893841 ], [ 17.891426, 46.882459 ], [ 17.850375, 46.88184 ], [ 17.496984, 46.75495 ], [ 17.419068, 46.750656 ], [ 17.328268, 46.829735 ], [ 17.332661, 46.859296 ], [ 17.319908, 46.891996 ], [ 17.284351, 46.918351 ], [ 17.23032, 46.923153 ], [ 17.246409, 46.96395 ], [ 17.220793, 46.993412 ], [ 17.206112, 47.002186 ], [ 17.149184, 47.000456 ], [ 17.074529, 47.048713 ] ] ] } },
{ "type": "Feature", "properties": { "loc": "HU221" }, "geometry": { "type": "Polygon", "coordinates": [ [ [ 17.200079, 47.439034 ], [ 17.142773, 47.434415 ], [ 17.120283, 47.417834 ], [ 17.049825, 47.397621 ], [ 17.067661, 47.441369 ], [ 17.051979, 47.457557 ], [ 16.942291, 47.40039 ], [ 16.913854, 47.41725 ], [ 16.881982, 47.416233 ], [ 16.8447, 47.446678 ], [ 16.815037, 47.437146 ], [ 16.777333, 47.440635 ], [ 16.715027, 47.413036 ], [ 16.677655, 47.42115 ], [ 16.64622, 47.446597 ], [ 16.667132, 47.473911 ], [ 16.656143, 47.502403 ], [ 16.692561, 47.513446 ], [ 16.710727, 47.539202 ], [ 16.66705, 47.566515 ], [ 16.669072, 47.602454 ], [ 16.651775, 47.620756 ], [ 16.630627, 47.62688 ], [ 16.578165, 47.619443 ], [ 16.523877, 47.642069 ], [ 16.493465, 47.641743 ], [ 16.421543, 47.665298 ], [ 16.450719, 47.691477 ], [ 16.473647, 47.686544 ], [ 16.541187, 47.716055 ], [ 16.54302, 47.738687 ], [ 16.55329, 47.749271 ], [ 16.611362, 47.758992 ], [ 16.715234, 47.733841 ], [ 16.761058, 47.682348 ], [ 16.82158, 47.684582 ], [ 16.863603, 47.714699 ], [ 16.874414, 47.693895 ], [ 16.886669, 47.689082 ], [ 17.075774, 47.708001 ], [ 17.080727, 47.71541 ], [ 17.056418, 47.788025 ], [ 17.067332, 47.812033 ], [ 17.015625, 47.861053 ], [ 17.088335, 47.87927 ], [ 17.108634, 47.923643 ], [ 17.095582, 47.937218 ], [ 17.113471, 47.959632 ], [ 17.098592, 47.971757 ], [ 17.192526, 48.017915 ], [ 17.241788, 48.022465 ], [ 17.272666, 47.996088 ], [ 17.337728, 47.990399 ], [ 17.402219, 47.946713 ], [ 17.455676, 47.886537 ], [ 17.528049, 47.863488 ], [ 17.565432, 47.818112 ], [ 17.607258, 47.820082 ], [ 17.705437, 47.758992 ], [ 17.778749, 47.740366 ], [ 17.861806, 47.745494 ], [ 17.893923, 47.739457 ], [ 17.899491, 47.704707 ], [ 17.893381, 47.641141 ], [ 17.925533, 47.607912 ], [ 17.913504, 47.569183 ], [ 17.918428, 47.551419 ], [ 17.892053, 47.539034 ], [ 17.902009, 47.506833 ], [ 17.877637, 47.466976 ], [ 17.887941, 47.431992 ], [ 17.883268, 47.389238 ], [ 17.837659, 47.363629 ], [ 17.816265, 47.331191 ], [ 17.787214, 47.315726 ], [ 17.771241, 47.285392 ], [ 17.725074, 47.340527 ], [ 17.780599, 47.399325 ], [ 17.737996, 47.463856 ], [ 17.716516, 47.454895 ], [ 17.693629, 47.467972 ], [ 17.640232, 47.455474 ], [ 17.594986, 47.462631 ], [ 17.558809, 47.449693 ], [ 17.52587, 47.457579 ], [ 17.496591, 47.43514 ], [ 17.469537, 47.42793 ], [ 17.451295, 47.433811 ], [ 17.422097, 47.46946 ], [ 17.401643, 47.477977 ], [ 17.370212, 47.45408 ], [ 17.333678, 47.439689 ], [ 17.289496, 47.431996 ], [ 17.200079, 47.439034 ] ] ] } },
{ "type": "Feature", "properties": { "loc": "HU222" }, "geometry": { "type": "Polygon", "coordinates": [ [ [ 16.370794, 46.722243 ], [ 16.357302, 46.719229 ], [ 16.322681, 46.754515 ], [ 16.327073, 46.775466 ], [ 16.312996, 46.783087 ], [ 16.31552, 46.796557 ], [ 16.338778, 46.807034 ], [ 16.348099, 46.833016 ], [ 16.341557, 46.843376 ], [ 16.285082, 46.872482 ], [ 16.240818, 46.875048 ], [ 16.151949, 46.85473 ], [ 16.113849, 46.869068 ], [ 16.17612, 46.908274 ], [ 16.199512, 46.936797 ], [ 16.224532, 46.940921 ], [ 16.271695, 46.96654 ], [ 16.292355, 47.005917 ], [ 16.332521, 46.999119 ], [ 16.360317, 47.006892 ], [ 16.434337, 46.995566 ], [ 16.489696, 47.002318 ], [ 16.459789, 47.032854 ], [ 16.506483, 47.057446 ], [ 16.479391, 47.075938 ], [ 16.47242, 47.092165 ], [ 16.521353, 47.133251 ], [ 16.506588, 47.146716 ], [ 16.461554, 47.147534 ], [ 16.453546, 47.176991 ], [ 16.42648, 47.197449 ], [ 16.443553, 47.242343 ], [ 16.472292, 47.261664 ], [ 16.481567, 47.283901 ], [ 16.465031, 47.326641 ], [ 16.433762, 47.352918 ], [ 16.454175, 47.363546 ], [ 16.447688, 47.402477 ], [ 16.454107, 47.41008 ], [ 16.481152, 47.408116 ], [ 16.501158, 47.39356 ], [ 16.518991, 47.40911 ], [ 16.569427, 47.406765 ], [ 16.64622, 47.446597 ], [ 16.677655, 47.42115 ], [ 16.715027, 47.413036 ], [ 16.777333, 47.440635 ], [ 16.815037, 47.437146 ], [ 16.8447, 47.446678 ], [ 16.881982, 47.416233 ], [ 16.913854, 47.41725 ], [ 16.942291, 47.40039 ], [ 17.051979, 47.457557 ], [ 17.067661, 47.441369 ], [ 17.049825, 47.397621 ], [ 17.120283, 47.417834 ], [ 17.142773, 47.434415 ], [ 17.172392, 47.432484 ], [ 17.198055, 47.398056 ], [ 17.203644, 47.372731 ], [ 17.275869, 47.327998 ], [ 17.224883, 47.303304 ], [ 17.203772, 47.266556 ], [ 17.207757, 47.191704 ], [ 17.198436, 47.15012 ], [ 17.206006, 47.080848 ], [ 17.186932, 47.070231 ], [ 17.146411, 47.075539 ], [ 17.096955, 47.067153 ], [ 17.074529, 47.048713 ], [ 17.065104, 47.027665 ], [ 17.030754, 47.038192 ], [ 17.009388, 47.034933 ], [ 17.011069, 46.998291 ], [ 16.981552, 46.964101 ], [ 16.933473, 46.96227 ], [ 16.905371, 46.972145 ], [ 16.831444, 46.976638 ], [ 16.774223, 46.928223 ], [ 16.685324, 46.934747 ], [ 16.631497, 46.922081 ], [ 16.555441, 46.843308 ], [ 16.506861, 46.831122 ], [ 16.489258, 46.79904 ], [ 16.441264, 46.779881 ], [ 16.401272, 46.787271 ], [ 16.379432, 46.779343 ], [ 16.388505, 46.750377 ], [ 16.370794, 46.722243 ] ] ] } },
{ "type": "Feature", "properties": { "loc": "HU223" }, "geometry": { "type": "Polygon", "coordinates": [ [ [ 16.659136, 46.460061 ], [ 16.533143, 46.502018 ], [ 16.528549, 46.529949 ], [ 16.511157, 46.561019 ], [ 16.487399, 46.565713 ], [ 16.445398, 46.608826 ], [ 16.392087, 46.637476 ], [ 16.392563, 46.659238 ], [ 16.421226, 46.663564 ], [ 16.424264, 46.692171 ], [ 16.374143, 46.702483 ], [ 16.370794, 46.722243 ], [ 16.388505, 46.750377 ], [ 16.379432, 46.779343 ], [ 16.401272, 46.787271 ], [ 16.441264, 46.779881 ], [ 16.489258, 46.79904 ], [ 16.506861, 46.831122 ], [ 16.555441, 46.843308 ], [ 16.631497, 46.922081 ], [ 16.685324, 46.934747 ], [ 16.774223, 46.928223 ], [ 16.831444, 46.976638 ], [ 16.905371, 46.972145 ], [ 16.933473, 46.96227 ], [ 16.981552, 46.964101 ], [ 17.011069, 46.998291 ], [ 17.009388, 47.034933 ], [ 17.030754, 47.038192 ], [ 17.065104, 47.027665 ], [ 17.074529, 47.048713 ], [ 17.149184, 47.000456 ], [ 17.206112, 47.002186 ], [ 17.220793, 46.993412 ], [ 17.246409, 46.96395 ], [ 17.23032, 46.923153 ], [ 17.284351, 46.918351 ], [ 17.319908, 46.891996 ], [ 17.332661, 46.859296 ], [ 17.328268, 46.829735 ], [ 17.419068, 46.750656 ], [ 17.362033, 46.732302 ], [ 17.273106, 46.732122 ], [ 17.254665, 46.687008 ], [ 17.222967, 46.670001 ], [ 17.215679, 46.608298 ], [ 17.224549, 46.512408 ], [ 17.191095, 46.481739 ], [ 17.186925, 46.432113 ], [ 17.145202, 46.42689 ], [ 17.131142, 46.407461 ], [ 17.092347, 46.418725 ], [ 17.069522, 46.403347 ], [ 17.039453, 46.413498 ], [ 17.03203, 46.396457 ], [ 17.057409, 46.345248 ], [ 17.041082, 46.332165 ], [ 17.035849, 46.315924 ], [ 17.02065, 46.308418 ], [ 16.986517, 46.313501 ], [ 16.943025, 46.293679 ], [ 16.930763, 46.315893 ], [ 16.876044, 46.320602 ], [ 16.875618, 46.336656 ], [ 16.833868, 46.370379 ], [ 16.807115, 46.380491 ], [ 16.758093, 46.384162 ], [ 16.733264, 46.398138 ], [ 16.716105, 46.396089 ], [ 16.659136, 46.460061 ] ] ] } },
{ "type": "Feature", "properties": { "loc": "HU231" }, "geometry": { "type": "Polygon", "coordinates": [ [ [ 18.802291, 46.108765 ], [ 18.769929, 46.092073 ], [ 18.735507, 46.043357 ], [ 18.744851, 46.030948 ], [ 18.776593, 46.025752 ], [ 18.807897, 46.025716 ], [ 18.839166, 46.038845 ], [ 18.864533, 46.020777 ], [ 18.829774, 45.961045 ], [ 18.839272, 45.948369 ], [ 18.807032, 45.930318 ], [ 18.821306, 45.914383 ], [ 18.80888, 45.88455 ], [ 18.797813, 45.879263 ], [ 18.703232, 45.916665 ], [ 18.662106, 45.91252 ], [ 18.659281, 45.89773 ], [ 18.644605, 45.888114 ], [ 18.650849, 45.87375 ], [ 18.630366, 45.87032 ], [ 18.6187, 45.839856 ], [ 18.57782, 45.81384 ], [ 18.572741, 45.802727 ], [ 18.518622, 45.784662 ], [ 18.493122, 45.793138 ], [ 18.479918, 45.769393 ], [ 18.450058, 45.763065 ], [ 18.442148, 45.73928 ], [ 18.405751, 45.741721 ], [ 18.38783, 45.762011 ], [ 18.370053, 45.768487 ], [ 18.338053, 45.750176 ], [ 18.24768, 45.761854 ], [ 18.226809, 45.77815 ], [ 18.190232, 45.78488 ], [ 18.168014, 45.778386 ], [ 18.127891, 45.788126 ], [ 18.101821, 45.7688 ], [ 18.080887, 45.765832 ], [ 17.997297, 45.793728 ], [ 17.91209, 45.79078 ], [ 17.86317, 45.770739 ], [ 17.824871, 45.806236 ], [ 17.759485, 45.814431 ], [ 17.73862, 45.828783 ], [ 17.670644, 45.836494 ], [ 17.651499, 45.847835 ], [ 17.677682, 45.868581 ], [ 17.723821, 45.866571 ], [ 17.731835, 45.874516 ], [ 17.720246, 45.915876 ], [ 17.685697, 45.925867 ], [ 17.672113, 45.944319 ], [ 17.658099, 45.946553 ], [ 17.653992, 45.936989 ], [ 17.645485, 45.937988 ], [ 17.630471, 45.983534 ], [ 17.652545, 46.003157 ], [ 17.630812, 46.04372 ], [ 17.673966, 46.071197 ], [ 17.677696, 46.087943 ], [ 17.668746, 46.101331 ], [ 17.684045, 46.110576 ], [ 17.684281, 46.144921 ], [ 17.705041, 46.191704 ], [ 17.72391, 46.205909 ], [ 17.72029, 46.226692 ], [ 17.732527, 46.229758 ], [ 17.762044, 46.202255 ], [ 17.77498, 46.204522 ], [ 17.79084, 46.223595 ], [ 17.838231, 46.209195 ], [ 17.921567, 46.228489 ], [ 17.931183, 46.242034 ], [ 17.936353, 46.285578 ], [ 17.94918, 46.300831 ], [ 17.993867, 46.308358 ], [ 18.052896, 46.295814 ], [ 18.093863, 46.299578 ], [ 18.116294, 46.290314 ], [ 18.119876, 46.316062 ], [ 18.157843, 46.319826 ], [ 18.193884, 46.334631 ], [ 18.193554, 46.396968 ], [ 18.31695, 46.413073 ], [ 18.341312, 46.400217 ], [ 18.351983, 46.363987 ], [ 18.384023, 46.344603 ], [ 18.375646, 46.321037 ], [ 18.379043, 46.297518 ], [ 18.4157, 46.279343 ], [ 18.401766, 46.246696 ], [ 18.369624, 46.229666 ], [ 18.370128, 46.220996 ], [ 18.388309, 46.220307 ], [ 18.443796, 46.245572 ], [ 18.47011, 46.263606 ], [ 18.482824, 46.288803 ], [ 18.500369, 46.290312 ], [ 18.536992, 46.269576 ], [ 18.535227, 46.232078 ], [ 18.562702, 46.220201 ], [ 18.587513, 46.188902 ], [ 18.617501, 46.183411 ], [ 18.691509, 46.127253 ], [ 18.746888, 46.112196 ], [ 18.802291, 46.108765 ] ] ] } }
]
}
