{
"type": "FeatureCollection",
"name": "regions_IE",
"crs": { "type": "name", "properties": { "name": "urn:ogc:def:crs:OGC:1.3:CRS84" } },
"features": [
{ "type": "Feature", "properties": { "loc": "IE04" }, "geometry": { "type": "MultiPolygon", "coordinates": [ [ [ [ -7.703411, 54.608288 ], [ -7.786456, 54.58086 ], [ -7.850035, 54.536827 ], [ -7.937038, 54.534278 ], [ -7.999314, 54.543801 ], [ -8.048482, 54.490078 ], [ -8.16023, 54.464765 ], [ -8.149255, 54.451175 ], [ -8.151424, 54.436908 ], [ -8.097684, 54.405391 ], [ -8.054375, 54.367982 ], [ -8.002792, 54.355553 ], [ -7.951698, 54.308769 ], [ -7.872486, 54.290338 ], [ -7.85462, 54.222321 ], [ -7.845706, 54.213515 ], [ -7.813182, 54.20274 ], [ -7.692732, 54.204695 ], [ -7.674049, 54.184721 ], [ -7.632595, 54.170183 ], [ -7.612389, 54.146029 ], [ -7.578668, 54.139745 ], [ -7.554733, 54.124658 ], [ -7.525894, 54.133444 ], [ -7.481296, 54.12388 ], [ -7.450347, 54.147811 ], [ -7.413682, 54.155023 ], [ -7.421016, 54.140019 ], [ -7.381919, 54.138813 ], [ -7.388001, 54.123929 ], [ -7.361841, 54.129111 ], [ -7.318663, 54.116369 ], [ -7.280684, 54.124362 ], [ -7.256038, 54.154756 ], [ -7.250752, 54.171229 ], [ -7.256826, 54.188145 ], [ -7.239411, 54.205863 ], [ -7.147418, 54.227412 ], [ -7.148216, 54.257348 ], [ -7.174557, 54.273562 ], [ -7.177051, 54.285518 ], [ -7.208331, 54.298746 ], [ -7.180518, 54.313941 ], [ -7.187971, 54.336077 ], [ -7.150912, 54.338152 ], [ -7.116255, 54.352476 ], [ -7.060525, 54.404978 ], [ -7.028071, 54.418112 ], [ -6.922943, 54.378535 ], [ -6.902266, 54.353723 ], [ -6.870294, 54.336077 ], [ -6.854628, 54.291136 ], [ -6.874565, 54.278118 ], [ -6.832253, 54.262826 ], [ -6.814943, 54.226113 ], [ -6.794335, 54.210012 ], [ -6.737425, 54.183784 ], [ -6.696959, 54.199402 ], [ -6.643909, 54.180019 ], [ -6.633334, 54.151172 ], [ -6.657432, 54.118561 ], [ -6.649058, 54.099479 ], [ -6.6626, 54.069901 ], [ -6.627767, 54.041656 ], [ -6.594991, 54.044674 ], [ -6.555656, 54.009438 ], [ -6.556884, 53.987806 ], [ -6.571571, 53.971093 ], [ -6.618169, 53.98181 ], [ -6.654096, 53.962237 ], [ -6.656118, 53.940934 ], [ -6.632612, 53.928515 ], [ -6.654102, 53.914915 ], [ -6.703079, 53.902662 ], [ -6.730684, 53.914777 ], [ -6.760951, 53.91584 ], [ -6.782256, 53.910114 ], [ -6.793036, 53.888827 ], [ -6.825894, 53.895813 ], [ -6.866819, 53.876074 ], [ -6.929337, 53.891637 ], [ -6.930489, 53.874067 ], [ -6.968806, 53.865504 ], [ -6.965732, 53.849162 ], [ -6.91852, 53.814599 ], [ -6.937649, 53.796076 ], [ -6.937155, 53.78434 ], [ -6.964487, 53.788467 ], [ -6.976948, 53.77627 ], [ -6.994857, 53.77733 ], [ -7.007971, 53.767167 ], [ -7.098044, 53.776257 ], [ -7.113483, 53.790334 ], [ -7.148545, 53.800626 ], [ -7.19921, 53.791586 ], [ -7.225871, 53.772761 ], [ -7.272969, 53.781209 ], [ -7.307607, 53.810708 ], [ -7.401353, 53.779473 ], [ -7.470128, 53.809552 ], [ -7.475309, 53.847657 ], [ -7.493758, 53.858039 ], [ -7.579766, 53.853373 ], [ -7.57147, 53.876046 ], [ -7.554712, 53.88499 ], [ -7.555699, 53.900203 ], [ -7.57821, 53.906096 ], [ -7.608657, 53.935629 ], [ -7.644748, 53.939306 ], [ -7.732087, 53.880886 ], [ -7.773647, 53.865512 ], [ -7.774234, 53.84694 ], [ -7.791331, 53.81766 ], [ -7.832507, 53.813537 ], [ -7.856484, 53.828614 ], [ -7.867673, 53.810413 ], [ -7.886822, 53.824356 ], [ -7.918767, 53.821486 ], [ -7.90657, 53.794482 ], [ -7.879494, 53.775809 ], [ -7.890261, 53.758429 ], [ -7.921693, 53.736394 ], [ -7.943926, 53.734654 ], [ -7.951891, 53.714388 ], [ -7.981863, 53.701169 ], [ -7.989914, 53.675754 ], [ -8.03043, 53.646687 ], [ -8.035391, 53.612586 ], [ -7.977421, 53.542764 ], [ -7.956669, 53.483707 ], [ -7.964235, 53.453526 ], [ -7.955528, 53.43294 ], [ -7.962734, 53.421631 ], [ -7.924906, 53.393865 ], [ -7.913879, 53.372109 ], [ -7.948138, 53.341142 ], [ -8.023551, 53.319601 ], [ -8.028534, 53.30026 ], [ -8.052033, 53.278399 ], [ -8.023848, 53.254174 ], [ -7.974627, 53.232851 ], [ -7.969802, 53.223427 ], [ -7.976764, 53.207918 ], [ -7.994913, 53.194978 ], [ -8.049885, 53.192426 ], [ -8.081456, 53.166884 ], [ -8.124429, 53.158263 ], [ -8.149956, 53.141917 ], [ -8.219074, 53.071123 ], [ -8.263572, 53.054648 ], [ -8.278951, 53.021493 ], [ -8.31227, 52.991689 ], [ -8.355753, 52.976034 ], [ -8.40974, 52.991036 ], [ -8.446624, 52.976542 ], [ -8.497731, 52.986844 ], [ -8.527801, 53.018131 ], [ -8.566483, 53.038881 ], [ -8.630438, 53.040772 ], [ -8.719894, 53.022904 ], [ -8.783382, 52.976968 ], [ -8.836675, 52.986495 ], [ -8.860957, 52.973506 ], [ -8.880636, 52.979848 ], [ -8.891692, 52.995465 ], [ -8.889462, 53.021492 ], [ -8.900567, 53.061778 ], [ -9.012823, 53.107941 ], [ -9.025861, 53.129803 ], [ -9.009308, 53.140817 ], [ -9.002619, 53.16431 ], [ -8.952141, 53.165096 ], [ -8.93991, 53.180387 ], [ -8.93704, 53.20529 ], [ -8.97353, 53.233463 ], [ -8.972378, 53.264605 ], [ -9.034373, 53.26668 ], [ -9.156997, 53.248821 ], [ -9.502918, 53.228796 ], [ -9.537381, 53.243281 ], [ -9.561054, 53.267225 ], [ -9.59243, 53.250878 ], [ -9.611624, 53.255908 ], [ -9.617215, 53.273168 ], [ -9.610149, 53.304478 ], [ -9.579494, 53.346342 ], [ -9.592194, 53.36001 ], [ -9.621215, 53.346222 ], [ -9.655027, 53.37298 ], [ -9.674192, 53.352694 ], [ -9.695289, 53.348499 ], [ -9.744158, 53.315605 ], [ -9.775509, 53.308767 ], [ -9.830841, 53.311848 ], [ -9.851537, 53.300923 ], [ -9.879303, 53.324169 ], [ -9.883217, 53.343729 ], [ -9.867835, 53.364699 ], [ -9.823362, 53.386706 ], [ -9.823154, 53.399584 ], [ -9.887903, 53.402584 ], [ -9.97644, 53.380709 ], [ -10.06939, 53.411347 ], [ -10.134363, 53.417972 ], [ -10.127736, 53.43929 ], [ -10.085785, 53.450284 ], [ -10.074733, 53.469761 ], [ -10.088616, 53.49158 ], [ -10.15392, 53.52887 ], [ -10.161945, 53.540792 ], [ -10.155801, 53.549675 ], [ -10.097021, 53.57098 ], [ -10.01064, 53.563696 ], [ -10.007663, 53.573393 ], [ -10.022193, 53.593179 ], [ -10.01331, 53.602506 ], [ -9.932911, 53.602217 ], [ -9.853265, 53.615981 ], [ -9.905813, 53.675431 ], [ -9.90639, 53.707113 ], [ -9.880216, 53.756484 ], [ -9.780513, 53.777827 ], [ -9.615397, 53.782962 ], [ -9.585089, 53.798772 ], [ -9.600071, 53.828446 ], [ -9.58604, 53.866371 ], [ -9.610756, 53.891785 ], [ -9.754045, 53.89884 ], [ -9.861931, 53.872161 ], [ -9.913424, 53.880019 ], [ -9.917217, 53.909889 ], [ -9.897088, 53.940787 ], [ -9.819934, 53.955167 ], [ -9.851766, 53.979818 ], [ -9.887144, 54.034058 ], [ -9.866247, 54.090867 ], [ -9.884827, 54.091602 ], [ -9.921349, 54.074105 ], [ -9.962189, 54.08137 ], [ -9.965011, 54.103388 ], [ -9.935997, 54.138405 ], [ -9.94994, 54.188087 ], [ -9.98362, 54.208771 ], [ -10.005844, 54.206314 ], [ -10.06372, 54.161312 ], [ -10.083333, 54.102583 ], [ -10.111666, 54.108924 ], [ -10.11274, 54.142229 ], [ -10.076243, 54.207954 ], [ -10.072043, 54.250125 ], [ -10.056862, 54.271044 ], [ -9.969611, 54.28548 ], [ -9.923372, 54.263573 ], [ -9.922331, 54.229632 ], [ -9.902555, 54.222944 ], [ -9.880723, 54.233416 ], [ -9.858479, 54.265559 ], [ -9.833335, 54.284092 ], [ -9.837554, 54.318172 ], [ -9.801164, 54.334781 ], [ -9.404577, 54.30367 ], [ -9.321831, 54.317234 ], [ -9.278054, 54.308334 ], [ -9.24673, 54.280018 ], [ -9.218581, 54.27201 ], [ -9.202472, 54.21543 ], [ -9.164056, 54.193976 ], [ -9.132258, 54.16236 ], [ -9.11395, 54.209195 ], [ -9.020945, 54.291534 ], [ -8.936767, 54.289209 ], [ -8.833326, 54.260019 ], [ -8.766443, 54.271906 ], [ -8.678647, 54.267887 ], [ -8.598915, 54.223789 ], [ -8.571974, 54.22098 ], [ -8.571045, 54.232123 ], [ -8.601659, 54.272394 ], [ -8.586742, 54.281343 ], [ -8.52411, 54.287514 ], [ -8.527223, 54.298212 ], [ -8.550469, 54.313386 ], [ -8.538837, 54.327113 ], [ -8.580638, 54.338941 ], [ -8.642569, 54.33334 ], [ -8.656455, 54.346895 ], [ -8.651865, 54.359975 ], [ -8.517328, 54.413519 ], [ -8.455947, 54.459412 ], [ -8.382859, 54.464347 ], [ -8.27392, 54.492471 ], [ -8.205813, 54.572814 ], [ -8.142434, 54.618434 ], [ -8.137695, 54.637113 ], [ -8.268047, 54.615282 ], [ -8.302813, 54.634774 ], [ -8.370795, 54.613796 ], [ -8.425819, 54.627501 ], [ -8.463563, 54.61788 ], [ -8.505307, 54.626005 ], [ -8.596, 54.61573 ], [ -8.668908, 54.625875 ], [ -8.753939, 54.654683 ], [ -8.784294, 54.685048 ], [ -8.779656, 54.697996 ], [ -8.729905, 54.73624 ], [ -8.662363, 54.765223 ], [ -8.55331, 54.772285 ], [ -8.48089, 54.786405 ], [ -8.512667, 54.830386 ], [ -8.410995, 54.852557 ], [ -8.352295, 54.882031 ], [ -8.357028, 54.894135 ], [ -8.397425, 54.897102 ], [ -8.434716, 54.916384 ], [ -8.436348, 54.942137 ], [ -8.404486, 54.955814 ], [ -8.431928, 54.999978 ], [ -8.417317, 55.025306 ], [ -8.39229, 55.030285 ], [ -8.341253, 55.059791 ], [ -8.280908, 55.142891 ], [ -8.134836, 55.140974 ], [ -7.980233, 55.209754 ], [ -7.863907, 55.150949 ], [ -7.8441, 55.168892 ], [ -7.855951, 55.204063 ], [ -7.843172, 55.224908 ], [ -7.643388, 55.263436 ], [ -7.618052, 55.23726 ], [ -7.606104, 55.198539 ], [ -7.569026, 55.168064 ], [ -7.535261, 55.121446 ], [ -7.550562, 55.094684 ], [ -7.607432, 55.059694 ], [ -7.583022, 55.035967 ], [ -7.63434, 54.991333 ], [ -7.638296, 54.981537 ], [ -7.632089, 54.977743 ], [ -7.521531, 55.031707 ], [ -7.509327, 55.071503 ], [ -7.475278, 55.087251 ], [ -7.476249, 55.128778 ], [ -7.533629, 55.195352 ], [ -7.535129, 55.225236 ], [ -7.508221, 55.275574 ], [ -7.421888, 55.288601 ], [ -7.359359, 55.315086 ], [ -7.352102, 55.334913 ], [ -7.357746, 55.368958 ], [ -7.208766, 55.345277 ], [ -7.134807, 55.295348 ], [ -6.983278, 55.257606 ], [ -6.94842, 55.238755 ], [ -6.980028, 55.203672 ], [ -7.158532, 55.143366 ], [ -7.256068, 55.067035 ], [ -7.288442, 55.051857 ], [ -7.348739, 55.045492 ], [ -7.390325, 55.018305 ], [ -7.405781, 54.949642 ], [ -7.445469, 54.923837 ], [ -7.449488, 54.867337 ], [ -7.484466, 54.826811 ], [ -7.539319, 54.794015 ], [ -7.549746, 54.746644 ], [ -7.641523, 54.747393 ], [ -7.749423, 54.708833 ], [ -7.82988, 54.731521 ], [ -7.911491, 54.693027 ], [ -7.900203, 54.66639 ], [ -7.850035, 54.638634 ], [ -7.809557, 54.637917 ], [ -7.752427, 54.622994 ], [ -7.714067, 54.628022 ], [ -7.703411, 54.608288 ] ] ], [ [ [ -7.286145, 54.140204 ], [ -7.292816, 54.131596 ], [ -7.312226, 54.130033 ], [ -7.338046, 54.145819 ], [ -7.310033, 54.166133 ], [ -7.290676, 54.170581 ], [ -7.281531, 54.16643 ], [ -7.295404, 54.147493 ], [ -7.286145, 54.140204 ] ] ], [ [ [ -8.132003, 55.162438 ], [ -8.149876, 55.14826 ], [ -8.148707, 55.163589 ], [ -8.132003, 55.162438 ] ] ], [ [ [ -8.155944, 55.194287 ], [ -8.158645, 55.181581 ], [ -8.173685, 55.194303 ], [ -8.163851, 55.202055 ], [ -8.155944, 55.194287 ] ] ], [ [ [ -8.162915, 55.171575 ], [ -8.176642, 55.169131 ], [ -8.18633, 55.178345 ], [ -8.178982, 55.184405 ], [ -8.162915, 55.171575 ] ] ], [ [ [ -8.222653, 55.270753 ], [ -8.205053, 55.258928 ], [ -8.213744, 55.253947 ], [ -8.225492, 55.264734 ], [ -8.252684, 55.268189 ], [ -8.222653, 55.270753 ] ] ], [ [ [ -8.324978, 55.104394 ], [ -8.33534, 55.097166 ], [ -8.349352, 55.104013 ], [ -8.34156, 55.111968 ], [ -8.324978, 55.104394 ] ] ], [ [ [ -8.360492, 55.095463 ], [ -8.352357, 55.083933 ], [ -8.373558, 55.084162 ], [ -8.379942, 55.092269 ], [ -8.360492, 55.095463 ] ] ], [ [ [ -8.426784, 54.586593 ], [ -8.441103, 54.573037 ], [ -8.453221, 54.57468 ], [ -8.443382, 54.588324 ], [ -8.426784, 54.586593 ] ] ], [ [ [ -8.4393, 55.052184 ], [ -8.452306, 55.04771 ], [ -8.462934, 55.057398 ], [ -8.448144, 55.062157 ], [ -8.4393, 55.052184 ] ] ], [ [ [ -8.446174, 54.97009 ], [ -8.468037, 54.974345 ], [ -8.460865, 54.990868 ], [ -8.454014, 54.988959 ], [ -8.446174, 54.97009 ] ] ], [ [ [ -8.537907, 55.021668 ], [ -8.49554, 55.002133 ], [ -8.487889, 54.973582 ], [ -8.567536, 54.976624 ], [ -8.559537, 54.984184 ], [ -8.563071, 54.994173 ], [ -8.547717, 55.001797 ], [ -8.556771, 55.009256 ], [ -8.537907, 55.021668 ] ] ], [ [ [ -8.578284, 54.300138 ], [ -8.585492, 54.288666 ], [ -8.594993, 54.289756 ], [ -8.598238, 54.300357 ], [ -8.578284, 54.300138 ] ] ], [ [ [ -8.649564, 54.435993 ], [ -8.672128, 54.426951 ], [ -8.676563, 54.432784 ], [ -8.649564, 54.435993 ] ] ], [ [ [ -9.016034, 53.21739 ], [ -9.024111, 53.210516 ], [ -9.037467, 53.218774 ], [ -9.022994, 53.227386 ], [ -9.016034, 53.21739 ] ] ], [ [ [ -9.132849, 54.198172 ], [ -9.148148, 54.195942 ], [ -9.15561, 54.203894 ], [ -9.142399, 54.210451 ], [ -9.132849, 54.198172 ] ] ], [ [ [ -9.504518, 53.055901 ], [ -9.526686, 53.04566 ], [ -9.552903, 53.052075 ], [ -9.529722, 53.067882 ], [ -9.504518, 53.055901 ] ] ], [ [ [ -9.580545, 53.071138 ], [ -9.607008, 53.065552 ], [ -9.619159, 53.068498 ], [ -9.597455, 53.097928 ], [ -9.566018, 53.098997 ], [ -9.562062, 53.086982 ], [ -9.580545, 53.071138 ] ] ], [ [ [ -9.623218, 53.830593 ], [ -9.63642, 53.823476 ], [ -9.64586, 53.829468 ], [ -9.630704, 53.839799 ], [ -9.623218, 53.830593 ] ] ], [ [ [ -9.627582, 53.315451 ], [ -9.637163, 53.308214 ], [ -9.650591, 53.313278 ], [ -9.634291, 53.324268 ], [ -9.627582, 53.315451 ] ] ], [ [ [ -9.684759, 53.309929 ], [ -9.643752, 53.303893 ], [ -9.631868, 53.295338 ], [ -9.684033, 53.28717 ], [ -9.690654, 53.279748 ], [ -9.693015, 53.290523 ], [ -9.71262, 53.297815 ], [ -9.684759, 53.309929 ] ] ], [ [ [ -9.764336, 53.147247 ], [ -9.747765, 53.134922 ], [ -9.663628, 53.130989 ], [ -9.668681, 53.112984 ], [ -9.663028, 53.107941 ], [ -9.63334, 53.105781 ], [ -9.640033, 53.092182 ], [ -9.650972, 53.090084 ], [ -9.819568, 53.141307 ], [ -9.807824, 53.149882 ], [ -9.764336, 53.147247 ] ] ], [ [ [ -9.649855, 53.230694 ], [ -9.700724, 53.228025 ], [ -9.713987, 53.239251 ], [ -9.709313, 53.252726 ], [ -9.71854, 53.259798 ], [ -9.658448, 53.282433 ], [ -9.650776, 53.276541 ], [ -9.643666, 53.241047 ], [ -9.649855, 53.230694 ] ] ], [ [ [ -9.653034, 53.315564 ], [ -9.675425, 53.314682 ], [ -9.677899, 53.320399 ], [ -9.659298, 53.32615 ], [ -9.653034, 53.315564 ] ] ], [ [ [ -9.706387, 53.275681 ], [ -9.717103, 53.269793 ], [ -9.724949, 53.285162 ], [ -9.715564, 53.286168 ], [ -9.706387, 53.275681 ] ] ], [ [ [ -9.723043, 53.247073 ], [ -9.723043, 53.22988 ], [ -9.757267, 53.235697 ], [ -9.76225, 53.241937 ], [ -9.750754, 53.252227 ], [ -9.763171, 53.255973 ], [ -9.764161, 53.268057 ], [ -9.75173, 53.271094 ], [ -9.749745, 53.258469 ], [ -9.723043, 53.247073 ] ] ], [ [ [ -9.888737, 54.001765 ], [ -9.892391, 53.988847 ], [ -9.916369, 53.98547 ], [ -9.923685, 53.994994 ], [ -9.888737, 54.001765 ] ] ], [ [ [ -9.921111, 53.365256 ], [ -9.934105, 53.362653 ], [ -9.93571, 53.374604 ], [ -9.920886, 53.379061 ], [ -9.921111, 53.365256 ] ] ], [ [ [ -9.972757, 54.028333 ], [ -9.9315, 53.997 ], [ -9.956253, 53.988463 ], [ -9.950431, 53.957209 ], [ -9.922999, 53.962898 ], [ -9.933155, 53.936209 ], [ -9.924674, 53.929612 ], [ -9.934151, 53.917107 ], [ -9.946409, 53.915969 ], [ -9.936971, 53.897497 ], [ -9.947962, 53.878395 ], [ -9.944292, 53.857295 ], [ -10.000467, 53.896682 ], [ -9.993617, 53.902715 ], [ -10.018941, 53.92021 ], [ -10.053967, 53.917151 ], [ -10.045196, 53.958203 ], [ -10.051773, 53.96462 ], [ -10.073939, 53.973192 ], [ -10.116211, 53.961527 ], [ -10.127304, 53.973628 ], [ -10.154799, 53.966577 ], [ -10.188894, 53.969081 ], [ -10.192752, 53.961532 ], [ -10.223821, 53.976156 ], [ -10.188062, 53.997037 ], [ -10.187617, 54.014545 ], [ -10.147652, 54.009005 ], [ -10.133714, 53.999603 ], [ -10.101191, 54.001441 ], [ -10.068857, 54.024624 ], [ -10.042594, 54.023916 ], [ -10.026956, 54.012025 ], [ -9.988614, 54.012397 ], [ -9.972757, 54.028333 ] ] ], [ [ [ -9.950535, 53.797881 ], [ -10.046226, 53.790767 ], [ -10.048723, 53.801323 ], [ -9.975812, 53.826715 ], [ -9.965267, 53.813804 ], [ -9.944303, 53.811123 ], [ -9.950535, 53.797881 ] ] ], [ [ [ -9.962249, 53.326485 ], [ -9.975433, 53.314603 ], [ -9.982097, 53.327479 ], [ -9.97686, 53.33297 ], [ -9.962249, 53.326485 ] ] ], [ [ [ -10.019268, 53.720741 ], [ -10.02787, 53.707973 ], [ -10.03932, 53.717611 ], [ -10.034243, 53.725088 ], [ -10.019268, 53.720741 ] ] ], [ [ [ -10.082114, 53.710148 ], [ -10.101675, 53.694984 ], [ -10.137107, 53.692948 ], [ -10.124928, 53.711412 ], [ -10.082114, 53.710148 ] ] ], [ [ [ -10.147855, 53.514128 ], [ -10.150734, 53.496354 ], [ -10.157589, 53.497051 ], [ -10.157947, 53.515627 ], [ -10.147855, 53.514128 ] ] ], [ [ [ -10.157571, 54.079596 ], [ -10.158904, 54.069114 ], [ -10.179581, 54.073728 ], [ -10.173239, 54.081159 ], [ -10.157571, 54.079596 ] ] ], [ [ [ -10.183644, 53.631363 ], [ -10.18789, 53.623708 ], [ -10.179242, 53.616722 ], [ -10.191198, 53.607163 ], [ -10.260318, 53.623096 ], [ -10.249285, 53.630777 ], [ -10.240387, 53.621865 ], [ -10.221502, 53.631269 ], [ -10.206319, 53.627249 ], [ -10.200252, 53.636838 ], [ -10.183644, 53.631363 ] ] ], [ [ [ -10.20272, 54.128323 ], [ -10.202733, 54.111072 ], [ -10.222181, 54.116382 ], [ -10.20779, 54.129551 ], [ -10.206227, 54.152248 ], [ -10.194404, 54.163567 ], [ -10.185028, 54.153368 ], [ -10.195942, 54.143939 ], [ -10.184157, 54.130923 ], [ -10.20272, 54.128323 ] ] ], [ [ [ -10.263814, 53.607265 ], [ -10.294687, 53.603111 ], [ -10.297065, 53.606665 ], [ -10.289703, 53.618109 ], [ -10.263814, 53.607265 ] ] ] ] } },
{ "type": "Feature", "properties": { "loc": "IE05" }, "geometry": { "type": "MultiPolygon", "coordinates": [ [ [ [ -7.674081, 52.781294 ], [ -7.617374, 52.790737 ], [ -7.613182, 52.80717 ], [ -7.577836, 52.825661 ], [ -7.551564, 52.807504 ], [ -7.525636, 52.808772 ], [ -7.47516, 52.787454 ], [ -7.428097, 52.801902 ], [ -7.399443, 52.797881 ], [ -7.375162, 52.827998 ], [ -7.350544, 52.81394 ], [ -7.342368, 52.839563 ], [ -7.321446, 52.861652 ], [ -7.26058, 52.851714 ], [ -7.247284, 52.861498 ], [ -7.244214, 52.876642 ], [ -7.19562, 52.892353 ], [ -7.146453, 52.872736 ], [ -7.120595, 52.828157 ], [ -7.074856, 52.813227 ], [ -7.053981, 52.794894 ], [ -7.033096, 52.808491 ], [ -6.952768, 52.816255 ], [ -6.934065, 52.847215 ], [ -6.939413, 52.880054 ], [ -6.923941, 52.883309 ], [ -6.884281, 52.859795 ], [ -6.867086, 52.870438 ], [ -6.852323, 52.861281 ], [ -6.818109, 52.87211 ], [ -6.788465, 52.86884 ], [ -6.750463, 52.891896 ], [ -6.734959, 52.914934 ], [ -6.600603, 52.897761 ], [ -6.577072, 52.880471 ], [ -6.528398, 52.886716 ], [ -6.511189, 52.874393 ], [ -6.540063, 52.818137 ], [ -6.584103, 52.804801 ], [ -6.665267, 52.833208 ], [ -6.697505, 52.807329 ], [ -6.707709, 52.779267 ], [ -6.657711, 52.767134 ], [ -6.649007, 52.74364 ], [ -6.621423, 52.717037 ], [ -6.577358, 52.702182 ], [ -6.563427, 52.685298 ], [ -6.498533, 52.691316 ], [ -6.435744, 52.734695 ], [ -6.411105, 52.778656 ], [ -6.366067, 52.794462 ], [ -6.320607, 52.796403 ], [ -6.294943, 52.783707 ], [ -6.258046, 52.792998 ], [ -6.239252, 52.779501 ], [ -6.173718, 52.765795 ], [ -6.166274, 52.74536 ], [ -6.144516, 52.737696 ], [ -6.193219, 52.689591 ], [ -6.221846, 52.644293 ], [ -6.222172, 52.618021 ], [ -6.202317, 52.568349 ], [ -6.206713, 52.548169 ], [ -6.344178, 52.414436 ], [ -6.366256, 52.357134 ], [ -6.446617, 52.350143 ], [ -6.474963, 52.367331 ], [ -6.488572, 52.358516 ], [ -6.434565, 52.307123 ], [ -6.3927, 52.293727 ], [ -6.367414, 52.25989 ], [ -6.330237, 52.241859 ], [ -6.366488, 52.181954 ], [ -6.483871, 52.189205 ], [ -6.581894, 52.179027 ], [ -6.661712, 52.214387 ], [ -6.784449, 52.213467 ], [ -6.767299, 52.241911 ], [ -6.770784, 52.249235 ], [ -6.825099, 52.220966 ], [ -6.840473, 52.175673 ], [ -6.905313, 52.1446 ], [ -6.911529, 52.200214 ], [ -6.927662, 52.21895 ], [ -6.957606, 52.232234 ], [ -6.974803, 52.20442 ], [ -6.979427, 52.168565 ], [ -7.020636, 52.138638 ], [ -7.086284, 52.133893 ], [ -7.099344, 52.146452 ], [ -7.100839, 52.161265 ], [ -7.118077, 52.16494 ], [ -7.185894, 52.137695 ], [ -7.374345, 52.13618 ], [ -7.448698, 52.123679 ], [ -7.553433, 52.086339 ], [ -7.600146, 52.091389 ], [ -7.621934, 52.080886 ], [ -7.620555, 52.068915 ], [ -7.558462, 52.044923 ], [ -7.594163, 51.993594 ], [ -7.691406, 51.972531 ], [ -7.724446, 51.942621 ], [ -7.817273, 51.941335 ], [ -7.842156, 51.954218 ], [ -7.882457, 51.914389 ], [ -7.895354, 51.879864 ], [ -7.976943, 51.860427 ], [ -8.038842, 51.821276 ], [ -8.120658, 51.800883 ], [ -8.234058, 51.809064 ], [ -8.236849, 51.822785 ], [ -8.217868, 51.846464 ], [ -8.224284, 51.854487 ], [ -8.310899, 51.848567 ], [ -8.316593, 51.833264 ], [ -8.294984, 51.792573 ], [ -8.335214, 51.730376 ], [ -8.418615, 51.697733 ], [ -8.505105, 51.684578 ], [ -8.553987, 51.632248 ], [ -8.68001, 51.641305 ], [ -8.705485, 51.597219 ], [ -8.726469, 51.581585 ], [ -8.836504, 51.590663 ], [ -8.930827, 51.548319 ], [ -9.00147, 51.55937 ], [ -9.096413, 51.553651 ], [ -9.217807, 51.496196 ], [ -9.348683, 51.476815 ], [ -9.389602, 51.492073 ], [ -9.408052, 51.53158 ], [ -9.429481, 51.540348 ], [ -9.502979, 51.512726 ], [ -9.54205, 51.514563 ], [ -9.603334, 51.501446 ], [ -9.658633, 51.503684 ], [ -9.741564, 51.465392 ], [ -9.781986, 51.458238 ], [ -9.808548, 51.470687 ], [ -9.798848, 51.494594 ], [ -9.680417, 51.540704 ], [ -9.613653, 51.591369 ], [ -9.630667, 51.596009 ], [ -9.79684, 51.550206 ], [ -9.809489, 51.550688 ], [ -9.808007, 51.557559 ], [ -9.674852, 51.619463 ], [ -9.48944, 51.676294 ], [ -9.469109, 51.692205 ], [ -9.471224, 51.712851 ], [ -9.532703, 51.732683 ], [ -9.640403, 51.684397 ], [ -9.722655, 51.679552 ], [ -9.84545, 51.65379 ], [ -9.848252, 51.647536 ], [ -9.821067, 51.636678 ], [ -9.840951, 51.62371 ], [ -9.890845, 51.618775 ], [ -9.929292, 51.625391 ], [ -10.024418, 51.599609 ], [ -10.117457, 51.597074 ], [ -10.127434, 51.6084 ], [ -10.081455, 51.632867 ], [ -10.071265, 51.664291 ], [ -9.986695, 51.690286 ], [ -9.964673, 51.728808 ], [ -9.825334, 51.769111 ], [ -9.758827, 51.814678 ], [ -9.68111, 51.842054 ], [ -9.673654, 51.853264 ], [ -9.741378, 51.84704 ], [ -9.852963, 51.807287 ], [ -9.926178, 51.803103 ], [ -10.116666, 51.752063 ], [ -10.173399, 51.776287 ], [ -10.186342, 51.814092 ], [ -10.207253, 51.832585 ], [ -10.2405, 51.833322 ], [ -10.286764, 51.809986 ], [ -10.324496, 51.802814 ], [ -10.347345, 51.832576 ], [ -10.39264, 51.866896 ], [ -10.403016, 51.888548 ], [ -10.389787, 51.90644 ], [ -10.324094, 51.928868 ], [ -10.297947, 51.910353 ], [ -10.282516, 51.911712 ], [ -10.275424, 51.932168 ], [ -10.283906, 51.959902 ], [ -10.249892, 51.984481 ], [ -10.145015, 52.02179 ], [ -10.014593, 52.046997 ], [ -9.937251, 52.080609 ], [ -9.894865, 52.116109 ], [ -9.830222, 52.129592 ], [ -9.815816, 52.142121 ], [ -9.857669, 52.152873 ], [ -9.923502, 52.144378 ], [ -9.960527, 52.12751 ], [ -10.018705, 52.13503 ], [ -10.171971, 52.116008 ], [ -10.267868, 52.128103 ], [ -10.346982, 52.121479 ], [ -10.424884, 52.104096 ], [ -10.448402, 52.111364 ], [ -10.457779, 52.124983 ], [ -10.435961, 52.187258 ], [ -10.384321, 52.189717 ], [ -10.339832, 52.232362 ], [ -10.205279, 52.276982 ], [ -10.170749, 52.272725 ], [ -10.137978, 52.245678 ], [ -10.094205, 52.253998 ], [ -10.029963, 52.295664 ], [ -9.998252, 52.262934 ], [ -9.939638, 52.236441 ], [ -9.89134, 52.235429 ], [ -9.778374, 52.255568 ], [ -9.772177, 52.261248 ], [ -9.777963, 52.26895 ], [ -9.837658, 52.288278 ], [ -9.846667, 52.368221 ], [ -9.904692, 52.397781 ], [ -9.913649, 52.418937 ], [ -9.793889, 52.445841 ], [ -9.730405, 52.470614 ], [ -9.66907, 52.542546 ], [ -9.624901, 52.569112 ], [ -9.483238, 52.570201 ], [ -9.403317, 52.58142 ], [ -9.365192, 52.572124 ], [ -9.282206, 52.576179 ], [ -9.115444, 52.620061 ], [ -9.011626, 52.626099 ], [ -8.936277, 52.659151 ], [ -8.810884, 52.665268 ], [ -8.800686, 52.673503 ], [ -8.862559, 52.693775 ], [ -8.945793, 52.693714 ], [ -8.962045, 52.764357 ], [ -8.975213, 52.77116 ], [ -9.014737, 52.755616 ], [ -9.044513, 52.709958 ], [ -9.092745, 52.666927 ], [ -9.146454, 52.634334 ], [ -9.239531, 52.617 ], [ -9.295565, 52.595698 ], [ -9.319582, 52.602328 ], [ -9.321386, 52.623192 ], [ -9.432203, 52.609777 ], [ -9.513737, 52.631091 ], [ -9.561661, 52.661317 ], [ -9.573207, 52.632926 ], [ -9.686794, 52.609633 ], [ -9.722272, 52.583988 ], [ -9.873168, 52.561456 ], [ -9.907502, 52.566813 ], [ -9.895403, 52.578482 ], [ -9.823862, 52.601882 ], [ -9.666435, 52.67962 ], [ -9.598612, 52.740337 ], [ -9.565638, 52.747464 ], [ -9.52851, 52.743885 ], [ -9.50461, 52.754479 ], [ -9.482101, 52.804351 ], [ -9.443729, 52.838711 ], [ -9.42615, 52.879273 ], [ -9.363077, 52.926618 ], [ -9.377161, 52.938345 ], [ -9.446578, 52.936977 ], [ -9.453254, 52.950798 ], [ -9.370002, 53.054604 ], [ -9.303686, 53.106613 ], [ -9.273238, 53.143556 ], [ -9.249397, 53.147507 ], [ -9.140544, 53.126028 ], [ -9.116816, 53.136813 ], [ -9.105475, 53.154125 ], [ -9.075025, 53.162528 ], [ -9.009308, 53.140817 ], [ -9.025861, 53.129803 ], [ -9.012823, 53.107941 ], [ -8.900567, 53.061778 ], [ -8.889462, 53.021492 ], [ -8.891692, 52.995465 ], [ -8.880636, 52.979848 ], [ -8.860957, 52.973506 ], [ -8.836675, 52.986495 ], [ -8.783382, 52.976968 ], [ -8.719894, 53.022904 ], [ -8.630438, 53.040772 ], [ -8.566483, 53.038881 ], [ -8.527801, 53.018131 ], [ -8.497731, 52.986844 ], [ -8.446624, 52.976542 ], [ -8.40974, 52.991036 ], [ -8.355753, 52.976034 ], [ -8.31227, 52.991689 ], [ -8.278951, 53.021493 ], [ -8.263572, 53.054648 ], [ -8.219074, 53.071123 ], [ -8.149956, 53.141917 ], [ -8.124429, 53.158263 ], [ -8.081456, 53.166884 ], [ -7.957308, 53.124715 ], [ -7.929724, 53.102384 ], [ -7.937081, 53.058461 ], [ -7.956922, 53.035482 ], [ -7.958154, 53.001629 ], [ -7.998426, 52.986661 ], [ -7.986305, 52.945382 ], [ -8.002031, 52.933179 ], [ -8.044112, 52.930474 ], [ -8.039411, 52.898547 ], [ -7.970717, 52.854813 ], [ -7.953949, 52.866134 ], [ -7.947548, 52.883157 ], [ -7.893893, 52.897491 ], [ -7.853642, 52.929713 ], [ -7.861346, 52.949523 ], [ -7.852675, 52.95782 ], [ -7.804744, 52.976684 ], [ -7.744339, 52.960704 ], [ -7.669428, 52.928885 ], [ -7.716719, 52.888205 ], [ -7.725525, 52.86008 ], [ -7.694584, 52.823175 ], [ -7.674081, 52.781294 ] ] ], [ [ [ -6.579378, 52.14297 ], [ -6.583254, 52.127053 ], [ -6.596562, 52.132844 ], [ -6.590363, 52.143997 ], [ -6.579378, 52.14297 ] ] ], [ [ [ -6.611778, 52.119194 ], [ -6.617524, 52.104844 ], [ -6.629716, 52.110949 ], [ -6.626729, 52.120857 ], [ -6.611778, 52.119194 ] ] ], [ [ [ -8.277407, 51.831849 ], [ -8.295323, 51.827354 ], [ -8.299561, 51.83697 ], [ -8.281643, 51.840583 ], [ -8.277407, 51.831849 ] ] ], [ [ [ -8.9656, 52.701608 ], [ -8.974434, 52.697013 ], [ -8.986115, 52.708424 ], [ -8.970399, 52.713374 ], [ -8.9656, 52.701608 ] ] ], [ [ [ -9.001422, 52.706974 ], [ -9.013513, 52.705418 ], [ -9.019086, 52.709909 ], [ -9.002036, 52.716853 ], [ -9.001422, 52.706974 ] ] ], [ [ [ -9.01045, 52.6774 ], [ -9.015727, 52.669267 ], [ -9.033563, 52.67471 ], [ -9.02429, 52.683981 ], [ -9.01045, 52.6774 ] ] ], [ [ [ -9.041301, 52.674008 ], [ -9.047471, 52.672932 ], [ -9.060241, 52.680235 ], [ -9.042669, 52.690765 ], [ -9.041301, 52.674008 ] ] ], [ [ [ -9.399329, 51.468148 ], [ -9.436787, 51.453161 ], [ -9.438746, 51.461767 ], [ -9.425382, 51.465754 ], [ -9.41412, 51.488454 ], [ -9.398202, 51.48792 ], [ -9.399329, 51.468148 ] ] ], [ [ [ -9.428748, 51.487715 ], [ -9.442038, 51.495225 ], [ -9.429761, 51.516234 ], [ -9.419114, 51.514808 ], [ -9.428748, 51.487715 ] ] ], [ [ [ -9.444598, 51.498316 ], [ -9.447252, 51.489112 ], [ -9.451901, 51.49202 ], [ -9.444598, 51.498316 ] ] ], [ [ [ -9.461303, 51.448473 ], [ -9.512508, 51.422615 ], [ -9.523828, 51.429424 ], [ -9.484552, 51.450853 ], [ -9.461303, 51.448473 ] ] ], [ [ [ -9.475136, 51.480436 ], [ -9.490652, 51.476488 ], [ -9.497775, 51.484203 ], [ -9.482737, 51.490181 ], [ -9.475136, 51.480436 ] ] ], [ [ [ -9.479477, 51.699777 ], [ -9.496891, 51.678472 ], [ -9.512286, 51.685501 ], [ -9.484013, 51.704456 ], [ -9.479477, 51.699777 ] ] ], [ [ [ -9.498218, 51.484785 ], [ -9.502387, 51.472761 ], [ -9.515195, 51.479475 ], [ -9.498218, 51.484785 ] ] ], [ [ [ -9.509929, 52.610249 ], [ -9.520909, 52.603234 ], [ -9.526637, 52.617749 ], [ -9.509477, 52.619837 ], [ -9.509929, 52.610249 ] ] ], [ [ [ -9.863383, 52.295161 ], [ -9.88096, 52.28721 ], [ -9.889652, 52.296765 ], [ -9.884975, 52.302111 ], [ -9.863383, 52.295161 ] ] ], [ [ [ -10.161026, 51.604959 ], [ -10.20573, 51.591616 ], [ -10.209251, 51.594252 ], [ -10.195194, 51.605951 ], [ -10.162219, 51.610469 ], [ -10.161026, 51.604959 ] ] ], [ [ [ -10.204267, 51.781102 ], [ -10.21136, 51.772059 ], [ -10.230599, 51.781507 ], [ -10.225626, 51.786068 ], [ -10.204267, 51.781102 ] ] ], [ [ [ -10.213333, 51.742685 ], [ -10.211153, 51.729924 ], [ -10.232179, 51.732673 ], [ -10.223934, 51.742403 ], [ -10.213333, 51.742685 ] ] ], [ [ [ -10.240571, 51.73093 ], [ -10.249757, 51.724083 ], [ -10.263192, 51.726702 ], [ -10.256159, 51.735652 ], [ -10.240571, 51.73093 ] ] ], [ [ [ -10.393072, 51.834891 ], [ -10.40459, 51.829086 ], [ -10.41424, 51.837476 ], [ -10.408109, 51.846671 ], [ -10.393072, 51.834891 ] ] ], [ [ [ -10.519541, 52.094851 ], [ -10.571143, 52.079933 ], [ -10.520274, 52.10758 ], [ -10.512312, 52.104776 ], [ -10.519541, 52.094851 ] ] ], [ [ [ -10.568824, 52.126461 ], [ -10.589433, 52.121543 ], [ -10.590527, 52.126869 ], [ -10.573862, 52.137983 ], [ -10.568824, 52.126461 ] ] ], [ [ [ -10.599714, 52.045352 ], [ -10.616456, 52.040262 ], [ -10.623141, 52.049161 ], [ -10.618943, 52.052453 ], [ -10.599714, 52.045352 ] ] ] ] } },
{ "type": "Feature", "properties": { "loc": "IE06" }, "geometry": { "type": "MultiPolygon", "coordinates": [ [ [ [ -6.268015, 54.102337 ], [ -6.248594, 54.081049 ], [ -6.178419, 54.040668 ], [ -6.131607, 54.027536 ], [ -6.111241, 54.000935 ], [ -6.170997, 53.979027 ], [ -6.240527, 53.987117 ], [ -6.335516, 54.011676 ], [ -6.363181, 53.976807 ], [ -6.375289, 53.945979 ], [ -6.363232, 53.9014 ], [ -6.341393, 53.883758 ], [ -6.245544, 53.858616 ], [ -6.256981, 53.813613 ], [ -6.224796, 53.793651 ], [ -6.244231, 53.761623 ], [ -6.247799, 53.72634 ], [ -6.214899, 53.633407 ], [ -6.188586, 53.625831 ], [ -6.147567, 53.588918 ], [ -6.106606, 53.578546 ], [ -6.083047, 53.550604 ], [ -6.084766, 53.523243 ], [ -6.109422, 53.507246 ], [ -6.104375, 53.487335 ], [ -6.129965, 53.452405 ], [ -6.118853, 53.412942 ], [ -6.127081, 53.391137 ], [ -6.146493, 53.381141 ], [ -6.160203, 53.359396 ], [ -6.196725, 53.355415 ], [ -6.193187, 53.343027 ], [ -6.205111, 53.328468 ], [ -6.186235, 53.307447 ], [ -6.101196, 53.278042 ], [ -6.110153, 53.24927 ], [ -6.102773, 53.210773 ], [ -6.078353, 53.18768 ], [ -6.073111, 53.160286 ], [ -6.041253, 53.113913 ], [ -6.035856, 53.069535 ], [ -6.048587, 53.023054 ], [ -6.046507, 52.993168 ], [ -6.002921, 52.962791 ], [ -6.057563, 52.879609 ], [ -6.061566, 52.85842 ], [ -6.105167, 52.837103 ], [ -6.138138, 52.800741 ], [ -6.144516, 52.737696 ], [ -6.166274, 52.74536 ], [ -6.173718, 52.765795 ], [ -6.239252, 52.779501 ], [ -6.258046, 52.792998 ], [ -6.294943, 52.783707 ], [ -6.320607, 52.796403 ], [ -6.366067, 52.794462 ], [ -6.411105, 52.778656 ], [ -6.435744, 52.734695 ], [ -6.498533, 52.691316 ], [ -6.563427, 52.685298 ], [ -6.577358, 52.702182 ], [ -6.621423, 52.717037 ], [ -6.649007, 52.74364 ], [ -6.657711, 52.767134 ], [ -6.707709, 52.779267 ], [ -6.697505, 52.807329 ], [ -6.665267, 52.833208 ], [ -6.584103, 52.804801 ], [ -6.540063, 52.818137 ], [ -6.511189, 52.874393 ], [ -6.528398, 52.886716 ], [ -6.577072, 52.880471 ], [ -6.600603, 52.897761 ], [ -6.734959, 52.914934 ], [ -6.750463, 52.891896 ], [ -6.788465, 52.86884 ], [ -6.818109, 52.87211 ], [ -6.852323, 52.861281 ], [ -6.867086, 52.870438 ], [ -6.884281, 52.859795 ], [ -6.923941, 52.883309 ], [ -6.939413, 52.880054 ], [ -6.934065, 52.847215 ], [ -6.952768, 52.816255 ], [ -7.033096, 52.808491 ], [ -7.053981, 52.794894 ], [ -7.074856, 52.813227 ], [ -7.120595, 52.828157 ], [ -7.146453, 52.872736 ], [ -7.19562, 52.892353 ], [ -7.244214, 52.876642 ], [ -7.247284, 52.861498 ], [ -7.26058, 52.851714 ], [ -7.321446, 52.861652 ], [ -7.342368, 52.839563 ], [ -7.350544, 52.81394 ], [ -7.375162, 52.827998 ], [ -7.399443, 52.797881 ], [ -7.428097, 52.801902 ], [ -7.47516, 52.787454 ], [ -7.525636, 52.808772 ], [ -7.551564, 52.807504 ], [ -7.577836, 52.825661 ], [ -7.613182, 52.80717 ], [ -7.617374, 52.790737 ], [ -7.674081, 52.781294 ], [ -7.694584, 52.823175 ], [ -7.725525, 52.86008 ], [ -7.716719, 52.888205 ], [ -7.669428, 52.928885 ], [ -7.744339, 52.960704 ], [ -7.804744, 52.976684 ], [ -7.852675, 52.95782 ], [ -7.861346, 52.949523 ], [ -7.853642, 52.929713 ], [ -7.893893, 52.897491 ], [ -7.947548, 52.883157 ], [ -7.953949, 52.866134 ], [ -7.970717, 52.854813 ], [ -8.039411, 52.898547 ], [ -8.044112, 52.930474 ], [ -8.002031, 52.933179 ], [ -7.986305, 52.945382 ], [ -7.998426, 52.986661 ], [ -7.958154, 53.001629 ], [ -7.956922, 53.035482 ], [ -7.937081, 53.058461 ], [ -7.929724, 53.102384 ], [ -7.957308, 53.124715 ], [ -8.081456, 53.166884 ], [ -8.049885, 53.192426 ], [ -7.994913, 53.194978 ], [ -7.976764, 53.207918 ], [ -7.969802, 53.223427 ], [ -7.974627, 53.232851 ], [ -8.023848, 53.254174 ], [ -8.052033, 53.278399 ], [ -8.028534, 53.30026 ], [ -8.023551, 53.319601 ], [ -7.948138, 53.341142 ], [ -7.913879, 53.372109 ], [ -7.924906, 53.393865 ], [ -7.962734, 53.421631 ], [ -7.955528, 53.43294 ], [ -7.964235, 53.453526 ], [ -7.956669, 53.483707 ], [ -7.977421, 53.542764 ], [ -8.035391, 53.612586 ], [ -8.03043, 53.646687 ], [ -7.989914, 53.675754 ], [ -7.981863, 53.701169 ], [ -7.951891, 53.714388 ], [ -7.943926, 53.734654 ], [ -7.921693, 53.736394 ], [ -7.890261, 53.758429 ], [ -7.879494, 53.775809 ], [ -7.90657, 53.794482 ], [ -7.918767, 53.821486 ], [ -7.886822, 53.824356 ], [ -7.867673, 53.810413 ], [ -7.856484, 53.828614 ], [ -7.832507, 53.813537 ], [ -7.791331, 53.81766 ], [ -7.774234, 53.84694 ], [ -7.773647, 53.865512 ], [ -7.732087, 53.880886 ], [ -7.644748, 53.939306 ], [ -7.608657, 53.935629 ], [ -7.57821, 53.906096 ], [ -7.555699, 53.900203 ], [ -7.554712, 53.88499 ], [ -7.57147, 53.876046 ], [ -7.579766, 53.853373 ], [ -7.493758, 53.858039 ], [ -7.475309, 53.847657 ], [ -7.470128, 53.809552 ], [ -7.401353, 53.779473 ], [ -7.307607, 53.810708 ], [ -7.272969, 53.781209 ], [ -7.225871, 53.772761 ], [ -7.19921, 53.791586 ], [ -7.148545, 53.800626 ], [ -7.113483, 53.790334 ], [ -7.098044, 53.776257 ], [ -7.007971, 53.767167 ], [ -6.994857, 53.77733 ], [ -6.976948, 53.77627 ], [ -6.964487, 53.788467 ], [ -6.937155, 53.78434 ], [ -6.937649, 53.796076 ], [ -6.91852, 53.814599 ], [ -6.965732, 53.849162 ], [ -6.968806, 53.865504 ], [ -6.930489, 53.874067 ], [ -6.929337, 53.891637 ], [ -6.866819, 53.876074 ], [ -6.825894, 53.895813 ], [ -6.793036, 53.888827 ], [ -6.782256, 53.910114 ], [ -6.760951, 53.91584 ], [ -6.730684, 53.914777 ], [ -6.703079, 53.902662 ], [ -6.654102, 53.914915 ], [ -6.632612, 53.928515 ], [ -6.656118, 53.940934 ], [ -6.654096, 53.962237 ], [ -6.618169, 53.98181 ], [ -6.571571, 53.971093 ], [ -6.556884, 53.987806 ], [ -6.555656, 54.009438 ], [ -6.594991, 54.044674 ], [ -6.579257, 54.05473 ], [ -6.511327, 54.056055 ], [ -6.474531, 54.072741 ], [ -6.438673, 54.059631 ], [ -6.395824, 54.061484 ], [ -6.364012, 54.081049 ], [ -6.35975, 54.112176 ], [ -6.342991, 54.110467 ], [ -6.32396, 54.093085 ], [ -6.291914, 54.111577 ], [ -6.268015, 54.102337 ] ] ], [ [ [ -6.003438, 53.493553 ], [ -6.015154, 53.482445 ], [ -6.034386, 53.489657 ], [ -6.027326, 53.49795 ], [ -6.003438, 53.493553 ] ] ], [ [ [ -6.045848, 53.385043 ], [ -6.052551, 53.362605 ], [ -6.077301, 53.360363 ], [ -6.117816, 53.390926 ], [ -6.045848, 53.385043 ] ] ], [ [ [ -6.055761, 53.412078 ], [ -6.063328, 53.396861 ], [ -6.073264, 53.400849 ], [ -6.070646, 53.40883 ], [ -6.055761, 53.412078 ] ] ] ] } }
]
}
