{
"type": "FeatureCollection",
"name": "regions_NE",
"crs": { "type": "name", "properties": { "name": "urn:ogc:def:crs:OGC:1.3:CRS84" } },
"features": [
{ "type": "Feature", "properties": { "loc": "NE-A2-0103" }, "geometry": { "type": "Polygon", "coordinates": [ [ [ 11.979548453956333, 23.525028229402899 ], [ 10.986990564421305, 22.957195581744315 ], [ 11.00698500029743, 18.647969000074504 ], [ 10.986985999843967, 18.010965999986102 ], [ 10.983987000039917, 17.058969999770852 ], [ 11.127994000362783, 17.14297300020899 ], [ 11.599990000278236, 17.367974999851494 ], [ 12.07799300021669, 17.524974000355016 ], [ 13.010993000366643, 17.992964999939982 ], [ 15.314044, 18.013962 ], [ 15.559029869862451, 17.998879916651518 ], [ 15.593797684000011, 18.731866837000076 ], [ 15.745819092000024, 19.910709381000053 ], [ 15.75355052900006, 19.947784424000069 ], [ 15.995642662037513, 20.34847068820531 ], [ 15.865157126958119, 20.462463379115299 ], [ 15.745673180131481, 20.629545212375277 ], [ 15.590104102580627, 20.774473190419073 ], [ 15.546156882692264, 20.880418777338349 ], [ 15.625593185135711, 20.963241576771026 ], [ 15.288578986988933, 21.43232154833445 ], [ 15.198430061056756, 21.491306305175527 ], [ 15.19186687531432, 21.989744186278791 ], [ 14.997903824060577, 22.999176024787381 ], [ 14.189322472212618, 22.644483566297176 ], [ 13.680397033754442, 23.072237015259688 ], [ 13.48058891260656, 23.186134337563246 ], [ 13.397974968128633, 23.217527390410382 ], [ 11.979548453956333, 23.525028229402899 ] ] ] } },
{ "type": "Feature", "properties": { "loc": "NE-A2-0104" }, "geometry": { "type": "Polygon", "coordinates": [ [ [ 10.986985999895523, 18.010965999997438 ], [ 7.39196900007056, 17.928966000055766 ], [ 7.494364999943855, 17.774167000196769 ], [ 7.590076999898258, 17.548910999914824 ], [ 7.673824000060108, 17.132187000058423 ], [ 7.673824000060108, 16.963245000071765 ], [ 7.614004999988538, 16.60283499999656 ], [ 7.765730000150654, 16.73901099984522 ], [ 8.181128000009437, 16.709681999878399 ], [ 8.617294999778665, 16.729234999987227 ], [ 9.021971000021608, 15.867971000108128 ], [ 9.309972000055552, 15.957968000092933 ], [ 10.983986999960052, 17.058970000000443 ], [ 10.986985999895523, 18.010965999997438 ] ], [ [ 8.002945000000125, 16.80433 ], [ 7.925202000000183, 16.8121450000001 ], [ 7.857478000000185, 16.84953 ], [ 7.811465000000169, 16.910037 ], [ 7.79618000000022, 16.964408000000105 ], [ 7.804287000000272, 17.038837000000115 ], [ 7.843371000000218, 17.103673 ], [ 7.906694000000243, 17.147691 ], [ 7.963608000000193, 17.162277 ], [ 8.022454000000153, 17.159328 ], [ 8.093982000000267, 17.128865 ], [ 8.14633, 17.073219 ], [ 8.170449000000133, 17.002030000000104 ], [ 8.167312000000152, 16.945806 ], [ 8.135439000000133, 16.877471 ], [ 8.0773, 16.827434 ], [ 8.002945000000125, 16.80433 ] ] ] } },
{ "type": "Feature", "properties": { "loc": "NE-A2-0105" }, "geometry": { "type": "Polygon", "coordinates": [ [ [ 7.984554000218434, 21.170075905584106 ], [ 7.445677757074375, 20.842468261706436 ], [ 7.273006916087819, 20.709304809974526 ], [ 5.817080974878084, 19.437709808256209 ], [ 5.793472593056701, 19.433218788211732 ], [ 5.805967000147869, 19.352970999607173 ], [ 5.900964000359319, 19.293968000018346 ], [ 5.913961999917325, 19.152968999914606 ], [ 6.092964999805814, 18.798967999568745 ], [ 6.095965999702044, 18.759972999949177 ], [ 6.073964999556067, 18.697970999657109 ], [ 6.079972999625158, 18.491965000079901 ], [ 6.015974999917293, 18.081964000133706 ], [ 6.041967999794315, 17.906969999860785 ], [ 8.189969999586776, 17.94696299963789 ], [ 8.135073999636365, 17.988724000007768 ], [ 8.111571000372329, 18.054713999846435 ], [ 8.074968999590602, 18.308209000440208 ], [ 7.977637999664942, 18.355032000421652 ], [ 7.953850999894684, 18.448401000201216 ], [ 7.851691000290938, 18.608306000127349 ], [ 7.911887000036565, 18.670174999681976 ], [ 7.952463999765357, 18.687680000237371 ], [ 7.942670999618461, 18.714520999649963 ], [ 7.994804999902382, 18.941966999582881 ], [ 7.976551999926361, 18.99583699988316 ], [ 7.999022000116739, 19.29101099976338 ], [ 7.984554000218434, 21.170075905584106 ] ] ] } },
{ "type": "Feature", "properties": { "loc": "NE-A2-0106" }, "geometry": { "type": "Polygon", "coordinates": [ [ [ 8.61729499977872, 16.729234999987163 ], [ 8.181128000009492, 16.709681999878445 ], [ 7.765730000150546, 16.739010999845149 ], [ 7.614004999988628, 16.602834999996496 ], [ 7.590077000005708, 15.769387000119394 ], [ 7.542221000051237, 15.611707000137287 ], [ 7.504180999878036, 15.56944400003416 ], [ 7.981970999866101, 15.504963999875365 ], [ 8.160967999888298, 15.550973000183099 ], [ 8.303973999901766, 15.54397599982763 ], [ 8.473960000128562, 15.591966000196599 ], [ 9.021971000021596, 15.867971000108049 ], [ 8.61729499977872, 16.729234999987163 ] ] ] } },
{ "type": "Feature", "properties": { "loc": "NE-A2-0107" }, "geometry": { "type": "Polygon", "coordinates": [ [ [ 10.986985999895481, 18.01096599999747 ], [ 11.006985000045276, 18.647969000080366 ], [ 10.986990564073317, 22.957195581603713 ], [ 9.516030312000044, 22.094453812000054 ], [ 7.984554, 21.170075906026064 ], [ 7.999022, 19.291011 ], [ 7.976552, 18.995837 ], [ 7.994805, 18.941967 ], [ 7.942671, 18.714521 ], [ 7.952464, 18.68768 ], [ 7.911887, 18.670175 ], [ 7.851691, 18.608306 ], [ 7.953851, 18.448401 ], [ 7.977638, 18.355032 ], [ 8.074969, 18.308209000000119 ], [ 8.111571, 18.054714000000267 ], [ 8.135074, 17.988724000000307 ], [ 8.18997, 17.946963000000355 ], [ 10.986985999895481, 18.01096599999747 ] ] ] } },
{ "type": "Feature", "properties": { "loc": "NE-A2-0108" }, "geometry": { "type": "Polygon", "coordinates": [ [ [ 7.501973000428563, 15.56796999981384 ], [ 7.542221000274026, 15.611707000475917 ], [ 7.590077000228291, 15.769387000008464 ], [ 7.614005000205623, 16.602835000333357 ], [ 7.673823999652825, 16.963245000354732 ], [ 7.673823999652825, 17.132187000328088 ], [ 7.590077000228291, 17.54891100004096 ], [ 7.494365000319533, 17.774167000604791 ], [ 7.391968999744563, 17.928966000378921 ], [ 6.041967999698443, 17.906970000463559 ], [ 6.01597499982131, 18.081963999837001 ], [ 6.079973000428538, 18.491964999783193 ], [ 6.073965000359408, 18.69797100025977 ], [ 6.095965999606165, 18.759973000551952 ], [ 6.09296499970992, 18.798968000171328 ], [ 5.913961999821424, 19.152969000517373 ], [ 5.900964000263343, 19.293968000621021 ], [ 5.805967000052078, 19.352971000209777 ], [ 5.793472592960711, 19.433218787914939 ], [ 4.242887973775908, 19.136716842806379 ], [ 4.243463543482676, 18.675385941706111 ], [ 4.869970000190278, 18.677971999806232 ], [ 4.840976000417072, 18.569963000290613 ], [ 4.781968999744436, 18.490969999763934 ], [ 4.76096799984839, 18.425971000659445 ], [ 4.817965999606258, 18.248960000002342 ], [ 4.817963000367172, 18.1289659999793 ], [ 4.728954000201895, 18.001956000167468 ], [ 4.733956999790735, 17.947954000075413 ], [ 4.872960999625434, 17.923948000098392 ], [ 4.889946999629274, 17.818952000133038 ], [ 5.090951999710001, 17.7009590006557 ], [ 5.141956000044331, 17.634957000263682 ], [ 5.219952000459386, 17.471955999967804 ], [ 5.554951000463291, 17.302952999879267 ], [ 6.041951999859805, 16.943952000083016 ], [ 6.147950000167384, 16.801953000628885 ], [ 6.35995800043645, 16.337949000544313 ], [ 6.424950000117292, 16.282948000248268 ], [ 6.640951000163568, 16.191945999906181 ], [ 6.584953999802337, 15.898949000594143 ], [ 6.724964000163425, 15.426960000102213 ], [ 7.02394700032886, 15.436953000478923 ], [ 7.353390840814995, 15.318156898478605 ], [ 7.501973000428563, 15.56796999981384 ] ] ] } },
{ "type": "Feature", "properties": { "loc": "NE-A2-0109" }, "geometry": { "type": "Polygon", "coordinates": [ [ [ 8.002945000000125, 16.80433 ], [ 8.0773, 16.827434 ], [ 8.135439000000133, 16.877471 ], [ 8.167312000000152, 16.945806 ], [ 8.170449000000133, 17.002030000000104 ], [ 8.14633, 17.073219 ], [ 8.093982000000267, 17.128865 ], [ 8.022454000000153, 17.159328 ], [ 7.963608000000193, 17.162277 ], [ 7.906694000000243, 17.147691 ], [ 7.843371000000218, 17.103673 ], [ 7.804287000000272, 17.038837000000115 ], [ 7.79618000000022, 16.964408000000105 ], [ 7.811465000000169, 16.910037 ], [ 7.857478000000185, 16.84953 ], [ 7.925202000000183, 16.8121450000001 ], [ 8.002945000000125, 16.80433 ] ] ] } },
{ "type": "Feature", "properties": { "loc": "NE-A2-0204" }, "geometry": { "type": "Polygon", "coordinates": [ [ [ 12.940560585795456, 13.500977068787474 ], [ 12.941982000262119, 13.528957000216142 ], [ 12.916985999597262, 13.557956000220024 ], [ 12.927981000315945, 13.637951000189226 ], [ 12.888982999658737, 13.810953000331434 ], [ 12.447981000133922, 13.768952999767254 ], [ 12.133983000144021, 13.709957999683304 ], [ 12.162982000147903, 13.445952000006152 ], [ 12.296986999678992, 13.108954000448154 ], [ 12.33683681479588, 13.071763039054414 ], [ 12.362401962209489, 13.090188026277723 ], [ 12.370394706679054, 13.076620102057408 ], [ 12.476724625169965, 13.062413215818598 ], [ 12.480937957949077, 13.083580017425263 ], [ 12.496898650780818, 13.083815575050135 ], [ 12.494765281721008, 13.128906249645063 ], [ 12.558846474114148, 13.157674789381364 ], [ 12.565177917155822, 13.193102836747901 ], [ 12.543575286998575, 13.192411422670354 ], [ 12.536057471803584, 13.212425232260046 ], [ 12.552886962791764, 13.20371723178619 ], [ 12.577901587516958, 13.261269001684468 ], [ 12.538980999602099, 13.291953000252139 ], [ 12.527518000116476, 13.420494000034218 ], [ 12.677036000404073, 13.431032999923804 ], [ 12.697984428631536, 13.312261734342297 ], [ 12.717608452261274, 13.304638863043845 ], [ 12.753337859747425, 13.353615760909427 ], [ 12.787409781629165, 13.361183167420005 ], [ 12.822216034135657, 13.405550957061791 ], [ 12.831610679582216, 13.397951126394165 ], [ 12.83162498509801, 13.417274475187675 ], [ 12.81517887060145, 13.423268318129118 ], [ 12.837980270066428, 13.428998946594835 ], [ 12.837756157213885, 13.442570685739348 ], [ 12.861252784781239, 13.436567307286147 ], [ 12.862454413933065, 13.465549469283307 ], [ 12.849295615593213, 13.470392226770596 ], [ 12.878441811233664, 13.470131873937614 ], [ 12.873764037973011, 13.494979857884921 ], [ 12.906163216352372, 13.48108100923195 ], [ 12.940560585795456, 13.500977068787474 ] ] ] } },
{ "type": "Feature", "properties": { "loc": "NE-A2-0205" }, "geometry": { "type": "Polygon", "coordinates": [ [ [ 13.587486244457146, 13.914617925566581 ], [ 12.888983, 13.810953 ], [ 12.927981, 13.637951 ], [ 12.916986000033269, 13.557956000179434 ], [ 12.941981999831974, 13.528957000355053 ], [ 12.940560586264592, 13.500977068926385 ], [ 13.007761954912876, 13.511089324802334 ], [ 13.030205727275078, 13.532139778417847 ], [ 13.046708106956149, 13.524407386781263 ], [ 13.064962386667332, 13.547154426725179 ], [ 13.081418036675561, 13.545744895900054 ], [ 13.067046165310835, 13.527139663854211 ], [ 13.090768814092023, 13.514676093616647 ], [ 13.105617523092793, 13.535348892227379 ], [ 13.127450942669437, 13.51897621187252 ], [ 13.124197959930438, 13.5396833421024 ], [ 13.14819526706049, 13.547686577163649 ], [ 13.143193245034755, 13.514804839661405 ], [ 13.183900832619898, 13.532199860325118 ], [ 13.198664665404568, 13.510316849432886 ], [ 13.214269637696173, 13.550303458627528 ], [ 13.241103171836453, 13.563582419882554 ], [ 13.23550796508307, 13.584756851337438 ], [ 13.265159606693043, 13.59411525680347 ], [ 13.248271942158972, 13.613017081662822 ], [ 13.353783607090307, 13.714444159859891 ], [ 13.63454723383034, 13.710678101303149 ], [ 13.587486244457146, 13.914617925566581 ] ] ] } },
{ "type": "Feature", "properties": { "loc": "NE-A2-0206" }, "geometry": { "type": "Polygon", "coordinates": [ [ [ 12.028989, 14.427961 ], [ 11.87797699985914, 14.371948000217678 ], [ 11.804981999849527, 14.375949999864197 ], [ 11.547985000193549, 14.186958999846873 ], [ 11.336971000045658, 14.151955999902572 ], [ 11.255971999843815, 14.185947999918032 ], [ 11.153965999931735, 14.117955000163125 ], [ 11.580987000201702, 13.887948000003831 ], [ 11.735971999880888, 13.947949999900029 ], [ 11.790979999771466, 13.797954000373664 ], [ 11.761975000390233, 13.669953999874025 ], [ 11.777971999752289, 13.631953000227632 ], [ 11.75997199975226, 13.592949000193073 ], [ 11.785968999813733, 13.582957999908558 ], [ 11.791972000551652, 13.556956000515825 ], [ 11.594973999994394, 13.466956000515857 ], [ 11.510970000409447, 13.471957000012331 ], [ 11.366972000501661, 13.437953000327525 ], [ 11.354983999855982, 13.407947999797205 ], [ 11.376581967028386, 13.371427262654851 ], [ 11.522185326036226, 13.353060722371275 ], [ 11.695593834132399, 13.287005423658211 ], [ 11.884626389140816, 13.246523857286991 ], [ 12.104239464024268, 13.093460083213078 ], [ 12.149265289405818, 13.096849441845055 ], [ 12.150888443391171, 13.108584403843988 ], [ 12.177430152923506, 13.098270415643949 ], [ 12.178560257194381, 13.125189781080344 ], [ 12.230230331408919, 13.107772826851267 ], [ 12.256980895895918, 13.114476204310161 ], [ 12.287069321136489, 13.079998969673508 ], [ 12.303608100877415, 13.09582910702451 ], [ 12.162982000163446, 13.445951999581958 ], [ 12.133983000159564, 13.709958000158391 ], [ 12.447981, 13.768953 ], [ 12.344982000000147, 14.016954 ], [ 12.035984, 14.030954 ], [ 12.028989, 14.427961 ] ] ] } },
{ "type": "Feature", "properties": { "loc": "NE-A2-0207" }, "geometry": { "type": "Polygon", "coordinates": [ [ [ 11.153966000101679, 14.117954999840693 ], [ 11.081978558234731, 14.071949639181826 ], [ 10.996984000382167, 13.974976000159602 ], [ 10.83398300008624, 13.83095400004439 ], [ 10.822992000451315, 13.713972999571595 ], [ 10.613978004252349, 13.518972234997969 ], [ 10.67323853640019, 13.35700718265268 ], [ 11.065130233644222, 13.375631331937742 ], [ 11.376581967054991, 13.371427263075052 ], [ 11.354983999882544, 13.407948000217358 ], [ 11.366972000528257, 13.437952999848386 ], [ 11.387977999755741, 13.446953000298047 ], [ 11.510970000436027, 13.471956999533225 ], [ 11.59497400002094, 13.466956000036694 ], [ 11.766978000005551, 13.536954000344164 ], [ 11.793985999924812, 13.568957000382584 ], [ 11.759971999778822, 13.592948999713888 ], [ 11.777971999778822, 13.631952999748462 ], [ 11.761975000416792, 13.669954000294201 ], [ 11.790979999798008, 13.797953999894501 ], [ 11.735972000078597, 13.947950000309589 ], [ 11.580986999821041, 13.887947999617811 ], [ 11.153966000101679, 14.117954999840693 ] ] ] } },
{ "type": "Feature", "properties": { "loc": "NE-A2-0208" }, "geometry": { "type": "Polygon", "coordinates": [ [ [ 13.64093685185027, 14.513723373154104 ], [ 13.696021079904984, 14.551123619378554 ], [ 13.692503929408893, 14.612935065919537 ], [ 13.676857948031916, 14.631731986660874 ], [ 13.688448868316648, 14.646394151088167 ], [ 13.46198399995767, 14.619958000380446 ], [ 13.075986999896237, 14.419950999557969 ], [ 13.076910000192431, 14.378213000248792 ], [ 13.01577200017373, 14.217965000103678 ], [ 13.01140500011838, 14.126915000123059 ], [ 12.836000000000102, 14.04397 ], [ 12.447981, 13.768953 ], [ 12.720976, 13.785951 ], [ 13.58748624409095, 13.914617925495882 ], [ 13.473475456123506, 14.442814827261437 ], [ 13.499749183873831, 14.477848053363935 ], [ 13.64093685185027, 14.513723373154104 ] ] ] } },
{ "type": "Feature", "properties": { "loc": "NE-A2-0209" }, "geometry": { "type": "Polygon", "coordinates": [ [ [ 15.559028962868251, 17.998863022957991 ], [ 15.31404400038222, 18.013961999794304 ], [ 13.010993000078798, 17.992965000082535 ], [ 11.99297999967915, 17.493960000201696 ], [ 12.001973999852119, 14.608957999759728 ], [ 11.92498500000965, 14.569952999679039 ], [ 11.911970999713773, 14.527955000071044 ], [ 11.930985999755992, 14.448960999498375 ], [ 11.997972999706079, 14.422957000013387 ], [ 12.028989000094187, 14.427960999648263 ], [ 12.035983999813649, 14.030953999974965 ], [ 12.34498199957153, 14.016954000074891 ], [ 12.44769400032976, 13.76968199957247 ], [ 12.835999999852019, 14.043970000363073 ], [ 13.011405000192513, 14.126914999675343 ], [ 13.01577200012961, 14.217965000432271 ], [ 13.076910000148295, 14.378212999678039 ], [ 13.07598699985207, 14.419950999886582 ], [ 13.461983999913572, 14.61995799980969 ], [ 13.688448868272561, 14.646394151416802 ], [ 13.74556922888871, 14.698344231349045 ], [ 13.768729209637222, 14.691973685784818 ], [ 13.809959412149059, 14.721725464206655 ], [ 13.789683342264341, 14.863213539021457 ], [ 13.862210273936901, 15.031335831231473 ], [ 13.970181465054477, 15.156531333701937 ], [ 14.384763717623377, 15.731554984722614 ], [ 15.505545616189144, 16.897871017181544 ], [ 15.559028962868251, 17.998863022957991 ] ] ] } },
{ "type": "Feature", "properties": { "loc": "NE-A2-0210" }, "geometry": { "type": "Polygon", "coordinates": [ [ [ 12.67703600007464, 13.431033000049219 ], [ 12.527518000118906, 13.420493999674651 ], [ 12.538980999936493, 13.291953000307025 ], [ 12.577901587851294, 13.261269001739345 ], [ 12.589194298341491, 13.277809143053815 ], [ 12.626111983644426, 13.272311210570217 ], [ 12.643522263105254, 13.300260544364937 ], [ 12.676493645028991, 13.274291039276347 ], [ 12.697984429201343, 13.312261734467777 ], [ 12.67703600007464, 13.431033000049219 ] ] ] } },
{ "type": "Feature", "properties": { "loc": "NE-A2-0305" }, "geometry": { "type": "Polygon", "coordinates": [ [ [ 3.663966000147165, 13.957956000037104 ], [ 3.48596199987202, 13.804952999853022 ], [ 3.327963000018062, 13.743950000214351 ], [ 3.16397656711128, 13.809951382401238 ], [ 3.130995999834716, 13.738994999995597 ], [ 3.083972000112243, 13.526950000224343 ], [ 3.036950000019831, 13.464942999975289 ], [ 3.105921, 13.405437 ], [ 3.116802, 13.318184 ], [ 3.103, 13.24891499999989 ], [ 3.203851, 13.343302 ], [ 3.211036, 13.298519 ], [ 3.241967, 13.312953 ], [ 3.311968999786727, 13.534955000122402 ], [ 3.402959000130799, 13.59895399999937 ], [ 3.522972, 13.47495399999989 ], [ 3.473963, 13.309955 ], [ 3.583335, 13.333258 ], [ 3.605557, 13.426307 ], [ 3.727964, 13.55188 ], [ 3.726958, 13.569949 ], [ 3.748971, 13.570954999999891 ], [ 3.769962, 13.597956 ], [ 3.769966, 13.738957 ], [ 3.747955, 13.737957 ], [ 3.663966000147165, 13.957956000037104 ] ] ] } },
{ "type": "Feature", "properties": { "loc": "NE-A2-0306" }, "geometry": { "type": "Polygon", "coordinates": [ [ [ 2.965995999961222, 13.618997000025441 ], [ 2.924994000094947, 13.559993999964899 ], [ 2.922994999868176, 13.526994999913029 ], [ 2.877994999965181, 13.529992999641145 ], [ 2.837418380311916, 13.563285566346046 ], [ 2.843993000017728, 13.554986000207432 ], [ 2.85099799974867, 13.548987999699964 ], [ 2.840960999957463, 13.459949000023492 ], [ 2.862969020415149, 13.4069170604395 ], [ 2.833967999947293, 13.335947000074118 ], [ 2.828969999818507, 13.250948999845331 ], [ 2.757964999827975, 13.269957000154804 ], [ 2.694959999937683, 13.26495499993376 ], [ 2.661000976038816, 13.247974974385563 ], [ 2.660963999830055, 13.217954999908805 ], [ 2.584958000091429, 13.181953999885661 ], [ 2.506962999906945, 13.196957000029848 ], [ 2.472999000000118, 13.168993 ], [ 2.469993, 13.114993 ], [ 2.535998000000137, 12.97499 ], [ 2.698993000000125, 12.95099 ], [ 2.698997000000101, 12.908989000000144 ], [ 2.621965171074456, 12.876927408155865 ], [ 2.640726000026237, 12.85978599995838 ], [ 2.811033000010208, 12.731556999824374 ], [ 2.854208999996408, 12.761865999904582 ], [ 2.911776999989111, 12.745545999985204 ], [ 2.956961, 12.709956 ], [ 2.991975, 12.879958 ], [ 2.960962, 12.893954 ], [ 2.992961, 12.945957 ], [ 2.969963, 12.986958 ], [ 2.996964999875948, 13.408953999966862 ], [ 3.083972000112243, 13.526950000224343 ], [ 3.109964942198693, 13.606997756582224 ], [ 2.965995999961222, 13.618997000025441 ] ] ] } },
{ "type": "Feature", "properties": { "loc": "NE-A2-0307" }, "geometry": { "type": "Polygon", "coordinates": [ [ [ 2.622516000590944, 12.877429000148162 ], [ 2.589005000258591, 12.799991000284301 ], [ 2.629996000193233, 12.684984000011497 ], [ 2.619964999862865, 12.593953000130771 ], [ 2.646964000266414, 12.567952999930938 ], [ 2.642959999982017, 12.530950999588892 ], [ 2.675960000131936, 12.52896199959654 ], [ 2.68396100037783, 12.50795399937747 ], [ 2.705996000293207, 12.571985927808189 ], [ 2.722965000412478, 12.569949000246101 ], [ 2.742959999782211, 12.540960999850199 ], [ 2.745962999770621, 12.460962999742549 ], [ 2.845962000424005, 12.411946000207603 ], [ 2.963059901970886, 12.287500381237511 ], [ 2.992164952728369, 12.277234873690386 ], [ 2.969963, 12.668952 ], [ 2.99896, 12.676953 ], [ 2.882993000304732, 12.757203000218205 ], [ 2.85420900032308, 12.761866000315543 ], [ 2.811033000350736, 12.731557000155309 ], [ 2.622516000590944, 12.877429000148162 ] ] ] } },
{ "type": "Feature", "properties": { "loc": "NE-A2-0308" }, "geometry": { "type": "Polygon", "coordinates": [ [ [ 4.432955, 14.437952 ], [ 4.342955000000113, 14.604955 ], [ 4.256996, 14.634940645365653 ], [ 4.251993000000129, 14.527994 ], [ 4.165993999950355, 14.493958343674347 ], [ 4.165958999992756, 14.436953000006909 ], [ 3.954965999853264, 14.38795300039672 ], [ 3.865994999792064, 14.322993999988949 ], [ 3.766993000046912, 14.188996000182303 ], [ 3.73999599989133, 14.030995999782476 ], [ 3.663966000147165, 13.957956000037104 ], [ 3.747955, 13.737957 ], [ 3.769966, 13.738957 ], [ 3.769962, 13.597956 ], [ 3.748971, 13.570954999999891 ], [ 3.726958, 13.569949 ], [ 3.727958, 13.550953 ], [ 3.893966, 13.550959 ], [ 3.91397, 13.49896 ], [ 3.900954, 13.448954999999891 ], [ 3.91297, 13.430952 ], [ 3.951963, 13.434954999999889 ], [ 3.965979, 13.387953 ], [ 4.054962, 13.326958 ], [ 4.128975402232036, 13.342952988532648 ], [ 4.130280972000064, 13.472634315000072 ], [ 4.197474003176302, 13.473177909727347 ], [ 4.464737892293456, 13.70342731501319 ], [ 4.597480701426835, 13.730251480915729 ], [ 4.571947999753987, 13.843955000217729 ], [ 4.511953000284339, 13.952952000329173 ], [ 4.46394799975399, 14.004954999967918 ], [ 4.412954, 14.287949 ], [ 4.432955, 14.437952 ] ] ] } },
{ "type": "Feature", "properties": { "loc": "NE-A2-0309" }, "geometry": { "type": "Polygon", "coordinates": [ [ [ 3.911963, 13.47595 ], [ 3.896955, 13.520951 ], [ 3.87096, 13.471961 ], [ 3.824962, 13.470952 ], [ 3.82497, 13.417947 ], [ 3.873959, 13.372952 ], [ 3.789964, 13.310959 ], [ 3.731957, 13.308948 ], [ 3.731964, 13.289949 ], [ 3.764964, 13.289957 ], [ 3.765967, 13.256959 ], [ 3.715956, 13.254952 ], [ 3.713963, 13.098956999999896 ], [ 3.621956, 12.939953999999894 ], [ 3.715959, 12.848958 ], [ 3.745964, 12.77196 ], [ 3.832818832109051, 12.678364816705407 ], [ 3.942208052000082, 12.764189720000036 ], [ 4.096463202966603, 12.996067047195154 ], [ 4.129664897673844, 13.148302077729142 ], [ 4.128975402232036, 13.342952988532648 ], [ 4.06196, 13.324959 ], [ 4.024973, 13.338952 ], [ 3.965979, 13.387953 ], [ 3.951963, 13.434954999999889 ], [ 3.91297, 13.430952 ], [ 3.900954, 13.448954999999891 ], [ 3.911963, 13.47595 ] ] ] } },
{ "type": "Feature", "properties": { "loc": "NE-A2-0310" }, "geometry": { "type": "Polygon", "coordinates": [ [ [ 3.377967999972973, 12.396954999779659 ], [ 3.292961, 12.282957000171653 ], [ 3.299963000042214, 12.217949999798901 ], [ 3.279958999864472, 12.133953999819909 ], [ 3.176923932050388, 12.104948522898624 ], [ 3.270279883566327, 12.014719962898575 ], [ 3.259449958805081, 11.98999977081538 ], [ 3.321389914, 11.881669998000106 ], [ 3.383610009999969, 11.886389732000087 ], [ 3.481389999, 11.861390114000088 ], [ 3.521110058000096, 11.814720154000042 ], [ 3.522779942000063, 11.78777980800005 ], [ 3.564719915119805, 11.772500037695384 ], [ 3.556390047190692, 11.724169730797236 ], [ 3.605073928846489, 11.6969747537307 ], [ 3.679195166051872, 11.75845432255775 ], [ 3.665852069645079, 11.81047344164476 ], [ 3.626731156845184, 11.839364051758334 ], [ 3.617669820661216, 11.916888236809893 ], [ 3.668822049953167, 11.977861403688035 ], [ 3.630781174060469, 12.117119789395421 ], [ 3.657529116225464, 12.268548965268806 ], [ 3.649770208977752, 12.383072592532347 ], [ 3.612959999853902, 12.386954999979523 ], [ 3.572963999938437, 12.35794799960674 ], [ 3.533960999949968, 12.37896000001026 ], [ 3.428961999846201, 12.386951999841163 ], [ 3.377967999972973, 12.396954999779659 ] ] ] } },
{ "type": "Feature", "properties": { "loc": "NE-A2-0311" }, "geometry": { "type": "Polygon", "coordinates": [ [ [ 3.832818832109051, 12.678364816705407 ], [ 3.745964, 12.77196 ], [ 3.715959, 12.848958 ], [ 3.621956, 12.939953999999894 ], [ 3.521967, 12.846952 ], [ 3.554965, 12.761955 ], [ 3.521957, 12.646958 ], [ 3.412962, 12.645957999999897 ], [ 3.38497, 12.627953999999892 ], [ 3.409969, 12.493947 ], [ 3.396964, 12.40295 ], [ 3.428962, 12.386952 ], [ 3.533961, 12.37896 ], [ 3.572964, 12.357948 ], [ 3.61296, 12.386955 ], [ 3.64977020938436, 12.383072592587414 ], [ 3.642555952000079, 12.520149231000062 ], [ 3.832818832109051, 12.678364816705407 ] ] ] } },
{ "type": "Feature", "properties": { "loc": "NE-A2-0312" }, "geometry": { "type": "Polygon", "coordinates": [ [ [ 3.473963, 13.309955 ], [ 3.522972, 13.47495399999989 ], [ 3.402959000130799, 13.59895399999937 ], [ 3.311968999786727, 13.534955000122402 ], [ 3.241967, 13.312953 ], [ 3.211036, 13.298519 ], [ 3.203851, 13.343302 ], [ 3.103, 13.24891499999989 ], [ 3.116802, 13.318184 ], [ 3.105921, 13.405437 ], [ 3.036950000019831, 13.464942999975289 ], [ 2.996964999875948, 13.408953999966862 ], [ 2.969963, 12.986958 ], [ 2.992961, 12.945957 ], [ 2.960962, 12.893954 ], [ 2.991975, 12.879958 ], [ 2.956961, 12.709956 ], [ 2.99896, 12.676953 ], [ 2.969963, 12.668952 ], [ 2.991970999748559, 12.277954999939862 ], [ 3.071939944559552, 12.183609962346438 ], [ 3.125000000136633, 12.157500267340033 ], [ 3.127219914554167, 12.140279770011926 ], [ 3.176923932280427, 12.104948522972521 ], [ 3.27995900009451, 12.133953999893716 ], [ 3.299962999879322, 12.217950000009044 ], [ 3.29197000000224, 12.280955999836092 ], [ 3.377968, 12.396955 ], [ 3.397962, 12.402951999999896 ], [ 3.409969, 12.493947 ], [ 3.38497, 12.627953999999892 ], [ 3.412962, 12.645957999999897 ], [ 3.521957, 12.646958 ], [ 3.554965, 12.761955 ], [ 3.521967, 12.846952 ], [ 3.621956, 12.939953999999894 ], [ 3.713963, 13.098956999999896 ], [ 3.715956, 13.254952 ], [ 3.765967, 13.256959 ], [ 3.764964, 13.289957 ], [ 3.731964, 13.289949 ], [ 3.731957, 13.308948 ], [ 3.789964, 13.310959 ], [ 3.873959, 13.372952 ], [ 3.82497, 13.417947 ], [ 3.824962, 13.470952 ], [ 3.87096, 13.471961 ], [ 3.904963, 13.540956 ], [ 3.727964, 13.55188 ], [ 3.605557, 13.426307 ], [ 3.583335, 13.333258 ], [ 3.473963, 13.309955 ] ], [ [ 3.255539, 13.138389 ], [ 3.272323, 13.154703 ], [ 3.309838, 13.094591 ], [ 3.279926, 13.050288 ], [ 3.295594, 13.0046 ], [ 3.277077, 12.983833 ], [ 3.19731, 12.956143 ], [ 3.170017, 12.930416 ], [ 3.092321, 12.963883 ], [ 3.08552, 12.986357 ], [ 3.141286, 13.039238 ], [ 3.163049, 13.125169 ], [ 3.255539, 13.138389 ] ] ] } },
{ "type": "Feature", "properties": { "loc": "NE-A2-0313" }, "geometry": { "type": "Polygon", "coordinates": [ [ [ 3.170017, 12.930416 ], [ 3.295594, 13.0046 ], [ 3.279926, 13.050288 ], [ 3.309838, 13.094591 ], [ 3.272323, 13.154703 ], [ 3.231056, 13.126490999999884 ], [ 3.163049, 13.125169 ], [ 3.141286, 13.039238 ], [ 3.08552, 12.986357 ], [ 3.092321, 12.963883 ], [ 3.170017, 12.930416 ] ] ] } },
{ "type": "Feature", "properties": { "loc": "NE-A2-0401" }, "geometry": { "type": "Polygon", "coordinates": [ [ [ 7.44497021045779, 13.547963334099862 ], [ 7.307947000085978, 13.518955000028772 ], [ 7.221961999978209, 13.541951000194192 ], [ 7.162946000239621, 13.538956999721314 ], [ 7.100959, 13.50695 ], [ 7.03895, 13.516955999999887 ], [ 6.902946, 13.464955 ], [ 6.906952, 13.396954 ], [ 6.875948, 13.381946 ], [ 6.901945, 13.357951999999891 ], [ 6.853951000282819, 13.37495600000695 ], [ 6.798957000309645, 13.350950000030011 ], [ 6.765961000344266, 13.271951000126077 ], [ 6.801952999975335, 13.212953999914685 ], [ 6.778851461669998, 13.18316758140627 ], [ 6.79199218723404, 13.158604622293009 ], [ 6.928008080417079, 12.989852905351835 ], [ 7.010057926040979, 12.991496086339822 ], [ 7.136394977554637, 13.023158073350967 ], [ 7.227887153948874, 13.110926628412418 ], [ 7.400719166335922, 13.101790427714484 ], [ 7.611734268301294, 13.216600286702302 ], [ 7.57796599981052, 13.258949000324556 ], [ 7.55998299969519, 13.345988999621046 ], [ 7.499976999718193, 13.360982000347494 ], [ 7.432982000298548, 13.341981000051568 ], [ 7.402974999675958, 13.370983000193721 ], [ 7.38996000022517, 13.417953000020884 ], [ 7.44497021045779, 13.547963334099862 ] ] ] } },
{ "type": "Feature", "properties": { "loc": "NE-A2-0404" }, "geometry": { "type": "Polygon", "coordinates": [ [ [ 6.743944000000145, 13.889956 ], [ 6.610952999885576, 13.806955000033856 ], [ 6.472958999862431, 13.847955000383578 ], [ 6.417960999704896, 13.803953000091536 ], [ 6.346952999585774, 13.847958999668748 ], [ 6.369961000304457, 13.80295499993391 ], [ 6.298952000139156, 13.775959999714811 ], [ 6.278950000446702, 13.732955999580394 ], [ 6.306494119512461, 13.658301953632908 ], [ 6.433632373966379, 13.591983794887881 ], [ 6.677834034373152, 13.355463028446408 ], [ 6.77885146148579, 13.183167580669704 ], [ 6.801952999791126, 13.212954000077488 ], [ 6.765961000160058, 13.27195100028888 ], [ 6.789957999721917, 13.340950000392588 ], [ 6.853951000098611, 13.374956000169664 ], [ 6.901945000121611, 13.357952000234992 ], [ 6.875948000060138, 13.38194599965858 ], [ 6.906951999894893, 13.39695400017737 ], [ 6.907953000190791, 13.469958999758465 ], [ 7.03895000040221, 13.516955999670017 ], [ 7.100959000117722, 13.50694999959325 ], [ 7.129950999798794, 13.532955000023623 ], [ 7.184954999855307, 13.541955999975048 ], [ 7.297952000066697, 13.51894999979832 ], [ 7.404949000128124, 13.535962000101893 ], [ 7.451947, 13.549953 ], [ 7.487988999792648, 13.590981000097209 ], [ 7.483975999892532, 13.660979999824292 ], [ 7.408966000066584, 13.756953000007517 ], [ 7.216948, 13.761957 ], [ 7.134958, 13.80195 ], [ 7.074952, 13.803955 ], [ 7.043948, 13.857955 ], [ 6.960949, 13.883947999999897 ], [ 6.891722, 13.864934999999896 ], [ 6.743944000000145, 13.889956 ] ] ] } },
{ "type": "Feature", "properties": { "loc": "NE-A2-0405" }, "geometry": { "type": "Polygon", "coordinates": [ [ [ 8.071951999890313, 14.446953999906604 ], [ 8.010952999938358, 14.45395699995073 ], [ 7.99294899984616, 14.512954000056428 ], [ 7.950948999995987, 14.514949000190942 ], [ 7.843950999940695, 14.422955999903149 ], [ 7.778964999859227, 14.419952999939252 ], [ 7.697948, 14.342949 ], [ 7.510959, 14.400958999999887 ], [ 7.44995, 14.483952999999889 ], [ 7.368951, 14.485953999999897 ], [ 7.355958, 14.511959 ], [ 7.220954, 14.509953 ], [ 7.221956, 14.488955 ], [ 7.192957, 14.462957 ], [ 7.16595099985987, 14.396960000139032 ], [ 7.177957000148126, 14.293944999968051 ], [ 7.204953999854112, 14.279951000156306 ], [ 7.188948999988686, 14.214961999935323 ], [ 7.224953000080824, 14.165952999902682 ], [ 7.227946999867584, 14.112955000073697 ], [ 7.25294499986434, 14.097952999968406 ], [ 7.248955, 13.937956 ], [ 7.324956000015913, 13.874955000010143 ], [ 7.335952999971727, 13.838955000010174 ], [ 7.449951999837388, 13.702958000245786 ], [ 7.54195, 13.701954 ], [ 7.681946, 13.751956 ], [ 7.74795500019717, 13.736949000082372 ], [ 7.8639619998205, 13.766956999851772 ], [ 7.995965999705167, 13.857953999963275 ], [ 8.059945999931927, 13.927953999913285 ], [ 8.056958000133228, 13.970952999809345 ], [ 8.089949999911848, 14.006955999820754 ], [ 8.040945999926873, 14.007950999862402 ], [ 8.076947999973015, 14.062954000056411 ], [ 7.954952000115188, 14.037956000127512 ], [ 8.059958999901827, 14.299961000142964 ], [ 8.071951999890313, 14.446953999906604 ] ] ] } },
{ "type": "Feature", "properties": { "loc": "NE-A2-0406" }, "geometry": { "type": "Polygon", "coordinates": [ [ [ 7.950974000232712, 14.514972999927895 ], [ 7.850859200393, 14.428816279278074 ], [ 7.950948999995987, 14.514949000190942 ], [ 7.99294899984616, 14.512954000056428 ], [ 8.010952999938358, 14.45395699995073 ], [ 8.071951999890313, 14.446953999906604 ], [ 8.059958999901827, 14.299961000142964 ], [ 7.954952000115188, 14.037956000127512 ], [ 8.076947999973015, 14.062954000056411 ], [ 8.040945999926873, 14.007950999862402 ], [ 8.089949999911937, 14.006955999820843 ], [ 8.056958000133228, 13.970952999809256 ], [ 8.059945999932015, 13.927953999913374 ], [ 7.995965999705255, 13.857953999963186 ], [ 7.863961999820411, 13.76695699985186 ], [ 7.738952000000175, 13.737952 ], [ 7.802954000000316, 13.677949 ], [ 7.868954000003058, 13.557947999933813 ], [ 7.95894899988777, 13.524958000089367 ], [ 8.010961999937681, 13.575956000118179 ], [ 8.049986, 13.525989 ], [ 8.16896199991216, 13.49195300005654 ], [ 8.192949999807229, 13.388959999648726 ], [ 8.1329449998765, 13.340956000063837 ], [ 8.109963000356789, 13.287954000221376 ], [ 8.239674275811769, 13.211764799850041 ], [ 8.306970999576567, 13.288974000494154 ], [ 8.318985361150087, 13.350966782735281 ], [ 8.346970999988145, 13.370976999990898 ], [ 8.319971000207126, 13.538977999859565 ], [ 8.350968999986051, 13.582974999890336 ], [ 8.223972999953354, 13.670976000113129 ], [ 8.224971904549459, 13.716968600493669 ], [ 8.322951, 13.787952 ], [ 8.516973000199744, 13.876972000171701 ], [ 8.54297699994223, 14.009979999881423 ], [ 8.512973000149714, 14.068976999987122 ], [ 8.515974000065217, 14.155978000056741 ], [ 8.420971999876802, 14.193977999885394 ], [ 8.388976000019031, 14.264975000140918 ], [ 8.261976999917252, 14.382977000087145 ], [ 8.190973999972982, 14.392973999918031 ], [ 8.163972000151652, 14.423974000192814 ], [ 8.071972999924913, 14.446971999871856 ], [ 8.010974999995955, 14.453975999939157 ], [ 7.992969999832354, 14.512971999887831 ], [ 7.950974000232712, 14.514972999927895 ] ] ] } },
{ "type": "Feature", "properties": { "loc": "NE-A2-0407" }, "geometry": { "type": "Polygon", "coordinates": [ [ [ 8.022954000007692, 13.567956000215691 ], [ 7.993965418649749, 13.571964723739462 ], [ 7.973948002778704, 13.532948997444729 ], [ 7.949953000611087, 13.523952999877496 ], [ 7.862945098118382, 13.562961579259929 ], [ 7.832326000025478, 13.555492000102177 ], [ 7.852403000478687, 13.506139000361031 ], [ 7.835477000543738, 13.439327000387211 ], [ 7.896576000562574, 13.435127000057459 ], [ 7.869761685833732, 13.332709617201527 ], [ 8.110256294672858, 13.287607258614546 ], [ 8.132945000092278, 13.340956000165729 ], [ 8.19295000002308, 13.388959999750641 ], [ 8.178954000307467, 13.479960000000453 ], [ 8.15294699978481, 13.500951000334851 ], [ 8.049986000134396, 13.525989000238624 ], [ 8.022954000007692, 13.567956000215691 ] ] ] } },
{ "type": "Feature", "properties": { "loc": "NE-A2-0408" }, "geometry": { "type": "Polygon", "coordinates": [ [ [ 7.490958000077118, 15.004950000064472 ], [ 7.410968000207806, 15.142958999972329 ], [ 7.422942999781267, 15.286947000145208 ], [ 7.252947000223152, 15.359957000051079 ], [ 7.01224599996516, 15.43653499995898 ], [ 7.023004, 14.818954 ], [ 6.845952, 14.845955 ], [ 6.78295, 14.919956 ], [ 6.749951, 14.922949999999897 ], [ 6.71495000000014, 14.869953 ], [ 6.668953, 14.834948 ], [ 6.557954, 14.82795 ], [ 6.474947, 14.475954 ], [ 6.497955, 14.304958 ], [ 6.535959, 14.281953999999892 ], [ 6.541955, 14.141956 ], [ 6.519957000000108, 14.13096 ], [ 6.529947000000146, 14.068956 ], [ 6.5239480000001, 14.045946 ], [ 6.465946, 14.012956 ], [ 6.41695, 14.005951 ], [ 6.328947, 13.925951 ], [ 6.330946000000136, 13.849953 ], [ 6.361946, 13.84495 ], [ 6.417961000000126, 13.803953 ], [ 6.472959, 13.847955 ], [ 6.610953, 13.806955 ], [ 6.743944000000145, 13.889956 ], [ 6.891722, 13.864934999999896 ], [ 6.960949, 13.883947999999897 ], [ 7.043948, 13.857955 ], [ 7.074952, 13.803955 ], [ 7.134958, 13.80195 ], [ 7.216948, 13.761957 ], [ 7.408966000066584, 13.756953000007517 ], [ 7.335952999971727, 13.838955000010174 ], [ 7.324956000015913, 13.874955000010143 ], [ 7.248955, 13.937956 ], [ 7.25294499986434, 14.097952999968406 ], [ 7.227946999867584, 14.112955000073697 ], [ 7.224953000080824, 14.165952999902682 ], [ 7.188948999988686, 14.214961999935323 ], [ 7.204953999854112, 14.279951000156306 ], [ 7.177957000148126, 14.293944999968051 ], [ 7.16595099985987, 14.396960000139032 ], [ 7.192957, 14.462957 ], [ 7.221956, 14.488955 ], [ 7.220954, 14.509953 ], [ 7.355958, 14.511959 ], [ 7.368951, 14.485953999999897 ], [ 7.44995, 14.483952999999889 ], [ 7.510959, 14.400958999999887 ], [ 7.697948, 14.342949 ], [ 7.778964999859227, 14.419952999939252 ], [ 7.706972999973281, 14.467952000035673 ], [ 7.699954000009811, 14.530958999972317 ], [ 7.715959999898413, 14.636961000218225 ], [ 7.597951999813933, 14.696953999906999 ], [ 7.53895200008866, 14.708946999895485 ], [ 7.551954999982989, 14.771960999993468 ], [ 7.515957000029104, 14.815951999885897 ], [ 7.490958000077118, 15.004950000064472 ] ] ] } },
{ "type": "Feature", "properties": { "loc": "NE-A2-0409" }, "geometry": { "type": "Polygon", "coordinates": [ [ [ 7.023004, 14.818953999999895 ], [ 7.01224599996519, 15.436534999958972 ], [ 6.724963999910534, 15.426959999963607 ], [ 6.629944, 15.257955 ], [ 6.555946, 15.004953 ], [ 6.557954, 14.82795 ], [ 6.668953, 14.834948 ], [ 6.714950000000171, 14.869953 ], [ 6.749951, 14.92294999999989 ], [ 6.78295, 14.919956 ], [ 6.845952, 14.845955 ], [ 7.023004, 14.818953999999895 ] ] ] } },
{ "type": "Feature", "properties": { "loc": "NE-A2-0410" }, "geometry": { "type": "Polygon", "coordinates": [ [ [ 7.690953999660742, 13.751958999927734 ], [ 7.541950000004714, 13.701954000269829 ], [ 7.448003472694374, 13.706950110152345 ], [ 7.483976000204461, 13.660980000219709 ], [ 7.487989000004568, 13.590980999866193 ], [ 7.426986999962303, 13.52398900058482 ], [ 7.389960000266026, 13.417953000323575 ], [ 7.427981999981569, 13.342989000334988 ], [ 7.524987000162163, 13.360984000104388 ], [ 7.564982000031538, 13.341984999900731 ], [ 7.577965999864343, 13.258949000415861 ], [ 7.611734268355118, 13.216600286793607 ], [ 7.804099082780112, 13.334239959891931 ], [ 7.869761686226472, 13.332709617740353 ], [ 7.899728999767174, 13.414245999938608 ], [ 7.896576000055987, 13.435126999696951 ], [ 7.835477000037226, 13.439327000026697 ], [ 7.852315999916858, 13.508796000055163 ], [ 7.829151000051958, 13.551038000123423 ], [ 7.862945097971284, 13.562961578733663 ], [ 7.813952999764449, 13.661954999743227 ], [ 7.738951999868281, 13.73795199970484 ], [ 7.690953999660742, 13.751958999927734 ] ] ] } },
{ "type": "Feature", "properties": { "loc": "NE-A2-0504" }, "geometry": { "type": "Polygon", "coordinates": [ [ [ 6.554966, 14.816959 ], [ 6.51995, 14.815952 ], [ 6.475943, 14.624949999999899 ], [ 6.264962, 14.643948999999896 ], [ 6.184951, 14.706953 ], [ 6.156954, 14.704948999999896 ], [ 6.111966, 14.693961 ], [ 6.097948, 14.674954 ], [ 6.10096, 14.634954 ], [ 5.98695, 14.63496 ], [ 5.971955, 14.556954 ], [ 5.697951, 14.515947 ], [ 5.674955, 14.483958 ], [ 5.675956, 14.445952 ], [ 5.648952, 14.383949 ], [ 5.703947, 14.190949 ], [ 5.724954, 14.179951 ], [ 5.724948, 14.191951 ], [ 6.016961, 14.264952 ], [ 6.069959, 14.268951 ], [ 6.134957, 14.246954 ], [ 6.19196, 14.261957 ], [ 6.28095, 14.247958 ], [ 6.395953, 14.277952 ], [ 6.481964, 14.353955 ], [ 6.475957, 14.489958999999892 ], [ 6.554966, 14.816959 ] ] ] } },
{ "type": "Feature", "properties": { "loc": "NE-A2-0507" }, "geometry": { "type": "Polygon", "coordinates": [ [ [ 6.516948, 14.282958 ], [ 6.482957, 14.362955 ], [ 6.395953, 14.277952 ], [ 6.300948, 14.249956 ], [ 6.19196, 14.261957 ], [ 6.134957, 14.246954 ], [ 6.069959, 14.268951 ], [ 6.016961, 14.264952 ], [ 5.724948, 14.191951 ], [ 5.728952, 14.024954 ], [ 5.742957, 14.006956999999893 ], [ 5.738952593172129, 13.800739833527249 ], [ 6.084767818348289, 13.679957390393511 ], [ 6.149414061977541, 13.642834663261301 ], [ 6.225430964835287, 13.666686058087336 ], [ 6.306494120175664, 13.658301952945013 ], [ 6.278950000210447, 13.73295599979178 ], [ 6.298951999902989, 13.775959999926286 ], [ 6.369961000068201, 13.802955000145385 ], [ 6.346953000248888, 13.847958999880223 ], [ 6.330946000425751, 13.849953000103117 ], [ 6.328946999986172, 13.925951000055399 ], [ 6.41695, 14.005951 ], [ 6.465946, 14.012956 ], [ 6.5239480000001, 14.045946 ], [ 6.519957000000108, 14.13096 ], [ 6.541948, 14.152951 ], [ 6.535959, 14.281953999999892 ], [ 6.516948, 14.282958 ] ] ] } },
{ "type": "Feature", "properties": { "loc": "NE-A2-0509" }, "geometry": { "type": "Polygon", "coordinates": [ [ [ 6.583957000079042, 15.908948000068452 ], [ 6.640950999865712, 16.19194599984743 ], [ 6.384954999907976, 16.310955000079836 ], [ 6.343950000067476, 16.358955999803122 ], [ 6.255732999873619, 16.55747400003726 ], [ 6.004851, 16.384085999999893 ], [ 6.030555, 16.082219 ], [ 5.597399000022771, 15.502582999941179 ], [ 5.771178000023034, 15.506288999951874 ], [ 5.763568999971223, 15.338508000120594 ], [ 5.700161999790541, 15.280149999970334 ], [ 5.608949999789412, 15.15794900021767 ], [ 5.646951000062326, 15.01195400008319 ], [ 5.763569, 14.985926 ], [ 5.837121, 14.990789999999894 ], [ 5.915746, 14.959178999999896 ], [ 6.055242, 14.988358 ], [ 6.105969, 14.973768 ], [ 6.144013, 14.90082 ], [ 6.184969, 14.706939 ], [ 6.264962, 14.643948999999896 ], [ 6.475943, 14.624949999999899 ], [ 6.51995, 14.815952 ], [ 6.557954, 14.82795 ], [ 6.555946, 15.004953 ], [ 6.629944, 15.257955 ], [ 6.724963999910504, 15.426959999963614 ], [ 6.583957000079042, 15.908948000068452 ] ] ] } },
{ "type": "Feature", "properties": { "loc": "NE-A2-0510" }, "geometry": { "type": "Polygon", "coordinates": [ [ [ 5.300946, 14.552951 ], [ 5.269952, 14.530961 ], [ 5.17695, 14.535948999999899 ], [ 5.005948, 14.470952 ], [ 4.907957, 14.497955 ], [ 4.850971, 14.473965 ], [ 4.919884000000105, 14.424496 ], [ 4.917236, 14.353434 ], [ 4.882823, 14.295061 ], [ 4.922531, 14.074261 ], [ 4.998958, 14.07696 ], [ 5.087953, 14.128955 ], [ 5.255958, 14.018952 ], [ 5.372951, 14.154948 ], [ 5.681959, 14.261946999999893 ], [ 5.648956, 14.384951 ], [ 5.675956, 14.445952 ], [ 5.674955, 14.483958 ], [ 5.697951, 14.515947 ], [ 5.55195, 14.49995 ], [ 5.300946, 14.552951 ] ] ] } },
{ "type": "Feature", "properties": { "loc": "NE-A2-0511" }, "geometry": { "type": "Polygon", "coordinates": [ [ [ 4.566952000000119, 14.579947 ], [ 4.482955000000172, 14.692955 ], [ 4.207958999895362, 14.684947999894426 ], [ 4.256958000047434, 14.6349509999805 ], [ 4.342955000000143, 14.604955 ], [ 4.432955000000111, 14.437952 ], [ 4.412954, 14.287949 ], [ 4.444958, 14.110955 ], [ 4.918958, 14.056952 ], [ 4.953955, 14.065959 ], [ 4.922531000000125, 14.074261 ], [ 4.882823, 14.295061 ], [ 4.917236, 14.353434 ], [ 4.919884000000136, 14.424496 ], [ 4.850971, 14.473965 ], [ 4.566952000000119, 14.579947 ] ] ] } },
{ "type": "Feature", "properties": { "loc": "NE-A2-0512" }, "geometry": { "type": "Polygon", "coordinates": [ [ [ 5.64893599997752, 15.008969000036139 ], [ 5.664954000131437, 14.901954999856422 ], [ 5.638946999870185, 14.842954000108151 ], [ 5.592953000108412, 14.820953000035093 ], [ 5.606948999966241, 14.753954999806425 ], [ 5.577953000033484, 14.725947000171509 ], [ 5.562946999820215, 14.671946000148512 ], [ 5.505953000033545, 14.6359519998372 ], [ 5.414957000000817, 14.620954999831444 ], [ 5.380957999824019, 14.586950999988986 ], [ 5.364957000033885, 14.540949000028487 ], [ 5.558955, 14.499953999999899 ], [ 5.971955, 14.556954 ], [ 5.98695, 14.63496 ], [ 6.10096, 14.634954 ], [ 6.097948, 14.674954 ], [ 6.113944, 14.695954 ], [ 6.184969, 14.706939 ], [ 6.144013, 14.90082 ], [ 6.105969, 14.973768 ], [ 6.055242, 14.988358 ], [ 5.915746, 14.959178999999896 ], [ 5.837121, 14.990789999999894 ], [ 5.64893599997752, 15.008969000036139 ] ] ] } },
{ "type": "Feature", "properties": { "loc": "NE-A2-0513" }, "geometry": { "type": "Polygon", "coordinates": [ [ [ 5.087953, 14.128955 ], [ 5.007955, 14.079952 ], [ 4.918958, 14.056952 ], [ 4.444958, 14.110955 ], [ 4.463948000000104, 14.004955 ], [ 4.511953, 13.952952 ], [ 4.571948000000101, 13.843955 ], [ 4.597480701353649, 13.730251481228368 ], [ 4.870760918000037, 13.782478333000121 ], [ 4.909518719000014, 13.748609543 ], [ 5.270488261730431, 13.74610042578956 ], [ 5.354969977999988, 13.844792366000132 ], [ 5.526512146, 13.892006874000025 ], [ 5.542554406146425, 13.885231979058261 ], [ 5.55296, 13.942955 ], [ 5.500951, 13.958948999999894 ], [ 5.452958, 13.913957 ], [ 5.404953, 13.922957 ], [ 5.375961, 13.956954 ], [ 5.374949, 14.02795 ], [ 5.328944, 14.036949 ], [ 5.295962, 14.00695 ], [ 5.087953, 14.128955 ] ] ] } },
{ "type": "Feature", "properties": { "loc": "NE-A2-0514" }, "geometry": { "type": "Polygon", "coordinates": [ [ [ 5.724954000096925, 14.179951000333642 ], [ 5.703946999923946, 14.190949000291404 ], [ 5.68195900037741, 14.261946999949355 ], [ 5.372951, 14.154948 ], [ 5.267958, 14.031954 ], [ 5.295962, 14.00695 ], [ 5.328944, 14.036949 ], [ 5.374949, 14.02795 ], [ 5.375961, 13.956954 ], [ 5.404953, 13.922957 ], [ 5.452958, 13.913957 ], [ 5.500951, 13.958948999999894 ], [ 5.55296, 13.942955 ], [ 5.542554406146425, 13.885231979058261 ], [ 5.738952593457323, 13.800739833871507 ], [ 5.742957000235225, 14.006956999661053 ], [ 5.728952000104601, 14.024954000422003 ], [ 5.724954000096925, 14.179951000333642 ] ] ] } },
{ "type": "Feature", "properties": { "loc": "NE-A2-0515" }, "geometry": { "type": "Polygon", "coordinates": [ [ [ 6.030555, 16.082219 ], [ 6.004851, 16.384085999999893 ], [ 5.767097, 16.624348 ], [ 5.432957, 16.796844 ], [ 5.047410000005068, 17.215760999852066 ], [ 4.623308000004154, 16.624348000072882 ], [ 4.848210000217654, 16.236233000219098 ], [ 4.976726000224239, 15.798833999837498 ], [ 5.13737100000776, 15.466164000027067 ], [ 5.278738000001346, 15.416879999948847 ], [ 5.336957000159646, 15.417510999923074 ], [ 5.336957000159646, 15.290455000133303 ], [ 5.357814999922303, 15.219037000058506 ], [ 5.423969000052717, 15.176968999904368 ], [ 5.478961999966567, 15.20597300015762 ], [ 5.608968999959738, 15.157968000051287 ], [ 5.657044999815795, 15.207202000145177 ], [ 5.700161999790541, 15.280149999970334 ], [ 5.763568999971223, 15.338508000120594 ], [ 5.76864200001642, 15.399297999810564 ], [ 5.771178000023034, 15.506288999951874 ], [ 5.597399000022771, 15.502582999941179 ], [ 6.030555, 16.082219 ] ] ] } },
{ "type": "Feature", "properties": { "loc": "NE-A2-0516" }, "geometry": { "type": "Polygon", "coordinates": [ [ [ 6.255732999873649, 16.557474000037253 ], [ 6.139952999837002, 16.816959999995362 ], [ 6.041952000163659, 16.943951999935802 ], [ 5.554951000015568, 17.30295299983392 ], [ 5.219952000013767, 17.471955999878041 ], [ 5.141955999806286, 17.634957000026141 ], [ 5.090952000088728, 17.700959000222138 ], [ 4.889947000048406, 17.818951999960763 ], [ 4.8729610000463, 17.92394799994349 ], [ 4.733980999877713, 17.947949000021623 ], [ 4.897740000122458, 17.335205000148079 ], [ 5.047410000005098, 17.215760999852058 ], [ 5.432957, 16.796844 ], [ 5.767097, 16.624348 ], [ 6.004851, 16.384085999999886 ], [ 6.255732999873649, 16.557474000037253 ] ] ] } },
{ "type": "Feature", "properties": { "loc": "NE-A2-0517" }, "geometry": { "type": "Polygon", "coordinates": [ [ [ 4.243463542981905, 18.675385941733314 ], [ 4.241202830819768, 16.987701415913104 ], [ 4.076757907824968, 16.912309647098024 ], [ 4.076467990679008, 16.320419311827269 ], [ 3.987740992726415, 16.060646056795573 ], [ 4.004404067767295, 15.985980987857793 ], [ 3.929571867021827, 15.909518241599061 ], [ 3.905695915308027, 15.77408027580957 ], [ 3.875264597456989, 15.695463908657947 ], [ 4.094739000478271, 15.194073000194294 ], [ 4.845692999805879, 15.209667999903763 ], [ 4.867574999860137, 15.314563999754276 ], [ 4.944164000142274, 15.387990999910208 ], [ 5.038987000423512, 15.401977000063992 ], [ 5.199707999898059, 15.391922000425469 ], [ 5.272400000333531, 15.321557000280828 ], [ 5.336956999739528, 15.290455000423421 ], [ 5.336956999739528, 15.417510999658397 ], [ 5.278738000332232, 15.416880000237311 ], [ 5.137371000345172, 15.466164000393793 ], [ 4.976725999878774, 15.79883400001458 ], [ 4.848209999865383, 16.236232999878531 ], [ 4.623308000337727, 16.624348000485323 ], [ 5.047410000345022, 17.215760999895718 ], [ 4.897739999675027, 17.33520499973644 ], [ 4.733957000189189, 17.947954000102513 ], [ 4.728953999701107, 18.001956000194742 ], [ 4.817962999866332, 18.128966000006386 ], [ 4.817966000004678, 18.248960000029466 ], [ 4.760968000246796, 18.425971000686623 ], [ 4.781969000143024, 18.490969999791147 ], [ 4.840975999916245, 18.569963000317699 ], [ 4.869969999689516, 18.677971999833417 ], [ 4.243463542981905, 18.675385941733314 ] ] ] } },
{ "type": "Feature", "properties": { "loc": "NE-A2-0519" }, "geometry": { "type": "Polygon", "coordinates": [ [ [ 5.357814999922368, 15.219037000058563 ], [ 5.336957000159771, 15.29045500013325 ], [ 5.27240000000188, 15.32155699997071 ], [ 5.205535000141879, 15.38903600004852 ], [ 5.038987000046916, 15.401976999862313 ], [ 4.944163999906493, 15.387990999785302 ], [ 4.867575000215027, 15.31456400015702 ], [ 4.845693000125266, 15.209667999854673 ], [ 4.090673000145443, 15.196082000139029 ], [ 4.128960999914, 15.01095200018392 ], [ 4.12195999991593, 14.77595400010506 ], [ 4.207958999895368, 14.684947999894518 ], [ 4.482955000000118, 14.692955 ], [ 4.566952, 14.579947 ], [ 4.850951, 14.473958 ], [ 4.907957, 14.497955 ], [ 5.005948, 14.470951999999897 ], [ 5.17695, 14.535948999999846 ], [ 5.269952000000103, 14.530961 ], [ 5.300946000000181, 14.552951 ], [ 5.364957000033826, 14.540949000028434 ], [ 5.380957999824091, 14.586950999989028 ], [ 5.414957000000868, 14.62095499983144 ], [ 5.505953000033685, 14.635951999837175 ], [ 5.562946999820156, 14.671946000148466 ], [ 5.57795300003346, 14.725947000171573 ], [ 5.606948999966278, 14.753954999806467 ], [ 5.592953000108537, 14.820953000035047 ], [ 5.638946999870257, 14.842954000108193 ], [ 5.665951000187135, 14.905950999814081 ], [ 5.60896899995987, 15.157968000051426 ], [ 5.478961999966543, 15.205973000157655 ], [ 5.423969000052693, 15.176968999904432 ], [ 5.357814999922368, 15.219037000058563 ] ], [ [ 5.41695599977794, 14.993948999967984 ], [ 5.380953000158513, 14.928960000196582 ], [ 5.443953999956705, 14.919948000144586 ], [ 5.352954999854887, 14.835955000156162 ], [ 5.351950000043018, 14.73295399990559 ], [ 5.319985, 14.748209 ], [ 5.23315, 14.726563999999883 ], [ 5.198416000000179, 14.769855 ], [ 5.167155, 14.773185 ], [ 5.130684, 14.741549 ], [ 5.071963000000153, 14.764954999999873 ], [ 5.057954000000109, 14.785957 ], [ 4.974954, 14.788952 ], [ 4.970949000000132, 14.815958 ], [ 4.986948000000154, 14.834958999999856 ], [ 5.066950000000134, 14.868953 ], [ 4.994949000000133, 14.934951 ], [ 4.993112000000167, 15.0139 ], [ 5.05427, 14.956336 ], [ 5.146315000000186, 14.949676 ], [ 5.210573, 14.984641 ], [ 5.300881, 14.997961 ], [ 5.359929, 14.98589 ], [ 5.382977000000153, 15.019071 ], [ 5.41695599977794, 14.993948999967984 ] ] ] } },
{ "type": "Feature", "properties": { "loc": "NE-A2-0520" }, "geometry": { "type": "Polygon", "coordinates": [ [ [ 5.382977000000153, 15.019071 ], [ 5.359929, 14.98589 ], [ 5.300881, 14.997961 ], [ 5.210573, 14.984641 ], [ 5.146315000000186, 14.949676 ], [ 5.05427, 14.956336 ], [ 4.993112000000167, 15.0139 ], [ 4.994949000000133, 14.934951 ], [ 5.066950000000134, 14.868953 ], [ 4.986948000000154, 14.834958999999856 ], [ 4.970949000000132, 14.815958 ], [ 4.974954, 14.788952 ], [ 5.057954000000109, 14.785957 ], [ 5.071963000000153, 14.764954999999873 ], [ 5.130684, 14.741549 ], [ 5.167155, 14.773185 ], [ 5.198416000000179, 14.769855 ], [ 5.23315, 14.726563999999883 ], [ 5.319985, 14.748209 ], [ 5.351950000043018, 14.73295399990559 ], [ 5.352954999854887, 14.835955000156162 ], [ 5.443953999956705, 14.919948000144586 ], [ 5.380953000158513, 14.928960000196582 ], [ 5.41695599977794, 14.993948999967984 ], [ 5.382977000000153, 15.019071 ] ] ] } },
{ "type": "Feature", "properties": { "loc": "NE-A2-0603" }, "geometry": { "type": "Polygon", "coordinates": [ [ [ 2.063961999877892, 13.897959000187949 ], [ 1.979964000223719, 13.857956000068867 ], [ 1.926963999899054, 13.879953000049667 ], [ 1.88596100010455, 13.869947000011269 ], [ 1.857966999928826, 13.880954000131691 ], [ 1.788986818912383, 13.848957957676706 ], [ 1.74898999972418, 13.77699399977443 ], [ 1.692965000128885, 13.746959999841231 ], [ 1.630967855596341, 13.778954023526175 ], [ 1.58696199985989, 13.723952999954587 ], [ 1.490965999996372, 13.669960000131471 ], [ 1.484998999832796, 13.616978999873481 ], [ 1.534998000258833, 13.539986999688676 ], [ 1.747995999866822, 13.483992000318974 ], [ 1.804995000120466, 13.397987000188323 ], [ 1.850001999993664, 13.361988000234355 ], [ 1.907997000020542, 13.180986000001322 ], [ 1.93599299982846, 13.154980999786154 ], [ 1.997996, 13.184990999999897 ], [ 1.997994, 13.226992 ], [ 2.054996, 13.243988999999896 ], [ 2.102989, 13.210986 ], [ 2.126988, 13.154987999999896 ], [ 2.369998, 13.192992 ], [ 2.385990000182434, 13.022978999931674 ], [ 2.371001999934594, 12.978992000131413 ], [ 2.388001999809606, 12.880989999985477 ], [ 2.477995000098008, 12.789982000125661 ], [ 2.500993999800047, 12.734990000185338 ], [ 2.477995000098008, 12.687988000114121 ], [ 2.544002999982484, 12.645981000102609 ], [ 2.511997000070152, 12.582983999938442 ], [ 2.564996000223938, 12.514989000268812 ], [ 2.623998000127457, 12.595982999854378 ], [ 2.629995999931576, 12.6849840002021 ], [ 2.593990999816174, 12.817988999842829 ], [ 2.62200294962097, 12.877983814706457 ], [ 2.698997000000101, 12.908989000000144 ], [ 2.699993, 12.946985 ], [ 2.535998000000137, 12.97499 ], [ 2.469993, 13.114993 ], [ 2.472999000000118, 13.168993 ], [ 2.506962999906945, 13.196957000029848 ], [ 2.584958000091429, 13.181953999885661 ], [ 2.660963999830055, 13.217954999908805 ], [ 2.661000976038816, 13.247974974385563 ], [ 2.694959999937683, 13.26495499993376 ], [ 2.757964999827975, 13.269957000154804 ], [ 2.828969999818507, 13.250948999845331 ], [ 2.833967999947293, 13.335947000074118 ], [ 2.862969020415149, 13.4069170604395 ], [ 2.840960999957463, 13.459949000023492 ], [ 2.85099799974867, 13.548987999699964 ], [ 2.802995000042006, 13.603996000207825 ], [ 2.82399499983915, 13.657994000283775 ], [ 2.687993999968472, 13.667995000082485 ], [ 2.641995000219697, 13.72899599987802 ], [ 2.61199399994577, 13.823995000224905 ], [ 2.540993000238632, 13.873993999916507 ], [ 2.241993000065121, 13.858987000173091 ], [ 2.182998000005507, 13.8369910002152 ], [ 2.063961999877892, 13.897959000187949 ] ], [ [ 2.154995999887386, 13.601990999926556 ], [ 2.214991999875724, 13.63298899986642 ], [ 2.261999000062018, 13.620991999785677 ], [ 2.234998999837265, 13.569984999999036 ], [ 2.234003999885146, 13.52998599998136 ], [ 2.200995, 13.524981 ], [ 2.205, 13.45899 ], [ 2.121, 13.422984999999894 ], [ 2.101998, 13.441986 ], [ 2.073993, 13.43099 ], [ 2.040999, 13.48199 ], [ 1.969996000108085, 13.507989999902321 ], [ 2.055996000112201, 13.586983000116799 ], [ 2.154995999887386, 13.601990999926556 ] ] ] } },
{ "type": "Feature", "properties": { "loc": "NE-A2-0607" }, "geometry": { "type": "Polygon", "coordinates": [ [ [ 3.335775000173977, 14.625072000123769 ], [ 3.323893000046971, 14.674986999912516 ], [ 3.133768999985729, 14.740259999936995 ], [ 2.929970712888728, 14.955964808480378 ], [ 2.865961000165949, 14.911953999976131 ], [ 2.786960000202874, 14.885950999712367 ], [ 2.787958999971649, 14.735951999956338 ], [ 2.805967000189589, 14.664957000336472 ], [ 2.786961000112806, 14.491952000055903 ], [ 2.814967999786009, 14.408952000005932 ], [ 2.754993999743713, 14.253995000188997 ], [ 2.799994000193382, 14.166992999946899 ], [ 2.732996999782098, 14.156996000285123 ], [ 2.765995999885926, 14.111993999743184 ], [ 2.754962000071823, 14.101955000047735 ], [ 2.644966999937224, 14.114957999942153 ], [ 2.56099649097917, 14.074982961386269 ], [ 2.562994000373151, 14.025995000103393 ], [ 2.542974152828701, 14.009958173907862 ], [ 2.533993000277088, 13.971995000103394 ], [ 2.560995999890578, 13.910996000028604 ], [ 2.616994000283976, 13.880993999969888 ], [ 2.870997000022633, 13.858993999869913 ], [ 2.912995000080296, 13.877996000212018 ], [ 2.939995000080251, 13.849995999962257 ], [ 3.050994999930388, 13.873995000065893 ], [ 3.018996000076455, 13.827996999908461 ], [ 3.026994000184078, 13.800994999816147 ], [ 3.077994999930342, 13.762994000169755 ], [ 3.110994000034171, 13.758994000069809 ], [ 3.129996000079802, 13.729993000087255 ], [ 3.16397656711128, 13.809951382401238 ], [ 3.327963000018062, 13.743950000214351 ], [ 3.48596199987202, 13.804952999853022 ], [ 3.721961000022787, 14.005952000250428 ], [ 3.73999599989133, 14.030995999782476 ], [ 3.770993000096854, 14.196995999832502 ], [ 3.865994999792064, 14.322993999988949 ], [ 3.910428968363209, 14.358481660255258 ], [ 3.848752451892277, 14.434948622513506 ], [ 3.834324096807715, 14.504204726199816 ], [ 3.851638122729226, 14.700430351212308 ], [ 3.83040570208951, 14.757572592333918 ], [ 3.684334999869452, 14.736420000007673 ], [ 3.628882000091358, 14.690345000176848 ], [ 3.418953999829664, 14.621233000188756 ], [ 3.335775000173977, 14.625072000123769 ] ] ] } },
{ "type": "Feature", "properties": { "loc": "NE-A2-0608" }, "geometry": { "type": "Polygon", "coordinates": [ [ [ 3.875264597613657, 15.695463908803582 ], [ 3.822273016417141, 15.663428307441691 ], [ 3.706119061276278, 15.639359473632037 ], [ 3.60765981687766, 15.526161194354877 ], [ 3.53817081486175, 15.488313674807515 ], [ 3.527505875226509, 15.341486931148225 ], [ 3.012210237443056, 15.345702068866647 ], [ 3.065959999285126, 15.067952000155955 ], [ 3.035959999884628, 15.02795300010213 ], [ 2.929970713108463, 14.955964808200601 ], [ 3.133769000269768, 14.740259999870382 ], [ 3.323893000392206, 14.674986999821389 ], [ 3.33577499974703, 14.625072000243851 ], [ 3.418953999957739, 14.621233000373941 ], [ 3.62888200053447, 14.690345000292755 ], [ 3.684335000090786, 14.736419999954293 ], [ 3.83040570208951, 14.757572592333918 ], [ 3.851638122729226, 14.700430351212308 ], [ 3.834324096807715, 14.504204726199816 ], [ 3.848752451892277, 14.434948622513506 ], [ 3.910428968363209, 14.358481660255258 ], [ 3.954965999853264, 14.38795300039672 ], [ 4.165958999992756, 14.436953000006909 ], [ 4.165993999950355, 14.493958343674347 ], [ 4.251993000000129, 14.527994 ], [ 4.256996, 14.634940645365653 ], [ 4.121959999915901, 14.775954000105003 ], [ 4.128960999913942, 15.010952000183782 ], [ 4.1039670000773, 15.167952000008906 ], [ 3.875264597613657, 15.695463908803582 ] ] ] } },
{ "type": "Feature", "properties": { "loc": "NE-A2-0609" }, "geometry": { "type": "Polygon", "coordinates": [ [ [ 2.560995999890609, 13.910996000028597 ], [ 2.540994227252708, 13.873992771248311 ], [ 2.6119939999458, 13.823995000224897 ], [ 2.641995000219727, 13.728995999878013 ], [ 2.687993999968502, 13.667995000082477 ], [ 2.82399499983918, 13.657994000283768 ], [ 2.804995999865207, 13.59899500000995 ], [ 2.877994999965211, 13.529992999641138 ], [ 2.922994999868206, 13.526994999913022 ], [ 2.924994000094977, 13.559993999964892 ], [ 2.965995999961252, 13.618997000025434 ], [ 3.109964942198723, 13.606997756582217 ], [ 3.129973414448689, 13.730027470095695 ], [ 3.110994000034201, 13.758994000069801 ], [ 3.077994999930373, 13.762994000169748 ], [ 3.026994000184108, 13.80099499981614 ], [ 3.018996000076485, 13.827996999908454 ], [ 3.050994999930418, 13.873995000065886 ], [ 2.939995000080281, 13.84999599996225 ], [ 2.912995000080326, 13.877996000212011 ], [ 2.870997000022663, 13.858993999869906 ], [ 2.616994000284007, 13.880993999969881 ], [ 2.560995999890609, 13.910996000028597 ] ] ] } },
{ "type": "Feature", "properties": { "loc": "NE-A2-0610" }, "geometry": { "type": "Polygon", "coordinates": [ [ [ 2.037530339176938, 15.317196946113416 ], [ 1.49830870060915, 15.277915972875107 ], [ 1.501963999562092, 14.709950999869932 ], [ 1.569963000315364, 14.628959999835374 ], [ 1.682961999719654, 14.422954000258166 ], [ 1.721965, 14.221957 ], [ 1.762967000194346, 14.099950000163037 ], [ 1.787954999892647, 14.070955999826769 ], [ 1.873967999987278, 14.047957000186813 ], [ 1.89296199995391, 13.909964000303461 ], [ 1.859965000096895, 13.876954000147652 ], [ 1.926963999899054, 13.879953000049667 ], [ 1.979964000223719, 13.857956000068867 ], [ 2.063961999877892, 13.897959000187949 ], [ 2.182998000005507, 13.8369910002152 ], [ 2.241993000065121, 13.858987000173091 ], [ 2.540996083529232, 13.873992918781948 ], [ 2.560995999890578, 13.910996000028604 ], [ 2.533993000277088, 13.971995000103394 ], [ 2.542974152828701, 14.009958173907862 ], [ 2.562994000373151, 14.025995000103393 ], [ 2.56099649097917, 14.074982961386269 ], [ 2.644966999937224, 14.114957999942153 ], [ 2.754962000071823, 14.101955000047735 ], [ 2.765995999885926, 14.111993999743184 ], [ 2.732996999782098, 14.156996000285123 ], [ 2.799994000193382, 14.166992999946899 ], [ 2.754993999743713, 14.253995000188997 ], [ 2.814967999786009, 14.408952000005932 ], [ 2.786961000112806, 14.491952000055903 ], [ 2.805967000189589, 14.644958999929099 ], [ 2.787958999971649, 14.735951999956338 ], [ 2.723967999853047, 14.734955999889294 ], [ 2.665960999880066, 14.706946000077643 ], [ 2.514959000287429, 14.746956000189044 ], [ 2.408050000344129, 14.749949999882723 ], [ 2.372505999975103, 14.782866999843343 ], [ 2.213716000516128, 14.801770000116594 ], [ 2.052140000283962, 14.898987000181148 ], [ 2.054926000157962, 15.193336999833935 ], [ 2.037530339176938, 15.317196946113416 ] ] ] } },
{ "type": "Feature", "properties": { "loc": "NE-A2-0611" }, "geometry": { "type": "Polygon", "coordinates": [ [ [ 2.628790140077551, 15.36712074280258 ], [ 2.037530339278383, 15.317196946056757 ], [ 2.054926000259353, 15.19333699977726 ], [ 2.052140000385358, 14.898987000124498 ], [ 2.213716000617583, 14.801770000059996 ], [ 2.37250600007649, 14.782866999786753 ], [ 2.40804999973235, 14.749949999867141 ], [ 2.514959000681984, 14.74695600029372 ], [ 2.66596099982493, 14.706945999732643 ], [ 2.723968000247662, 14.734955999993947 ], [ 2.787958999632775, 14.735952000059298 ], [ 2.786960000328401, 14.885950999713408 ], [ 2.870963999913314, 14.914959000132292 ], [ 3.035959999578965, 15.027953000205336 ], [ 3.06595999987874, 15.067952000259146 ], [ 3.012210237137382, 15.34570206896985 ], [ 2.628790140077551, 15.36712074280258 ] ] ] } },
{ "type": "Feature", "properties": { "loc": "NE-A2-0612" }, "geometry": { "type": "Polygon", "coordinates": [ [ [ 2.123995, 13.181986 ], [ 2.054996, 13.243988999999896 ], [ 2.001997, 13.229986 ], [ 1.997996, 13.184990999999897 ], [ 1.981993000118751, 13.175982000122595 ], [ 1.993988999786142, 13.151988000022481 ], [ 1.9499989999168, 13.13698299983221 ], [ 1.883987999962975, 13.020989999893668 ], [ 1.830995999822646, 12.999993000037797 ], [ 1.867995999947545, 12.954986000101272 ], [ 1.83699800016853, 12.859991000041688 ], [ 1.799997000020545, 12.847983000156944 ], [ 1.788999000041644, 12.816991000066675 ], [ 1.796997000095532, 12.715986999949465 ], [ 1.758991000157048, 12.689986999849463 ], [ 1.758992814501368, 12.61559696822296 ], [ 1.865440011042927, 12.60538959541428 ], [ 1.925850034146967, 12.693690300327827 ], [ 1.948590039593898, 12.691650390613791 ], [ 1.977509974800759, 12.737170218991185 ], [ 2.082760096196732, 12.721139907841224 ], [ 2.104160070426118, 12.730890273827828 ], [ 2.110780000691679, 12.706879616261997 ], [ 2.160629988278582, 12.68795013365251 ], [ 2.151499987229886, 12.649080275594944 ], [ 2.196029902153493, 12.624070168164465 ], [ 2.225869894175534, 12.582989692880737 ], [ 2.228260040363792, 12.521789550608027 ], [ 2.267810106046784, 12.474929809723641 ], [ 2.274280071142996, 12.428370475867041 ], [ 2.253200054113811, 12.415289878974995 ], [ 2.155159950445937, 12.419980049390063 ], [ 2.109380006656578, 12.383660316120988 ], [ 2.08211994205628, 12.393540382333086 ], [ 2.064690113132825, 12.356209755326226 ], [ 2.405395030930566, 11.901612281631753 ], [ 2.391769886445725, 11.930769920245883 ], [ 2.408190012333864, 11.954339981055568 ], [ 2.437269926140782, 11.953049659864163 ], [ 2.434770106729665, 11.971010208404671 ], [ 2.46532010990975, 11.979880333261068 ], [ 2.39147996929979, 12.111769675880097 ], [ 2.381210089248884, 12.250109672973259 ], [ 2.440059900118938, 12.264060020403917 ], [ 2.464040040989732, 12.253259659056255 ], [ 2.469880104357922, 12.27237033797099 ], [ 2.50476002662857, 12.266289711351348 ], [ 2.522360086423467, 12.29512977596869 ], [ 2.54644989961784, 12.27406024863182 ], [ 2.579530000583694, 12.277549744075706 ], [ 2.599420070654399, 12.302869796554123 ], [ 2.663429975587515, 12.30607032813344 ], [ 2.69516992572608, 12.282449721827433 ], [ 2.732539891777228, 12.361229896892496 ], [ 2.76286005971865, 12.351929664972356 ], [ 2.787389993927678, 12.386159897211719 ], [ 2.839090109095852, 12.395770073280516 ], [ 2.826669931147072, 12.408610344342215 ], [ 2.846955000547466, 12.410951999985116 ], [ 2.745962999967086, 12.460963000392429 ], [ 2.742959999978676, 12.540961000500079 ], [ 2.719959000482084, 12.571955999919755 ], [ 2.705996000489672, 12.571985928458069 ], [ 2.683961000574384, 12.50795400002735 ], [ 2.675960000328401, 12.52896200024642 ], [ 2.642960000178483, 12.530951000238773 ], [ 2.646964000462879, 12.567952999681449 ], [ 2.620000999920822, 12.593990000688233 ], [ 2.564996000339756, 12.514989000692118 ], [ 2.512996999986181, 12.57998800069597 ], [ 2.545998999849206, 12.641993000037672 ], [ 2.478996000060572, 12.684991999941548 ], [ 2.500994000068277, 12.73498999974942 ], [ 2.477994999764674, 12.789982000529605 ], [ 2.388002000087428, 12.880990000249088 ], [ 2.371001999934594, 12.978992000131413 ], [ 2.385990000182434, 13.022978999931674 ], [ 2.369998, 13.192992 ], [ 2.126988, 13.154987999999896 ], [ 2.123995, 13.181986 ] ] ] } },
{ "type": "Feature", "properties": { "loc": "NE-A2-0613" }, "geometry": { "type": "Polygon", "coordinates": [ [ [ 1.467961999946529, 13.62595400041193 ], [ 1.439993047441375, 13.610985387500772 ], [ 1.428954999773609, 13.582952000369662 ], [ 1.372964999735138, 13.606956000254348 ], [ 1.358979157862034, 13.598969077995694 ], [ 1.360000999946379, 13.566984999693121 ], [ 1.397000000150076, 13.521980999958322 ], [ 1.370960999950376, 13.499949000181353 ], [ 1.304997000411428, 13.509985999889123 ], [ 1.333990000138584, 13.455980999658548 ], [ 1.304995000319198, 13.425983999497118 ], [ 1.327001999842607, 13.382990999869888 ], [ 1.285999000253847, 13.347984000696215 ], [ 1.245620012353876, 13.33926010110792 ], [ 1.212530017046838, 13.380900382781579 ], [ 1.201539993176333, 13.335450171823112 ], [ 1.168650031374037, 13.322560310345187 ], [ 1.05308997592184, 13.368610381698897 ], [ 0.991819977909841, 13.370920180656952 ], [ 0.997500002423362, 12.999650001781298 ], [ 1.11808001957743, 12.999839783014714 ], [ 1.576050042675518, 12.633139609840262 ], [ 1.758992814167229, 12.615596968160691 ], [ 1.758991000234662, 12.689987000135089 ], [ 1.796997000111655, 12.715987000334938 ], [ 1.788999000004036, 12.816990999670038 ], [ 1.799996999961768, 12.847982999850702 ], [ 1.836998000257695, 12.859990999620077 ], [ 1.867995999815728, 12.954985999739236 ], [ 1.830995999565916, 12.999992999612383 ], [ 1.883987999846505, 13.020990000223472 ], [ 1.949998999754224, 13.136983000100514 ], [ 1.993988999492921, 13.151987999581655 ], [ 1.98199300027693, 13.175981999904511 ], [ 1.935992999577457, 13.154981000008284 ], [ 1.907996999961768, 13.180986000438709 ], [ 1.850002000092419, 13.36198799988143 ], [ 1.804995000219273, 13.397986999835314 ], [ 1.747995999515954, 13.483991999965966 ], [ 1.534998000357619, 13.53998699933569 ], [ 1.467961999946529, 13.62595400041193 ] ] ] } },
{ "type": "Feature", "properties": { "loc": "NE-A2-0614" }, "geometry": { "type": "MultiPolygon", "coordinates": [ [ [ [ 1.019965, 14.550951 ], [ 0.810952, 14.491954 ], [ 0.721957, 14.435946 ], [ 0.654964999974736, 14.337951999842797 ], [ 0.334739866466313, 14.347854850221804 ], [ 0.403759986249006, 14.249659537957911 ], [ 0.38688999429247, 14.221960068203217 ], [ 0.391000003062323, 14.190159797836994 ], [ 0.357030004046108, 14.148400307428872 ], [ 0.369960010360812, 14.107069969004478 ], [ 0.395060003231182, 14.086339951028499 ], [ 0.384059995087358, 14.070500374393387 ], [ 0.398790001671876, 14.027870178366637 ], [ 0.450280010928447, 13.977720260582167 ], [ 0.455209999956216, 13.949959754739467 ], [ 0.480500013279648, 13.965769767960996 ], [ 0.473360002149223, 13.917690277411783 ], [ 0.520770013012526, 13.873929977114159 ], [ 0.530439973312933, 13.840680121917455 ], [ 0.578170001631171, 13.812979697982026 ], [ 0.589420021303808, 13.787560462872435 ], [ 0.620480001237964, 13.786629677145275 ], [ 0.605300008975127, 13.709759711568843 ], [ 0.635519980749364, 13.693429946861908 ], [ 0.772599995280418, 13.692049980349736 ], [ 0.796920001643584, 13.677269936385823 ], [ 0.778439999293421, 13.664279938096087 ], [ 0.78163999307804, 13.642700194785569 ], [ 0.827189982018903, 13.618650435596553 ], [ 0.907100022135174, 13.618650435596553 ], [ 0.984712383456574, 13.572485877848379 ], [ 1.11696500002155, 13.732954999700837 ], [ 1.170961999883277, 13.716956000246601 ], [ 1.207958999994694, 13.73195200021204 ], [ 1.279965000271441, 13.707956999843081 ], [ 1.374957000252172, 13.718952000561764 ], [ 1.3339610000869, 13.785959999681658 ], [ 1.294962000282971, 13.786958999885286 ], [ 1.232967000313709, 13.824952000062147 ], [ 1.19395800004852, 13.771953000358046 ], [ 1.120959999890956, 13.795956000196625 ], [ 1.112957999598882, 13.823960000181241 ], [ 1.076958999645003, 13.817960000481051 ], [ 1.024965000421249, 13.745956000296573 ], [ 1.036960000490459, 13.735956000496437 ], [ 1.010952999967816, 13.71395400030428 ], [ 0.9499610000509, 13.745959000021841 ], [ 1.031967999837966, 13.868956999666366 ], [ 1.03095399993943, 13.918946999936495 ], [ 1.056956000201512, 13.951950999969771 ], [ 1.063966999980468, 14.038951000044637 ], [ 1.212961000016874, 14.164953000090748 ], [ 1.33095999992928, 14.240956999855499 ], [ 1.253962, 14.296954 ], [ 1.21096, 14.350949 ], [ 1.133962, 14.394949 ], [ 1.019965, 14.550951 ] ] ], [ [ [ 0.512084960794143, 15.001423835927792 ], [ 0.401776074647961, 14.969599723634825 ], [ 0.229350923947833, 14.98966980020759 ], [ 0.235740006338001, 14.886070251327528 ], [ 0.201649993694039, 14.840350151125055 ], [ 0.236100003154447, 14.749480246802378 ], [ 0.166250005175459, 14.533439636116814 ], [ 0.192009999703511, 14.460639953557504 ], [ 0.26726000029059, 14.389670000156869 ], [ 0.42314899996819, 14.447730000325727 ], [ 0.523534000435552, 14.513046999705743 ], [ 0.62234999959466, 14.616339000231111 ], [ 0.714891999907716, 14.681655999611127 ], [ 0.864254999910172, 14.710551000214984 ], [ 0.876962000437795, 14.724952999767567 ], [ 0.877965999972772, 14.744948000036668 ], [ 0.846956999907475, 14.763951000424775 ], [ 0.838959999845943, 14.791958999694561 ], [ 0.853958999949742, 14.855954000163436 ], [ 0.843961000241786, 14.885951000324855 ], [ 0.73595900014952, 14.944956000005867 ], [ 0.537763058560112, 14.980949401680039 ], [ 0.512084960794143, 15.001423835927792 ] ] ] ] } },
{ "type": "Feature", "properties": { "loc": "NE-A2-0615" }, "geometry": { "type": "Polygon", "coordinates": [ [ [ 0.867962000047942, 14.666954000086525 ], [ 0.864254999969951, 14.710550999688374 ], [ 0.714891999967503, 14.681655999983903 ], [ 0.622349999654439, 14.616338999704563 ], [ 0.523533999596083, 14.513047000078481 ], [ 0.423149000028007, 14.447729999799142 ], [ 0.266957318227332, 14.389972540559789 ], [ 0.351960999702053, 14.343952000244105 ], [ 0.654965000036401, 14.337951999644558 ], [ 0.721957000217065, 14.435945999567716 ], [ 0.810951999736677, 14.491954000436261 ], [ 1.019965000386137, 14.550950999748329 ], [ 0.97995299973283, 14.604957000025021 ], [ 0.936960000105598, 14.611952999790597 ], [ 0.867962000047942, 14.666954000086525 ] ] ] } },
{ "type": "Feature", "properties": { "loc": "NE-A2-0616" }, "geometry": { "type": "Polygon", "coordinates": [ [ [ 1.330959999812839, 14.24095700015517 ], [ 1.257959000416195, 14.194950000032165 ], [ 1.063966999985708, 14.038950999778539 ], [ 1.056956000427731, 13.951950999628622 ], [ 1.030954000135629, 13.918947000193622 ], [ 1.031968000131775, 13.868956999855371 ], [ 0.949961000008801, 13.745958999797754 ], [ 0.986963000350846, 13.718954000016854 ], [ 1.021969000377729, 13.718955000062945 ], [ 1.070964999843524, 13.812959999494119 ], [ 1.108967000435377, 13.823957000305072 ], [ 1.120960000412316, 13.795955999559446 ], [ 1.177959000216364, 13.774956999755457 ], [ 1.199959000316251, 13.774950999478737 ], [ 1.232966999935789, 13.824951999424968 ], [ 1.345964000147179, 13.773964999874551 ], [ 1.372953000089558, 13.715956000258895 ], [ 1.279964999893521, 13.707957000105182 ], [ 1.207958999616774, 13.731951999574861 ], [ 1.170962000404638, 13.716955999609421 ], [ 1.116964999643719, 13.732954999963027 ], [ 0.984712383978023, 13.572485878110481 ], [ 1.00999998981631, 13.548689841952406 ], [ 1.014089941905935, 13.487380028255398 ], [ 1.087890029409997, 13.46078014427798 ], [ 1.136669992834558, 13.414019585125487 ], [ 1.240929960657797, 13.391369820350647 ], [ 1.280969976991506, 13.358619689636715 ], [ 1.249185065247213, 13.340392421063125 ], [ 1.261002999597447, 13.337987999935947 ], [ 1.325997000270038, 13.375982000158899 ], [ 1.304995000327689, 13.425984000151221 ], [ 1.333990000147032, 13.45598100031264 ], [ 1.306985578630235, 13.512983336601465 ], [ 1.370960999958845, 13.499948999936091 ], [ 1.39700000015853, 13.521981000612389 ], [ 1.360000999954844, 13.566985000347227 ], [ 1.361983104845108, 13.602959118758058 ], [ 1.42895499978207, 13.582952000124422 ], [ 1.456962999951137, 13.623950000381964 ], [ 1.484998999612794, 13.616978999970559 ], [ 1.490965999996372, 13.669960000131471 ], [ 1.582962999832946, 13.720950999983312 ], [ 1.626958999840631, 13.775952000131415 ], [ 1.645961000007765, 13.779960999959435 ], [ 1.604965000369271, 13.791955999924994 ], [ 1.576959000292386, 13.859946000263186 ], [ 1.542956999800569, 13.885956000024908 ], [ 1.489963000149994, 14.137953999877269 ], [ 1.403961000153795, 14.21895400010202 ], [ 1.330959999812839, 14.24095700015517 ] ] ] } },
{ "type": "Feature", "properties": { "loc": "NE-A2-0617" }, "geometry": { "type": "Polygon", "coordinates": [ [ [ 1.222957, 14.781947 ], [ 1.137973, 14.732956 ], [ 1.12896, 14.694949 ], [ 1.086959, 14.644957999999892 ], [ 0.984956, 14.647952999999898 ], [ 0.863959, 14.687953999999888 ], [ 0.865963, 14.672951 ], [ 0.912955, 14.623952 ], [ 0.979953, 14.604957 ], [ 1.056961, 14.524953 ], [ 1.072954, 14.47795 ], [ 1.132969, 14.395956000000449 ], [ 1.21096, 14.350949 ], [ 1.253962, 14.296954 ], [ 1.331968999776687, 14.239958000130688 ], [ 1.423734, 14.212220000000393 ], [ 1.435546000000118, 14.236318000000576 ], [ 1.534769, 14.278777 ], [ 1.580837, 14.253531 ], [ 1.62218, 14.189269 ], [ 1.497970999997675, 14.120948999967915 ], [ 1.524960999984812, 13.998953999832615 ], [ 1.516958999692916, 13.966946000013376 ], [ 1.543958000096377, 13.883959000113162 ], [ 1.576959000292386, 13.859946000263186 ], [ 1.604965000369271, 13.791955999924994 ], [ 1.692965000128885, 13.746959999841231 ], [ 1.735962999850868, 13.764954000097624 ], [ 1.788986818912383, 13.848957957676706 ], [ 1.871958999965382, 13.885954000142071 ], [ 1.89296199995391, 13.909964000303461 ], [ 1.873967999987278, 14.047957000186813 ], [ 1.787954999892647, 14.070955999826769 ], [ 1.762967000194346, 14.099950000163037 ], [ 1.721965, 14.221957 ], [ 1.682962, 14.422954 ], [ 1.526962, 14.693953 ], [ 1.414957, 14.767965 ], [ 1.336971, 14.758952 ], [ 1.222957, 14.781947 ] ] ] } },
{ "type": "Feature", "properties": { "loc": "NE-A2-0618" }, "geometry": { "type": "Polygon", "coordinates": [ [ [ 1.498308701359483, 15.277915972881324 ], [ 1.311050057288319, 15.259578704630989 ], [ 0.973189055680943, 14.978951453807294 ], [ 0.690549669781979, 14.948519420995172 ], [ 0.704960999800916, 14.944953000241519 ], [ 0.735959000258233, 14.94495600037979 ], [ 0.843961000350499, 14.885950999799498 ], [ 0.853959000058366, 14.855953999638078 ], [ 0.842963000192873, 14.772950000302938 ], [ 0.878961000100662, 14.742948999957068 ], [ 0.863958999858503, 14.687953999937893 ], [ 0.984956000269785, 14.647952999791798 ], [ 1.086958999808582, 14.644958000172288 ], [ 1.128959999554921, 14.694948999657349 ], [ 1.137972999704781, 14.732955999580462 ], [ 1.222957000415845, 14.781946999714997 ], [ 1.33697099988582, 14.758951999572663 ], [ 1.414956999839698, 14.767964999722434 ], [ 1.501964000312425, 14.709950999876238 ], [ 1.498308701359483, 15.277915972881324 ] ] ] } },
{ "type": "Feature", "properties": { "loc": "NE-A2-0619" }, "geometry": { "type": "Polygon", "coordinates": [ [ [ 1.62218, 14.189269 ], [ 1.553668, 14.276482 ], [ 1.501695, 14.26845 ], [ 1.435546000000148, 14.236318 ], [ 1.423734, 14.21222 ], [ 1.405947000053914, 14.216966000085939 ], [ 1.497970999997705, 14.120948999967908 ], [ 1.62218, 14.189269 ] ] ] } },
{ "type": "Feature", "properties": { "loc": "NE-A2-0704" }, "geometry": { "type": "Polygon", "coordinates": [ [ [ 8.600971, 13.669979 ], [ 8.50997, 13.643971 ], [ 8.411983, 13.649969 ], [ 8.302970999921509, 13.620973000062637 ], [ 8.350968999986051, 13.582974999890336 ], [ 8.319971000207037, 13.538977999859565 ], [ 8.346970999988145, 13.370976999990898 ], [ 8.318985361515395, 13.350966782392266 ], [ 8.306971000062578, 13.288974000357552 ], [ 8.2396742753985, 13.211764799713439 ], [ 8.314245561234689, 13.14923422648608 ], [ 8.339973000304767, 13.178972999811851 ], [ 8.442970000194748, 13.17597100012204 ], [ 8.523975000178506, 13.203980999967886 ], [ 8.631976999779077, 13.186978000204537 ], [ 8.687975, 13.285975999999895 ], [ 8.753973, 13.278979 ], [ 8.773981999882562, 13.289974999794403 ], [ 8.762975000145833, 13.3809749999193 ], [ 8.776986, 13.428974 ], [ 8.758978, 13.483976 ], [ 8.729971, 13.512972 ], [ 8.698971, 13.489976999999893 ], [ 8.673973, 13.495974 ], [ 8.656969, 13.661978 ], [ 8.600971, 13.669979 ] ] ] } },
{ "type": "Feature", "properties": { "loc": "NE-A2-0706" }, "geometry": { "type": "Polygon", "coordinates": [ [ [ 10.218977999913058, 14.691975000051922 ], [ 9.996987999774674, 14.775975999948194 ], [ 9.682979000030155, 15.016978000085075 ], [ 9.630973000141672, 15.036972000196531 ], [ 9.629982, 14.937976 ], [ 9.522976, 14.805976999999899 ], [ 9.361977, 14.706978 ], [ 9.371976, 14.468971 ], [ 9.507974, 14.370973 ], [ 9.608975, 14.378977 ], [ 9.652987, 14.352977 ], [ 9.73498, 14.414971 ], [ 9.772981, 14.396977 ], [ 9.823985, 14.302977 ], [ 9.965975, 14.225976 ], [ 9.936978999817146, 14.112974000082108 ], [ 9.957971000007358, 14.101979000172289 ], [ 9.745986999976562, 13.997977000176149 ], [ 9.715986, 13.937976 ], [ 9.692981, 13.666979 ], [ 9.602968, 13.629977 ], [ 9.635983000000113, 13.407975 ], [ 9.712977000026367, 13.321969999928314 ], [ 9.797974000437591, 13.134978000347193 ], [ 9.87710534457381, 13.039974243529269 ], [ 9.99653243985804, 13.163275718912022 ], [ 10.196814536999131, 13.26397991215595 ], [ 10.46641922020871, 13.282500267086412 ], [ 10.673238536067441, 13.357007182148468 ], [ 10.613978003919598, 13.518972235393107 ], [ 10.82299200006721, 13.713972999980779 ], [ 10.833982999868962, 13.830954000137847 ], [ 10.996984000176933, 13.974975999934109 ], [ 11.081978558092619, 14.071949638819454 ], [ 11.159037766242218, 14.121992268242618 ], [ 11.002988000174373, 14.211972000063451 ], [ 10.862990000366533, 14.267975999848055 ], [ 10.745982000446951, 14.381973999906013 ], [ 10.677991000062846, 14.405978000240189 ], [ 10.622988999720949, 14.448976000097975 ], [ 10.532982000297274, 14.555973000159579 ], [ 10.458985999982261, 14.612977999790484 ], [ 10.382983999790195, 14.65297499975204 ], [ 10.218977999913058, 14.691975000051922 ] ] ] } },
{ "type": "Feature", "properties": { "loc": "NE-A2-0707" }, "geometry": { "type": "Polygon", "coordinates": [ [ [ 11.159037766242022, 14.121992268242423 ], [ 11.255971999843837, 14.185947999918028 ], [ 11.336971000045708, 14.151955999902555 ], [ 11.547985000193592, 14.186958999846922 ], [ 11.804981999849474, 14.375949999864247 ], [ 11.8779769998593, 14.371948000217742 ], [ 11.997972999944636, 14.422957000033591 ], [ 11.930985999941868, 14.448960999793144 ], [ 11.911970999920754, 14.527955000079373 ], [ 11.92498500006883, 14.569952999883469 ], [ 12.001973999989843, 14.608957999923803 ], [ 11.992997999734428, 17.493971918025863 ], [ 11.599990000058995, 17.367975000040815 ], [ 11.044984999868745, 17.097965999833434 ], [ 9.623979999886615, 16.167977999863751 ], [ 9.629982000005384, 15.036974999847871 ], [ 9.682979000030286, 15.016978000085146 ], [ 9.996987999774717, 14.77597599994823 ], [ 10.279984000139905, 14.670971000017346 ], [ 10.382983999790156, 14.652974999752075 ], [ 10.458985999982303, 14.612977999790473 ], [ 10.532982000297295, 14.555973000159554 ], [ 10.622988999720917, 14.448976000097957 ], [ 10.677991000062889, 14.405978000240225 ], [ 10.745982000446986, 14.381973999905995 ], [ 10.862990000366494, 14.26797599984809 ], [ 11.002988000174355, 14.21197200006344 ], [ 11.159037766242022, 14.121992268242423 ] ] ] } },
{ "type": "Feature", "properties": { "loc": "NE-A2-0708" }, "geometry": { "type": "Polygon", "coordinates": [ [ [ 9.537989, 13.610979 ], [ 9.356977, 13.594978 ], [ 9.272979000184854, 13.49597399999249 ], [ 9.251976000190641, 13.38597599978872 ], [ 9.19897000017723, 13.31297500009045 ], [ 9.12897500009263, 13.286968999852196 ], [ 9.003970000005644, 13.292976000192098 ], [ 8.954986000099773, 13.244978000088388 ], [ 8.800982000107403, 13.28297799988853 ], [ 8.687975, 13.285975999999895 ], [ 8.631976999779077, 13.186978000204537 ], [ 8.523975000397531, 13.203981000169236 ], [ 8.442969999936288, 13.17597100010925 ], [ 8.339973000424315, 13.17897300005157 ], [ 8.314245560454957, 13.149234225826518 ], [ 8.415628433376231, 13.05484962525771 ], [ 8.486416817253005, 13.069727897671974 ], [ 8.564825058411639, 13.038270950103321 ], [ 8.621287346415883, 12.990223884683534 ], [ 8.648480415121039, 12.9385623926993 ], [ 8.696353912285147, 12.916781425181618 ], [ 8.969789504829905, 12.833052634986082 ], [ 9.19925070849764, 12.82818830301899 ], [ 9.188973999894433, 12.910974000021298 ], [ 9.164977000332573, 12.948974999667779 ], [ 9.154973000347987, 13.077973000324956 ], [ 9.126975999786811, 13.080970000036736 ], [ 9.111972000351841, 13.054976000113534 ], [ 9.087978000028972, 13.104976000013675 ], [ 9.070972000001053, 13.106978999876091 ], [ 9.06298, 13.175971 ], [ 9.110975, 13.180972999999891 ], [ 9.106972, 13.230975 ], [ 9.056975, 13.237973 ], [ 9.114983, 13.272975 ], [ 9.154975, 13.250977 ], [ 9.386969, 13.259974 ], [ 9.38097, 13.185970999999892 ], [ 9.424976, 13.183977 ], [ 9.412973, 13.299972 ], [ 9.422977, 13.320975 ], [ 9.486979, 13.340972 ], [ 9.497983, 13.357971 ], [ 9.478984, 13.387978 ], [ 9.436972, 13.396977 ], [ 9.440986, 13.494974 ], [ 9.537989, 13.610979 ] ] ] } },
{ "type": "Feature", "properties": { "loc": "NE-A2-0709" }, "geometry": { "type": "Polygon", "coordinates": [ [ [ 9.712977000001853, 13.321970000139878 ], [ 9.635983000000113, 13.407975 ], [ 9.602968, 13.629977 ], [ 9.537989, 13.610979 ], [ 9.440986, 13.494974 ], [ 9.436972, 13.396977 ], [ 9.478984, 13.387978 ], [ 9.497983, 13.357971 ], [ 9.486979, 13.340972 ], [ 9.422977, 13.320975 ], [ 9.412973, 13.299972 ], [ 9.424976, 13.183977 ], [ 9.38097, 13.185970999999892 ], [ 9.386969, 13.259974 ], [ 9.154975, 13.250977 ], [ 9.114983, 13.272975 ], [ 9.056975, 13.237973 ], [ 9.106972, 13.230975 ], [ 9.110975, 13.180972999999891 ], [ 9.06298, 13.175971 ], [ 9.070972, 13.106979 ], [ 9.087978, 13.104976 ], [ 9.111972, 13.054976 ], [ 9.126976, 13.08097 ], [ 9.154973, 13.077973 ], [ 9.164976999969308, 12.948974999764946 ], [ 9.188974000430537, 12.910974000118465 ], [ 9.199250708134464, 12.828188303116157 ], [ 9.287998198938517, 12.812026023650542 ], [ 9.390265465159807, 12.823122977811625 ], [ 9.650238990935321, 12.803606033381794 ], [ 9.877105344534641, 13.039974244206061 ], [ 9.801969000267828, 13.128977000378335 ], [ 9.712977000001853, 13.321970000139878 ] ] ] } },
{ "type": "Feature", "properties": { "loc": "NE-A2-0710" }, "geometry": { "type": "Polygon", "coordinates": [ [ [ 9.626986, 14.082973 ], [ 9.599981, 14.136978 ], [ 9.576981, 14.136972 ], [ 9.526987, 14.076971 ], [ 9.491976, 14.083972 ], [ 9.44397, 14.048972999999894 ], [ 9.378983, 14.058979 ], [ 9.363975, 14.047974 ], [ 9.402976, 13.968973 ], [ 9.383974, 13.951977 ], [ 9.366976, 13.954978 ], [ 9.329969, 14.019973 ], [ 9.316985, 14.008972 ], [ 9.33297, 13.962975 ], [ 9.269973, 13.985976 ], [ 9.236974, 13.953980999999889 ], [ 9.124977, 13.90598 ], [ 9.119972, 13.881974999999898 ], [ 9.093977, 13.867971 ], [ 9.071969, 13.892977 ], [ 9.093974, 13.744973 ], [ 9.059051, 13.742978 ], [ 9.061357999922524, 13.565868999932125 ], [ 9.006983999869199, 13.558978000125528 ], [ 9.011984, 13.65897 ], [ 8.981983, 13.680970999999893 ], [ 9.000982, 13.698977 ], [ 8.953984, 13.733979 ], [ 8.949975, 13.78897099999989 ], [ 8.871971, 13.745978 ], [ 8.878983, 13.686974 ], [ 8.866972, 13.680979 ], [ 8.812978, 13.662976 ], [ 8.656969, 13.661978 ], [ 8.673973, 13.495974 ], [ 8.698971, 13.489976999999893 ], [ 8.737972, 13.510979 ], [ 8.776986, 13.428974 ], [ 8.762975000145833, 13.370971999949983 ], [ 8.777972000151589, 13.306979000211356 ], [ 8.760970999869176, 13.281972000049898 ], [ 8.954986000099773, 13.244978000088388 ], [ 9.003970000005644, 13.292976000192098 ], [ 9.12897500009263, 13.286968999852196 ], [ 9.19897000017723, 13.31297500009045 ], [ 9.251976000190641, 13.38597599978872 ], [ 9.272979000184854, 13.49597399999249 ], [ 9.356977, 13.594978 ], [ 9.499985, 13.600974 ], [ 9.686985000000124, 13.659978 ], [ 9.704971, 13.828977 ], [ 9.666972, 13.791979 ], [ 9.606974, 13.854975 ], [ 9.622983, 13.868976 ], [ 9.678976, 13.832978 ], [ 9.678973, 13.871977 ], [ 9.66197, 13.894976 ], [ 9.64598, 13.875973 ], [ 9.619977, 13.900978 ], [ 9.556974, 13.872973999999889 ], [ 9.49898, 13.92297 ], [ 9.507985, 13.983975 ], [ 9.545973, 14.022973 ], [ 9.623977, 14.018974 ], [ 9.626986, 14.082973 ] ] ] } },
{ "type": "Feature", "properties": { "loc": "NE-A2-0711" }, "geometry": { "type": "Polygon", "coordinates": [ [ [ 9.371976, 14.468971000000703 ], [ 9.361971, 14.506978000000732 ], [ 9.298972, 14.429978 ], [ 9.079983, 14.394970000000402 ], [ 9.035977, 14.354974 ], [ 9.011973, 14.285972999999093 ], [ 8.97697, 14.283979 ], [ 9.078986, 14.211971999999768 ], [ 9.098971, 14.176976999999553 ], [ 9.092975, 14.128976999998883 ], [ 9.052981, 14.113972999999564 ], [ 9.110986, 14.052972000000548 ], [ 9.164986, 14.029977999999872 ], [ 9.184979, 13.950978 ], [ 9.236974, 13.953980999999889 ], [ 9.269973, 13.985976 ], [ 9.33297, 13.962975 ], [ 9.316985, 14.008972 ], [ 9.329969, 14.019973 ], [ 9.366976, 13.954978 ], [ 9.383974, 13.951977 ], [ 9.402976, 13.968973 ], [ 9.359978, 14.040975 ], [ 9.371981, 14.054972 ], [ 9.419985, 14.044974 ], [ 9.471975, 14.059975 ], [ 9.491976, 14.083972 ], [ 9.526987, 14.076971 ], [ 9.576981, 14.136972 ], [ 9.599981, 14.136978 ], [ 9.626986, 14.082973 ], [ 9.623977, 14.018974 ], [ 9.545973, 14.022973 ], [ 9.507985, 13.983975 ], [ 9.49898, 13.92297 ], [ 9.564978, 13.870978 ], [ 9.619977, 13.900978 ], [ 9.64598, 13.875973 ], [ 9.66197, 13.894976 ], [ 9.686982, 13.835977 ], [ 9.622983, 13.868976 ], [ 9.606974, 13.854975 ], [ 9.673968, 13.791976 ], [ 9.704971, 13.828977 ], [ 9.715986, 13.937976 ], [ 9.745986999976562, 13.997977000176149 ], [ 9.957971000007358, 14.101979000172289 ], [ 9.936978999817146, 14.112974000082108 ], [ 9.965975, 14.225976 ], [ 9.823985, 14.302977 ], [ 9.772981, 14.396977 ], [ 9.73498, 14.414971 ], [ 9.652987, 14.352977 ], [ 9.608975, 14.378977 ], [ 9.507974, 14.370973 ], [ 9.371976, 14.468971000000703 ] ] ] } },
{ "type": "Feature", "properties": { "loc": "NE-A2-0712" }, "geometry": { "type": "Polygon", "coordinates": [ [ [ 9.052981, 14.113973 ], [ 9.092975, 14.128977 ], [ 9.098971, 14.176977 ], [ 9.055984, 14.232973 ], [ 8.97697, 14.283979 ], [ 8.939973, 14.280976 ], [ 8.932972, 14.216975 ], [ 8.653977, 14.110974 ], [ 8.60297, 14.180972 ], [ 8.600971, 14.21597099999989 ], [ 8.517973, 14.21597099999989 ], [ 8.512973000149714, 14.068976999987122 ], [ 8.54297699994223, 14.009979999881423 ], [ 8.516973000199744, 13.876972000171701 ], [ 8.470949, 13.865961 ], [ 8.284972, 13.761957 ], [ 8.224971904549282, 13.71696860049358 ], [ 8.223972999953443, 13.670976000113217 ], [ 8.302970999921509, 13.620973000062637 ], [ 8.411983, 13.649969 ], [ 8.50997, 13.643971 ], [ 8.600971, 13.669979 ], [ 8.812978, 13.662976 ], [ 8.878983, 13.686974 ], [ 8.865978, 13.734979 ], [ 8.948971, 13.785972 ], [ 8.933977, 13.84198 ], [ 8.958978, 13.878977 ], [ 9.075983, 13.875978 ], [ 9.071969, 13.892977 ], [ 9.093977, 13.867971 ], [ 9.119972, 13.881974999999898 ], [ 9.124977, 13.90598 ], [ 9.208978, 13.951972 ], [ 9.184979, 13.950978 ], [ 9.174979, 13.967974 ], [ 9.164986, 14.029978 ], [ 9.110986, 14.052972 ], [ 9.052981, 14.113973 ] ] ] } },
{ "type": "Feature", "properties": { "loc": "NE-A2-0713" }, "geometry": { "type": "Polygon", "coordinates": [ [ [ 9.623979999886544, 16.167977999863776 ], [ 9.309972000055421, 15.957968000092855 ], [ 9.021967999963231, 15.867970000138971 ], [ 8.473960000128532, 15.591966000196607 ], [ 8.303973999901736, 15.543975999827637 ], [ 8.160967999888268, 15.550973000183106 ], [ 8.003061284104561, 15.510031809104259 ], [ 8.287614000122666, 15.320189000084579 ], [ 8.550808000083819, 15.062540999986247 ], [ 8.445972999862082, 15.070973999856125 ], [ 8.261969000169632, 15.029972000084797 ], [ 8.261971999789118, 14.983974999804168 ], [ 8.21696899994485, 14.883974999904055 ], [ 8.146973999860339, 14.863972000034771 ], [ 8.046971999914053, 14.764976999925246 ], [ 8.01796799979687, 14.69597699985032 ], [ 8.049975999931235, 14.551976999850353 ], [ 7.992969999832354, 14.512971999887831 ], [ 8.010974999995955, 14.453975999939157 ], [ 8.163972000151652, 14.423974000192814 ], [ 8.190973999972982, 14.392973999918031 ], [ 8.261976999917252, 14.382977000087145 ], [ 8.388976000019031, 14.264975000140918 ], [ 8.423970000205415, 14.191972999969966 ], [ 8.515974000065217, 14.155978000056741 ], [ 8.517973, 14.21597099999989 ], [ 8.600971, 14.21597099999989 ], [ 8.60297, 14.180972 ], [ 8.653977, 14.110974 ], [ 8.932972, 14.216975 ], [ 8.939973, 14.280976 ], [ 9.011973, 14.285972999999892 ], [ 9.035977, 14.354974 ], [ 9.079983, 14.39497 ], [ 9.298972, 14.429978 ], [ 9.361971, 14.506978 ], [ 9.363986, 14.711974 ], [ 9.522976, 14.805976999999899 ], [ 9.629982, 14.937976 ], [ 9.623979999886544, 16.167977999863776 ] ] ] } },
{ "type": "Feature", "properties": { "loc": "NE-A2-0714" }, "geometry": { "type": "Polygon", "coordinates": [ [ [ 7.510958000090909, 15.570969000140508 ], [ 7.353390840814995, 15.318156898478605 ], [ 7.422942999994405, 15.286947000502039 ], [ 7.410967999948241, 15.142959000156054 ], [ 7.491955999844549, 15.001955999867903 ], [ 7.515956999590912, 14.815951999983099 ], [ 7.551955000397982, 14.77196100019836 ], [ 7.538951999710093, 14.708947000002411 ], [ 7.597952000059763, 14.696954000025471 ], [ 7.71596000022879, 14.636961000647887 ], [ 7.699954000451839, 14.530959000156145 ], [ 7.706973000378696, 14.467952000282992 ], [ 7.778965000009748, 14.419953000029295 ], [ 7.843951000313439, 14.422956000017678 ], [ 7.950974000232748, 14.514972999927863 ], [ 7.992969999832383, 14.512971999887895 ], [ 8.049975999931291, 14.55197699985041 ], [ 8.017967999797008, 14.695976999850302 ], [ 8.046971999914206, 14.764976999925295 ], [ 8.14697399986045, 14.863972000034835 ], [ 8.216968999944982, 14.883974999904126 ], [ 8.261971999789182, 14.983974999804218 ], [ 8.261969000169756, 15.029972000084854 ], [ 8.445972999862192, 15.070973999856108 ], [ 8.550808000083862, 15.062540999986311 ], [ 8.287614000122687, 15.320189000084554 ], [ 8.003061284104604, 15.510031809104248 ], [ 7.893969000069831, 15.509965000073237 ], [ 7.601974000134931, 15.560971999860101 ], [ 7.55396599980088, 15.552970000163668 ], [ 7.510958000090909, 15.570969000140508 ] ] ] } },
{ "type": "Feature", "properties": { "loc": "NE-A2-0715" }, "geometry": { "type": "Polygon", "coordinates": [ [ [ 9.075983, 13.875978 ], [ 8.958978, 13.878977 ], [ 8.935973, 13.854972 ], [ 8.953984, 13.733979 ], [ 9.000982, 13.698977 ], [ 8.981983, 13.680970999999886 ], [ 9.011984, 13.65897 ], [ 9.006983999869229, 13.558978000125521 ], [ 9.061357999922555, 13.565868999932118 ], [ 9.059051, 13.742977999999894 ], [ 9.093974, 13.744973 ], [ 9.075983, 13.875978 ] ] ] } },
{ "type": "Feature", "properties": { "loc": "NE-A2-0802" }, "geometry": { "type": "Polygon", "coordinates": [ [ [ 2.041964701286759, 13.514418581942664 ], [ 2.059831368448499, 13.565219508900384 ], [ 2.083991785857449, 13.596988869831819 ], [ 1.992450611224911, 13.527894752299176 ], [ 2.041964701286759, 13.514418581942664 ] ] ] } },
{ "type": "Feature", "properties": { "loc": "NE-A2-0803" }, "geometry": { "type": "Polygon", "coordinates": [ [ [ 2.041964701286759, 13.514418581942664 ], [ 2.075964114068086, 13.498975314498068 ], [ 2.113369241079681, 13.521675372493689 ], [ 2.186450998898067, 13.620092642800216 ], [ 2.151002999998809, 13.599984999988067 ], [ 2.083991785857449, 13.596988869831819 ], [ 2.041964701286759, 13.514418581942664 ] ] ] } },
{ "type": "Feature", "properties": { "loc": "NE-A2-0804" }, "geometry": { "type": "Polygon", "coordinates": [ [ [ 2.232990999852916, 13.632987999843294 ], [ 2.186450998898124, 13.62009264280033 ], [ 2.113369241079795, 13.521675372493803 ], [ 2.075964114068199, 13.498975314498182 ], [ 2.102004935315961, 13.47353411742381 ], [ 2.163337922202231, 13.498118708536026 ], [ 2.166907113710977, 13.515964666079753 ], [ 2.234003999885374, 13.529985999981534 ], [ 2.234998999837501, 13.569984999999292 ], [ 2.261999000062247, 13.620991999785815 ], [ 2.232990999852916, 13.632987999843294 ] ] ] } },
{ "type": "Feature", "properties": { "loc": "NE-A2-0805" }, "geometry": { "type": "Polygon", "coordinates": [ [ [ 2.200995138659039, 13.524704375479018 ], [ 2.102004935315847, 13.473534117423696 ], [ 2.114004000000136, 13.424986 ], [ 2.205, 13.458989999999858 ], [ 2.200995138659039, 13.524704375479018 ] ] ] } },
{ "type": "Feature", "properties": { "loc": "NE-A2-0806" }, "geometry": { "type": "Polygon", "coordinates": [ [ [ 2.113994330806122, 13.425005128188218 ], [ 2.107658534665404, 13.465995984957203 ], [ 2.06696975146599, 13.505970929855096 ], [ 1.992450611224911, 13.527894752299176 ], [ 1.969996000108097, 13.507989999902293 ], [ 2.04099900000017, 13.481989999999882 ], [ 2.066995, 13.433995 ], [ 2.101998, 13.441986 ], [ 2.113994330806122, 13.425005128188218 ] ] ] } }
]
}
