{
"type": "FeatureCollection",
"name": "border_MZ",
"crs": { "type": "name", "properties": { "name": "urn:ogc:def:crs:OGC:1.3:CRS84" } },
"features": [
{ "type": "Feature", "properties": { }, "geometry": { "type": "Polygon", "coordinates": [ [ [ 34.559989047999352, -11.520020033415925 ], [ 35.312397902169039, -11.439146416879147 ], [ 36.514081658684262, -11.720938002166735 ], [ 36.775150994622805, -11.594537448780805 ], [ 37.47129, -11.56876 ], [ 37.82764, -11.26879 ], [ 38.427556593587752, -11.285202325081656 ], [ 39.521, -10.89688 ], [ 40.316588576017189, -10.317096042525698 ], [ 40.478387485523029, -10.765440769089993 ], [ 40.437253045418686, -11.761710707245015 ], [ 40.560811395028573, -12.639176527561027 ], [ 40.59962039567975, -14.201975192931862 ], [ 40.775475294768995, -14.691764418194241 ], [ 40.089263950365222, -16.10077402106446 ], [ 39.452558628097051, -16.72089120856694 ], [ 37.411132846838882, -17.586368096591237 ], [ 36.281279331209362, -18.659687595293448 ], [ 35.896496616364061, -18.842260430580637 ], [ 35.198399692533144, -19.552811374593894 ], [ 34.786383497870048, -19.784011732667736 ], [ 34.701892531072843, -20.497043145431011 ], [ 35.176127150215365, -21.254361260668411 ], [ 35.373427768705739, -21.840837090748877 ], [ 35.385848253705404, -22.14 ], [ 35.562545536369086, -22.09 ], [ 35.533934767404304, -23.070787855727758 ], [ 35.371774122872381, -23.535358982031699 ], [ 35.607470330555628, -23.706563002214683 ], [ 35.458745558419622, -24.122609958596549 ], [ 35.040734897610662, -24.478350518493805 ], [ 33.013210076639012, -25.357573337507738 ], [ 32.574632195777866, -25.727318210556092 ], [ 32.660363396950089, -26.148584486599447 ], [ 32.915955031065693, -26.215867201443466 ], [ 32.830120477028885, -26.742191664336197 ], [ 32.071665480281069, -26.733820082304909 ], [ 31.752408481581881, -25.484283949487413 ], [ 31.930588820124253, -24.369416599222539 ], [ 31.191409132621288, -22.251509698172399 ], [ 32.244988234188014, -21.116488539313693 ], [ 32.508693068173443, -20.395292250248307 ], [ 32.65974327976258, -20.304290052982317 ], [ 32.772707960752626, -19.715592136313298 ], [ 32.611994256324891, -19.419382826416275 ], [ 32.654885695127149, -18.672089939043495 ], [ 32.849860874164392, -17.979057305577179 ], [ 32.847638787575846, -16.713398125884616 ], [ 32.328238966610229, -16.392074069893752 ], [ 31.852040643040599, -16.319417006091378 ], [ 31.636498243951195, -16.071990248277885 ], [ 31.17306399915768, -15.860943698797874 ], [ 30.338954705534544, -15.880839125230246 ], [ 30.17948123548183, -14.796099134991529 ], [ 33.214024692525214, -13.971860039936153 ], [ 33.789700148256685, -14.45183074306307 ], [ 34.064825473778626, -14.35995004644812 ], [ 34.459633416488543, -14.613009535381423 ], [ 34.517666049952311, -15.013708591372612 ], [ 34.307291294092096, -15.478641452702597 ], [ 34.381291945134052, -16.183559665596043 ], [ 35.033810255683534, -16.801299737213093 ], [ 35.339062941231646, -16.107440280830112 ], [ 35.771904738108361, -15.896858819240727 ], [ 35.68684533055594, -14.611045830954332 ], [ 35.267956170398008, -13.887834161029566 ], [ 34.907151320136165, -13.565424899960568 ], [ 34.559989047999352, -13.579997653866876 ], [ 34.28000613784198, -12.280025323132506 ], [ 34.559989047999352, -11.520020033415925 ] ] ] } }
]
}
