{
"type": "FeatureCollection",
"name": "regions_PT",
"crs": { "type": "name", "properties": { "name": "urn:ogc:def:crs:OGC:1.3:CRS84" } },
"features": [
{ "type": "Feature", "properties": { "loc": "PT11" }, "geometry": { "type": "MultiPolygon", "coordinates": [ [ [ [ -8.199, 42.154419 ], [ -8.181546, 42.070518 ], [ -8.11409, 42.079482 ], [ -8.094106, 42.065891 ], [ -8.084367, 42.033925 ], [ -8.090384, 42.01574 ], [ -8.160667, 41.981269 ], [ -8.214206, 41.914834 ], [ -8.198825, 41.878087 ], [ -8.16642, 41.869216 ], [ -8.165075, 41.818302 ], [ -8.09477, 41.80986 ], [ -8.013889, 41.832217 ], [ -7.979314, 41.871685 ], [ -7.924893, 41.87944 ], [ -7.899455, 41.926824 ], [ -7.885938, 41.921278 ], [ -7.88924, 41.861278 ], [ -7.87845, 41.853355 ], [ -7.848226, 41.86544 ], [ -7.839685, 41.880345 ], [ -7.702351, 41.906352 ], [ -7.652295, 41.882585 ], [ -7.591568, 41.878641 ], [ -7.610734, 41.845645 ], [ -7.607901, 41.831399 ], [ -7.522598, 41.84204 ], [ -7.498419, 41.869726 ], [ -7.454823, 41.863637 ], [ -7.429666, 41.832543 ], [ -7.424683, 41.810128 ], [ -7.370433, 41.849613 ], [ -7.314728, 41.84477 ], [ -7.200464, 41.879749 ], [ -7.177213, 41.919736 ], [ -7.185497, 41.962502 ], [ -7.177092, 41.97761 ], [ -7.122837, 41.986892 ], [ -7.09138, 41.974406 ], [ -7.075604, 41.953999 ], [ -7.061141, 41.950036 ], [ -7.011578, 41.951154 ], [ -6.9858, 41.971447 ], [ -6.96339, 41.969873 ], [ -6.943218, 41.947112 ], [ -6.825655, 41.946922 ], [ -6.80569, 41.991248 ], [ -6.773225, 41.984845 ], [ -6.74939, 41.945207 ], [ -6.717311, 41.936381 ], [ -6.621439, 41.941699 ], [ -6.588291, 41.964652 ], [ -6.547548, 41.935882 ], [ -6.567283, 41.884119 ], [ -6.519779, 41.870422 ], [ -6.531146, 41.820709 ], [ -6.564929, 41.746275 ], [ -6.54597, 41.706134 ], [ -6.546108, 41.685734 ], [ -6.495535, 41.658863 ], [ -6.460314, 41.668164 ], [ -6.442939, 41.682499 ], [ -6.30955, 41.664593 ], [ -6.263402, 41.639585 ], [ -6.200016, 41.588134 ], [ -6.197079, 41.570376 ], [ -6.295904, 41.459343 ], [ -6.304389, 41.428398 ], [ -6.325205, 41.411771 ], [ -6.324571, 41.388313 ], [ -6.345676, 41.381641 ], [ -6.383038, 41.385575 ], [ -6.386695, 41.357864 ], [ -6.417261, 41.342441 ], [ -6.444157, 41.305169 ], [ -6.479713, 41.29438 ], [ -6.487879, 41.285751 ], [ -6.485136, 41.272646 ], [ -6.504389, 41.265572 ], [ -6.523604, 41.271835 ], [ -6.559946, 41.244061 ], [ -6.578644, 41.241256 ], [ -6.59079, 41.251389 ], [ -6.646777, 41.244838 ], [ -6.689786, 41.205241 ], [ -6.705411, 41.177613 ], [ -6.766278, 41.132487 ], [ -6.75814, 41.100823 ], [ -6.811833, 41.036548 ], [ -6.85288, 41.027366 ], [ -6.975823, 41.031262 ], [ -6.994476, 40.988416 ], [ -7.006848, 40.980101 ], [ -7.049867, 40.967838 ], [ -7.100256, 40.971663 ], [ -7.138742, 40.925557 ], [ -7.180654, 40.936753 ], [ -7.168783, 40.968353 ], [ -7.18355, 40.998459 ], [ -7.169216, 41.011682 ], [ -7.185699, 41.031597 ], [ -7.220389, 41.033758 ], [ -7.246235, 41.009168 ], [ -7.264005, 41.01713 ], [ -7.330425, 41.021079 ], [ -7.374128, 41.0122 ], [ -7.375539, 40.993448 ], [ -7.328573, 40.97117 ], [ -7.334643, 40.941449 ], [ -7.37817, 40.907041 ], [ -7.410664, 40.920595 ], [ -7.420643, 40.917267 ], [ -7.428328, 40.893897 ], [ -7.40612, 40.872602 ], [ -7.435925, 40.826494 ], [ -7.454204, 40.812608 ], [ -7.524973, 40.871661 ], [ -7.564924, 40.868993 ], [ -7.583164, 40.854977 ], [ -7.593725, 40.832884 ], [ -7.63185, 40.871847 ], [ -7.666037, 40.856325 ], [ -7.687719, 40.857193 ], [ -7.712788, 40.885897 ], [ -7.695752, 40.911777 ], [ -7.693647, 40.939803 ], [ -7.742979, 40.941155 ], [ -7.758045, 40.956913 ], [ -7.757704, 40.971684 ], [ -7.785597, 40.979644 ], [ -7.822612, 40.958918 ], [ -7.852301, 40.983634 ], [ -7.892717, 40.99805 ], [ -7.883989, 41.021632 ], [ -7.942357, 41.012123 ], [ -7.967383, 40.975843 ], [ -7.999868, 40.967932 ], [ -8.089172, 40.987555 ], [ -8.129788, 40.947223 ], [ -8.124694, 40.899298 ], [ -8.107566, 40.871445 ], [ -8.108423, 40.857695 ], [ -8.130665, 40.850514 ], [ -8.168571, 40.863099 ], [ -8.19629, 40.848141 ], [ -8.230033, 40.861974 ], [ -8.249433, 40.857339 ], [ -8.239323, 40.821633 ], [ -8.273369, 40.763173 ], [ -8.287425, 40.781686 ], [ -8.339796, 40.778968 ], [ -8.375649, 40.79793 ], [ -8.393853, 40.794669 ], [ -8.417019, 40.770104 ], [ -8.452404, 40.779408 ], [ -8.519775, 40.763145 ], [ -8.519772, 40.776176 ], [ -8.543664, 40.787431 ], [ -8.547754, 40.797276 ], [ -8.532198, 40.827844 ], [ -8.547401, 40.84879 ], [ -8.528652, 40.86338 ], [ -8.52585, 40.888052 ], [ -8.554149, 40.874085 ], [ -8.572548, 40.877327 ], [ -8.583676, 40.889025 ], [ -8.58203, 40.905782 ], [ -8.601086, 40.942357 ], [ -8.603687, 40.9706 ], [ -8.653119, 40.964778 ], [ -8.645777, 41.021482 ], [ -8.669944, 41.139183 ], [ -8.714281, 41.201589 ], [ -8.740728, 41.329409 ], [ -8.786611, 41.414428 ], [ -8.777321, 41.479582 ], [ -8.79047, 41.501749 ], [ -8.792076, 41.541324 ], [ -8.828599, 41.672327 ], [ -8.850476, 41.690043 ], [ -8.878678, 41.74768 ], [ -8.868164, 41.808118 ], [ -8.875541, 41.835859 ], [ -8.863186, 41.872066 ], [ -8.823219, 41.903314 ], [ -8.756337, 41.935224 ], [ -8.73306, 41.970862 ], [ -8.668024, 41.999777 ], [ -8.655008, 42.031067 ], [ -8.632583, 42.047877 ], [ -8.545974, 42.055571 ], [ -8.518153, 42.077643 ], [ -8.450218, 42.082494 ], [ -8.423065, 42.073682 ], [ -8.384101, 42.077799 ], [ -8.363552, 42.089287 ], [ -8.336224, 42.086529 ], [ -8.249753, 42.136315 ], [ -8.21814, 42.137091 ], [ -8.199, 42.154419 ] ] ], [ [ [ -7.375335, 40.899734 ], [ -7.384178, 40.87397 ], [ -7.394786, 40.881245 ], [ -7.382883, 40.899636 ], [ -7.375335, 40.899734 ] ] ] ] } },
{ "type": "Feature", "properties": { "loc": "PT15" }, "geometry": { "type": "MultiPolygon", "coordinates": [ [ [ [ -8.796321, 37.442948 ], [ -8.754427, 37.430142 ], [ -8.731383, 37.399824 ], [ -8.667454, 37.399616 ], [ -8.642802, 37.378526 ], [ -8.619252, 37.398887 ], [ -8.570845, 37.408424 ], [ -8.517932, 37.381378 ], [ -8.456432, 37.376016 ], [ -8.427044, 37.389179 ], [ -8.415089, 37.419069 ], [ -8.329603, 37.427141 ], [ -8.316566, 37.435523 ], [ -8.292882, 37.431064 ], [ -8.270358, 37.409454 ], [ -8.271322, 37.388404 ], [ -8.19727, 37.348416 ], [ -8.149542, 37.332968 ], [ -8.065813, 37.322396 ], [ -8.026303, 37.353104 ], [ -7.996404, 37.363336 ], [ -8.002662, 37.381714 ], [ -7.995645, 37.395702 ], [ -7.963852, 37.407323 ], [ -7.907629, 37.40975 ], [ -7.892794, 37.418239 ], [ -7.888571, 37.432687 ], [ -7.73577, 37.493754 ], [ -7.666689, 37.503944 ], [ -7.621214, 37.493565 ], [ -7.573968, 37.525342 ], [ -7.512691, 37.526256 ], [ -7.494616, 37.520464 ], [ -7.467973, 37.488012 ], [ -7.449728, 37.420674 ], [ -7.458703, 37.408379 ], [ -7.440442, 37.383848 ], [ -7.440932, 37.315144 ], [ -7.424947, 37.274979 ], [ -7.428076, 37.244227 ], [ -7.415366, 37.227824 ], [ -7.401916, 37.174827 ], [ -7.471882, 37.17486 ], [ -7.564845, 37.149426 ], [ -7.791849, 37.016551 ], [ -7.810797, 37.021941 ], [ -7.823586, 37.008705 ], [ -7.861075, 37.005298 ], [ -7.865851, 36.991123 ], [ -7.894813, 36.985642 ], [ -7.897403, 36.971502 ], [ -7.975671, 36.996927 ], [ -8.094028, 37.062792 ], [ -8.179706, 37.088714 ], [ -8.250161, 37.085086 ], [ -8.293879, 37.073687 ], [ -8.361331, 37.100172 ], [ -8.439771, 37.086583 ], [ -8.539682, 37.117218 ], [ -8.602405, 37.122281 ], [ -8.655981, 37.110962 ], [ -8.671794, 37.082598 ], [ -8.730784, 37.083838 ], [ -8.889641, 37.042358 ], [ -8.93225, 37.005697 ], [ -8.967853, 37.024733 ], [ -8.987612, 37.023559 ], [ -8.957206, 37.0912 ], [ -8.907011, 37.161292 ], [ -8.913823, 37.195026 ], [ -8.897285, 37.205711 ], [ -8.862634, 37.268372 ], [ -8.874201, 37.320091 ], [ -8.838135, 37.365191 ], [ -8.796321, 37.442948 ] ] ], [ [ [ -7.80891, 37.007083 ], [ -7.812939, 36.991863 ], [ -7.828374, 36.995873 ], [ -7.821057, 37.005844 ], [ -7.80891, 37.007083 ] ] ], [ [ [ -7.827224, 36.990325 ], [ -7.852566, 36.979353 ], [ -7.856444, 36.981693 ], [ -7.841044, 36.996053 ], [ -7.827224, 36.990325 ] ] ], [ [ [ -7.865389, 36.961916 ], [ -7.88213, 36.959615 ], [ -7.885402, 36.965336 ], [ -7.874049, 36.976378 ], [ -7.865389, 36.961916 ] ] ] ] } },
{ "type": "Feature", "properties": { "loc": "PT16" }, "geometry": { "type": "MultiPolygon", "coordinates": [ [ [ [ -6.929903, 41.029466 ], [ -6.923609, 41.006964 ], [ -6.862417, 40.950132 ], [ -6.845904, 40.899143 ], [ -6.810862, 40.879526 ], [ -6.802324, 40.857497 ], [ -6.804397, 40.847109 ], [ -6.82316, 40.840245 ], [ -6.819252, 40.806339 ], [ -6.828818, 40.744883 ], [ -6.797079, 40.658661 ], [ -6.841866, 40.569915 ], [ -6.807958, 40.553193 ], [ -6.797912, 40.515379 ], [ -6.847486, 40.448379 ], [ -6.833434, 40.408407 ], [ -6.785294, 40.364804 ], [ -6.795661, 40.330963 ], [ -6.858071, 40.300928 ], [ -6.865144, 40.270694 ], [ -6.878313, 40.261784 ], [ -6.951298, 40.257446 ], [ -6.964109, 40.241238 ], [ -7.006814, 40.228588 ], [ -7.024729, 40.18661 ], [ -7.006264, 40.124754 ], [ -6.943755, 40.111055 ], [ -6.914678, 40.066928 ], [ -6.895566, 40.058686 ], [ -6.870936, 40.01595 ], [ -6.887987, 39.942864 ], [ -6.904716, 39.922008 ], [ -6.905802, 39.872992 ], [ -6.944846, 39.832358 ], [ -6.982701, 39.814336 ], [ -6.987171, 39.79582 ], [ -6.979775, 39.773935 ], [ -7.011391, 39.679348 ], [ -7.064382, 39.658977 ], [ -7.122948, 39.663296 ], [ -7.149295, 39.654142 ], [ -7.260857, 39.665991 ], [ -7.335126, 39.642915 ], [ -7.40885, 39.648652 ], [ -7.460215, 39.66357 ], [ -7.542929, 39.662815 ], [ -7.579293, 39.658546 ], [ -7.596677, 39.640462 ], [ -7.639932, 39.622906 ], [ -7.676468, 39.646942 ], [ -7.715751, 39.624626 ], [ -7.713171, 39.609076 ], [ -7.724966, 39.592197 ], [ -7.75475, 39.587941 ], [ -7.768511, 39.56592 ], [ -7.796942, 39.545368 ], [ -7.825104, 39.537365 ], [ -7.851099, 39.51215 ], [ -7.914661, 39.548713 ], [ -7.958681, 39.560185 ], [ -8.000162, 39.500238 ], [ -8.007019, 39.469209 ], [ -7.995622, 39.450529 ], [ -7.947812, 39.421421 ], [ -7.944492, 39.407509 ], [ -7.968108, 39.385082 ], [ -8.027103, 39.361892 ], [ -8.030033, 39.340435 ], [ -8.082348, 39.278723 ], [ -8.104249, 39.277335 ], [ -8.123751, 39.286973 ], [ -8.141498, 39.281344 ], [ -8.153315, 39.268841 ], [ -8.155328, 39.248347 ], [ -8.172599, 39.233313 ], [ -8.223642, 39.258128 ], [ -8.26141, 39.295483 ], [ -8.29418, 39.362951 ], [ -8.301797, 39.402195 ], [ -8.341615, 39.461358 ], [ -8.452727, 39.454368 ], [ -8.537909, 39.398428 ], [ -8.594679, 39.408105 ], [ -8.626376, 39.429211 ], [ -8.696157, 39.402302 ], [ -8.718917, 39.412295 ], [ -8.752323, 39.400614 ], [ -8.761129, 39.407558 ], [ -8.747618, 39.427409 ], [ -8.717541, 39.442725 ], [ -8.759381, 39.475741 ], [ -8.805278, 39.481812 ], [ -8.903421, 39.466007 ], [ -8.943829, 39.395896 ], [ -8.981427, 39.385729 ], [ -9.000346, 39.350639 ], [ -8.988996, 39.316878 ], [ -8.992233, 39.297365 ], [ -8.977644, 39.281533 ], [ -9.001984, 39.189927 ], [ -8.939866, 39.148819 ], [ -8.923608, 39.116698 ], [ -8.924202, 39.107737 ], [ -8.952443, 39.104918 ], [ -8.941844, 39.081986 ], [ -8.955864, 39.038749 ], [ -8.936593, 39.031615 ], [ -8.930277, 39.018025 ], [ -8.942417, 39.003368 ], [ -8.975159, 39.012846 ], [ -8.99844, 39.003183 ], [ -9.014992, 39.014756 ], [ -9.0314, 39.01292 ], [ -9.026823, 38.963983 ], [ -9.057476, 38.955859 ], [ -9.092963, 38.965625 ], [ -9.097473, 38.957446 ], [ -9.082795, 38.933122 ], [ -9.103808, 38.923052 ], [ -9.132304, 38.938622 ], [ -9.160603, 38.93343 ], [ -9.168487, 38.955944 ], [ -9.225199, 38.952866 ], [ -9.227586, 38.962416 ], [ -9.203649, 38.980816 ], [ -9.217181, 39.016587 ], [ -9.242018, 39.007137 ], [ -9.297357, 39.025079 ], [ -9.308151, 39.009291 ], [ -9.328294, 39.011818 ], [ -9.354794, 39.052005 ], [ -9.39092, 39.061405 ], [ -9.416455, 39.054697 ], [ -9.415455, 39.084507 ], [ -9.349608, 39.199703 ], [ -9.337734, 39.268569 ], [ -9.363579, 39.340299 ], [ -9.395387, 39.36404 ], [ -9.381366, 39.36989 ], [ -9.350912, 39.364434 ], [ -9.290926, 39.392498 ], [ -9.22793, 39.437063 ], [ -9.172214, 39.497808 ], [ -9.143658, 39.50833 ], [ -9.079745, 39.590273 ], [ -9.081832, 39.622338 ], [ -9.04026, 39.741423 ], [ -8.894933, 40.045503 ], [ -8.864505, 40.134826 ], [ -8.877075, 40.160918 ], [ -8.904238, 40.179887 ], [ -8.906099, 40.192636 ], [ -8.846443, 40.327037 ], [ -8.758944, 40.600586 ], [ -8.745654, 40.598113 ], [ -8.737524, 40.6095 ], [ -8.735078, 40.629594 ], [ -8.748651, 40.63299 ], [ -8.750581, 40.658362 ], [ -8.653119, 40.964778 ], [ -8.603687, 40.9706 ], [ -8.601086, 40.942357 ], [ -8.58203, 40.905782 ], [ -8.583676, 40.889025 ], [ -8.572548, 40.877327 ], [ -8.554149, 40.874085 ], [ -8.52585, 40.888052 ], [ -8.528652, 40.86338 ], [ -8.547401, 40.84879 ], [ -8.532198, 40.827844 ], [ -8.547754, 40.797276 ], [ -8.543664, 40.787431 ], [ -8.519772, 40.776176 ], [ -8.519775, 40.763145 ], [ -8.452404, 40.779408 ], [ -8.417019, 40.770104 ], [ -8.393853, 40.794669 ], [ -8.375649, 40.79793 ], [ -8.339796, 40.778968 ], [ -8.287425, 40.781686 ], [ -8.273369, 40.763173 ], [ -8.239323, 40.821633 ], [ -8.249433, 40.857339 ], [ -8.230033, 40.861974 ], [ -8.19629, 40.848141 ], [ -8.168571, 40.863099 ], [ -8.130665, 40.850514 ], [ -8.108423, 40.857695 ], [ -8.107566, 40.871445 ], [ -8.124694, 40.899298 ], [ -8.129788, 40.947223 ], [ -8.089172, 40.987555 ], [ -7.999868, 40.967932 ], [ -7.967383, 40.975843 ], [ -7.942357, 41.012123 ], [ -7.883989, 41.021632 ], [ -7.892717, 40.99805 ], [ -7.852301, 40.983634 ], [ -7.822612, 40.958918 ], [ -7.785597, 40.979644 ], [ -7.757704, 40.971684 ], [ -7.758045, 40.956913 ], [ -7.742979, 40.941155 ], [ -7.693647, 40.939803 ], [ -7.695752, 40.911777 ], [ -7.712788, 40.885897 ], [ -7.687719, 40.857193 ], [ -7.666037, 40.856325 ], [ -7.63185, 40.871847 ], [ -7.593725, 40.832884 ], [ -7.583164, 40.854977 ], [ -7.564924, 40.868993 ], [ -7.524973, 40.871661 ], [ -7.454204, 40.812608 ], [ -7.435925, 40.826494 ], [ -7.40612, 40.872602 ], [ -7.428328, 40.893897 ], [ -7.420643, 40.917267 ], [ -7.410664, 40.920595 ], [ -7.37817, 40.907041 ], [ -7.334643, 40.941449 ], [ -7.328573, 40.97117 ], [ -7.375539, 40.993448 ], [ -7.374128, 41.0122 ], [ -7.330425, 41.021079 ], [ -7.264005, 41.01713 ], [ -7.246235, 41.009168 ], [ -7.220389, 41.033758 ], [ -7.185699, 41.031597 ], [ -7.169216, 41.011682 ], [ -7.18355, 40.998459 ], [ -7.168783, 40.968353 ], [ -7.180654, 40.936753 ], [ -7.138742, 40.925557 ], [ -7.100256, 40.971663 ], [ -7.049867, 40.967838 ], [ -7.006848, 40.980101 ], [ -6.994476, 40.988416 ], [ -6.975823, 41.031262 ], [ -6.929903, 41.029466 ] ], [ [ -7.384178, 40.87397 ], [ -7.375335, 40.899734 ], [ -7.382883, 40.899636 ], [ -7.394786, 40.881245 ], [ -7.384178, 40.87397 ] ] ], [ [ [ -9.498176, 39.418326 ], [ -9.513895, 39.405334 ], [ -9.520693, 39.407454 ], [ -9.513, 39.421893 ], [ -9.498176, 39.418326 ] ] ] ] } },
{ "type": "Feature", "properties": { "loc": "PT17" }, "geometry": { "type": "MultiPolygon", "coordinates": [ [ [ [ -8.924881, 38.758674 ], [ -8.910832, 38.741926 ], [ -8.83925, 38.758988 ], [ -8.790162, 38.735792 ], [ -8.765947, 38.738793 ], [ -8.751977, 38.7483 ], [ -8.740454, 38.781738 ], [ -8.701562, 38.838715 ], [ -8.645723, 38.811277 ], [ -8.623786, 38.832412 ], [ -8.600705, 38.838995 ], [ -8.608026, 38.781518 ], [ -8.58912, 38.770097 ], [ -8.49425, 38.759344 ], [ -8.5075, 38.736533 ], [ -8.505067, 38.716722 ], [ -8.653537, 38.609117 ], [ -8.639114, 38.549491 ], [ -8.682011, 38.541651 ], [ -8.715331, 38.514387 ], [ -8.735063, 38.515672 ], [ -8.748861, 38.552008 ], [ -8.791799, 38.532799 ], [ -8.774544, 38.504869 ], [ -8.784592, 38.492424 ], [ -8.821697, 38.493264 ], [ -8.893731, 38.516596 ], [ -9.051945, 38.441719 ], [ -9.114344, 38.438086 ], [ -9.194508, 38.414643 ], [ -9.21183, 38.417191 ], [ -9.188301, 38.482949 ], [ -9.185369, 38.52747 ], [ -9.209926, 38.598601 ], [ -9.245677, 38.664788 ], [ -9.15501, 38.682191 ], [ -9.118838, 38.642693 ], [ -9.066734, 38.629794 ], [ -9.071855, 38.666362 ], [ -9.049685, 38.674582 ], [ -9.008255, 38.664438 ], [ -9.001967, 38.682524 ], [ -8.986774, 38.693341 ], [ -9.001278, 38.701034 ], [ -9.038935, 38.697761 ], [ -9.035271, 38.717932 ], [ -8.959882, 38.754978 ], [ -8.924881, 38.758674 ] ] ], [ [ [ -8.942417, 39.003368 ], [ -8.915639, 39.024559 ], [ -8.909577, 39.009355 ], [ -8.88933, 39.009254 ], [ -8.882799, 39.014702 ], [ -8.890705, 39.026331 ], [ -8.88256, 39.030627 ], [ -8.859921, 39.027261 ], [ -8.84577, 39.015656 ], [ -8.875069, 38.972625 ], [ -8.859836, 38.958653 ], [ -8.889473, 38.942628 ], [ -8.915782, 38.884727 ], [ -8.968466, 38.827765 ], [ -8.995648, 38.809195 ], [ -9.01498, 38.826577 ], [ -9.022509, 38.847832 ], [ -9.011704, 38.88273 ], [ -9.017409, 38.890279 ], [ -9.044824, 38.839828 ], [ -9.085892, 38.79765 ], [ -9.104567, 38.736402 ], [ -9.138135, 38.708469 ], [ -9.208461, 38.694147 ], [ -9.27835, 38.695146 ], [ -9.323734, 38.680197 ], [ -9.392838, 38.698336 ], [ -9.429657, 38.693657 ], [ -9.46965, 38.702066 ], [ -9.480049, 38.714806 ], [ -9.477152, 38.747823 ], [ -9.493286, 38.785922 ], [ -9.423686, 38.929149 ], [ -9.416455, 39.054697 ], [ -9.39092, 39.061405 ], [ -9.354794, 39.052005 ], [ -9.328294, 39.011818 ], [ -9.308151, 39.009291 ], [ -9.297357, 39.025079 ], [ -9.242018, 39.007137 ], [ -9.217181, 39.016587 ], [ -9.203649, 38.980816 ], [ -9.227586, 38.962416 ], [ -9.225199, 38.952866 ], [ -9.168487, 38.955944 ], [ -9.160603, 38.93343 ], [ -9.132304, 38.938622 ], [ -9.103808, 38.923052 ], [ -9.082795, 38.933122 ], [ -9.097473, 38.957446 ], [ -9.092963, 38.965625 ], [ -9.057476, 38.955859 ], [ -9.026823, 38.963983 ], [ -9.0314, 39.01292 ], [ -9.014992, 39.014756 ], [ -8.99844, 39.003183 ], [ -8.975159, 39.012846 ], [ -8.942417, 39.003368 ] ] ] ] } },
{ "type": "Feature", "properties": { "loc": "PT18" }, "geometry": { "type": "Polygon", "coordinates": [ [ [ -7.542929, 39.662815 ], [ -7.495791, 39.58904 ], [ -7.462832, 39.571826 ], [ -7.430722, 39.536589 ], [ -7.394045, 39.529658 ], [ -7.387912, 39.503648 ], [ -7.376081, 39.491077 ], [ -7.29964, 39.459833 ], [ -7.3044, 39.413339 ], [ -7.320526, 39.383039 ], [ -7.306825, 39.339021 ], [ -7.231467, 39.278431 ], [ -7.245524, 39.253099 ], [ -7.240815, 39.210675 ], [ -7.212838, 39.189871 ], [ -7.138464, 39.169686 ], [ -7.142556, 39.110818 ], [ -7.10938, 39.101057 ], [ -7.052173, 39.117157 ], [ -7.020879, 39.111843 ], [ -6.978372, 39.083005 ], [ -6.962954, 39.059185 ], [ -6.964659, 39.039818 ], [ -6.955609, 39.023457 ], [ -7.047493, 38.907235 ], [ -7.03578, 38.881208 ], [ -7.040223, 38.867265 ], [ -7.070644, 38.85048 ], [ -7.09089, 38.819645 ], [ -7.131273, 38.811297 ], [ -7.203135, 38.751017 ], [ -7.24917, 38.729025 ], [ -7.262522, 38.704668 ], [ -7.268358, 38.639178 ], [ -7.248037, 38.622461 ], [ -7.301552, 38.542675 ], [ -7.320132, 38.482139 ], [ -7.300549, 38.480447 ], [ -7.299061, 38.473872 ], [ -7.328689, 38.441434 ], [ -7.282638, 38.419155 ], [ -7.262727, 38.385847 ], [ -7.204346, 38.33014 ], [ -7.171172, 38.283701 ], [ -7.150671, 38.271741 ], [ -7.140906, 38.240607 ], [ -7.107952, 38.188121 ], [ -7.082111, 38.173247 ], [ -7.064857, 38.182871 ], [ -7.026415, 38.185625 ], [ -7.004445, 38.203681 ], [ -6.952208, 38.214859 ], [ -6.931738, 38.208378 ], [ -6.965131, 38.16981 ], [ -6.957129, 38.144649 ], [ -6.972884, 38.110894 ], [ -6.987505, 38.099716 ], [ -6.990159, 38.061464 ], [ -7.007111, 38.024445 ], [ -7.049558, 38.016948 ], [ -7.099013, 38.041198 ], [ -7.125894, 38.027644 ], [ -7.130037, 38.002411 ], [ -7.165869, 37.994401 ], [ -7.199043, 38.002418 ], [ -7.258086, 37.981403 ], [ -7.251265, 37.95098 ], [ -7.280514, 37.894191 ], [ -7.284002, 37.87089 ], [ -7.326495, 37.815821 ], [ -7.417897, 37.758057 ], [ -7.444786, 37.696372 ], [ -7.448222, 37.666639 ], [ -7.470552, 37.629186 ], [ -7.499801, 37.602387 ], [ -7.500677, 37.582903 ], [ -7.519797, 37.554597 ], [ -7.512691, 37.526256 ], [ -7.573968, 37.525342 ], [ -7.621214, 37.493565 ], [ -7.666689, 37.503944 ], [ -7.73577, 37.493754 ], [ -7.888571, 37.432687 ], [ -7.892794, 37.418239 ], [ -7.907629, 37.40975 ], [ -7.963852, 37.407323 ], [ -7.995645, 37.395702 ], [ -8.002662, 37.381714 ], [ -7.996404, 37.363336 ], [ -8.026303, 37.353104 ], [ -8.065813, 37.322396 ], [ -8.149542, 37.332968 ], [ -8.19727, 37.348416 ], [ -8.271322, 37.388404 ], [ -8.270358, 37.409454 ], [ -8.292882, 37.431064 ], [ -8.316566, 37.435523 ], [ -8.329603, 37.427141 ], [ -8.415089, 37.419069 ], [ -8.427044, 37.389179 ], [ -8.456432, 37.376016 ], [ -8.517932, 37.381378 ], [ -8.570845, 37.408424 ], [ -8.619252, 37.398887 ], [ -8.642802, 37.378526 ], [ -8.667454, 37.399616 ], [ -8.731383, 37.399824 ], [ -8.754427, 37.430142 ], [ -8.796321, 37.442948 ], [ -8.789212, 37.530543 ], [ -8.814147, 37.600946 ], [ -8.791488, 37.707738 ], [ -8.807155, 37.754223 ], [ -8.793281, 37.826265 ], [ -8.795315, 37.87277 ], [ -8.814557, 37.924053 ], [ -8.853661, 37.939857 ], [ -8.878002, 37.961772 ], [ -8.82997, 38.042735 ], [ -8.796297, 38.12595 ], [ -8.778063, 38.211974 ], [ -8.780467, 38.292714 ], [ -8.791419, 38.345369 ], [ -8.816306, 38.401034 ], [ -8.889642, 38.478067 ], [ -8.877129, 38.480005 ], [ -8.835354, 38.449337 ], [ -8.800636, 38.40192 ], [ -8.793453, 38.427951 ], [ -8.766227, 38.412199 ], [ -8.683246, 38.415073 ], [ -8.692387, 38.433089 ], [ -8.717978, 38.450445 ], [ -8.735063, 38.515672 ], [ -8.715331, 38.514387 ], [ -8.682011, 38.541651 ], [ -8.639114, 38.549491 ], [ -8.653537, 38.609117 ], [ -8.505067, 38.716722 ], [ -8.5075, 38.736533 ], [ -8.49425, 38.759344 ], [ -8.58912, 38.770097 ], [ -8.608026, 38.781518 ], [ -8.600705, 38.838995 ], [ -8.623786, 38.832412 ], [ -8.645723, 38.811277 ], [ -8.701562, 38.838715 ], [ -8.740454, 38.781738 ], [ -8.751977, 38.7483 ], [ -8.765947, 38.738793 ], [ -8.790162, 38.735792 ], [ -8.83925, 38.758988 ], [ -8.910832, 38.741926 ], [ -8.93122, 38.768701 ], [ -8.942053, 38.800607 ], [ -8.968466, 38.827765 ], [ -8.915782, 38.884727 ], [ -8.889473, 38.942628 ], [ -8.859836, 38.958653 ], [ -8.875069, 38.972625 ], [ -8.84577, 39.015656 ], [ -8.859921, 39.027261 ], [ -8.88256, 39.030627 ], [ -8.890705, 39.026331 ], [ -8.882799, 39.014702 ], [ -8.88933, 39.009254 ], [ -8.909577, 39.009355 ], [ -8.915639, 39.024559 ], [ -8.930277, 39.018025 ], [ -8.936593, 39.031615 ], [ -8.955864, 39.038749 ], [ -8.941844, 39.081986 ], [ -8.952443, 39.104918 ], [ -8.924202, 39.107737 ], [ -8.923608, 39.116698 ], [ -8.939866, 39.148819 ], [ -9.001984, 39.189927 ], [ -8.977644, 39.281533 ], [ -8.992233, 39.297365 ], [ -8.988996, 39.316878 ], [ -9.000346, 39.350639 ], [ -8.981427, 39.385729 ], [ -8.943829, 39.395896 ], [ -8.903421, 39.466007 ], [ -8.805278, 39.481812 ], [ -8.759381, 39.475741 ], [ -8.717541, 39.442725 ], [ -8.747618, 39.427409 ], [ -8.761129, 39.407558 ], [ -8.752323, 39.400614 ], [ -8.718917, 39.412295 ], [ -8.696157, 39.402302 ], [ -8.626376, 39.429211 ], [ -8.594679, 39.408105 ], [ -8.537909, 39.398428 ], [ -8.452727, 39.454368 ], [ -8.341615, 39.461358 ], [ -8.301797, 39.402195 ], [ -8.29418, 39.362951 ], [ -8.26141, 39.295483 ], [ -8.223642, 39.258128 ], [ -8.172599, 39.233313 ], [ -8.155328, 39.248347 ], [ -8.153315, 39.268841 ], [ -8.141498, 39.281344 ], [ -8.123751, 39.286973 ], [ -8.104249, 39.277335 ], [ -8.082348, 39.278723 ], [ -8.030033, 39.340435 ], [ -8.027103, 39.361892 ], [ -7.968108, 39.385082 ], [ -7.944492, 39.407509 ], [ -7.947812, 39.421421 ], [ -7.995622, 39.450529 ], [ -8.007019, 39.469209 ], [ -8.000162, 39.500238 ], [ -7.958681, 39.560185 ], [ -7.914661, 39.548713 ], [ -7.851099, 39.51215 ], [ -7.825104, 39.537365 ], [ -7.796942, 39.545368 ], [ -7.768511, 39.56592 ], [ -7.75475, 39.587941 ], [ -7.724966, 39.592197 ], [ -7.713171, 39.609076 ], [ -7.715751, 39.624626 ], [ -7.703235, 39.636616 ], [ -7.669043, 39.64721 ], [ -7.639932, 39.622906 ], [ -7.596677, 39.640462 ], [ -7.579293, 39.658546 ], [ -7.542929, 39.662815 ] ] ] } },
{ "type": "Feature", "properties": { "loc": "PT20" }, "geometry": { "type": "MultiPolygon", "coordinates": [ [ [ [ -25.087197, 37.015811 ], [ -25.054081, 37.012254 ], [ -25.055257, 36.989888 ], [ -25.019649, 36.96328 ], [ -25.016907, 36.930358 ], [ -25.069217, 36.93006 ], [ -25.091905, 36.949566 ], [ -25.112449, 36.951533 ], [ -25.140088, 36.940394 ], [ -25.166585, 36.945042 ], [ -25.18479, 36.984973 ], [ -25.180898, 36.996598 ], [ -25.16467, 37.005441 ], [ -25.119715, 37.004253 ], [ -25.087197, 37.015811 ] ] ], [ [ [ -25.783787, 37.910082 ], [ -25.718708, 37.885849 ], [ -25.690496, 37.842923 ], [ -25.640168, 37.828986 ], [ -25.628241, 37.832131 ], [ -25.585211, 37.814133 ], [ -25.525855, 37.823585 ], [ -25.48808, 37.846716 ], [ -25.471909, 37.826197 ], [ -25.441533, 37.823829 ], [ -25.431827, 37.832192 ], [ -25.427971, 37.824363 ], [ -25.407796, 37.826648 ], [ -25.329663, 37.85362 ], [ -25.318311, 37.865192 ], [ -25.296501, 37.855019 ], [ -25.262108, 37.861952 ], [ -25.243429, 37.853956 ], [ -25.171314, 37.856844 ], [ -25.150173, 37.850231 ], [ -25.136231, 37.823757 ], [ -25.139698, 37.781142 ], [ -25.150042, 37.758765 ], [ -25.171589, 37.742453 ], [ -25.20381, 37.735618 ], [ -25.250409, 37.746594 ], [ -25.279264, 37.742558 ], [ -25.368887, 37.71407 ], [ -25.483745, 37.71794 ], [ -25.509781, 37.707536 ], [ -25.565841, 37.74322 ], [ -25.617402, 37.74968 ], [ -25.677533, 37.733984 ], [ -25.6967, 37.736212 ], [ -25.815519, 37.810311 ], [ -25.840771, 37.828994 ], [ -25.851359, 37.850568 ], [ -25.853336, 37.86023 ], [ -25.824673, 37.885261 ], [ -25.820739, 37.899737 ], [ -25.801669, 37.897204 ], [ -25.783787, 37.910082 ] ] ], [ [ [ -27.256756, 38.802579 ], [ -27.229068, 38.79128 ], [ -27.213744, 38.799916 ], [ -27.140681, 38.783557 ], [ -27.102699, 38.78511 ], [ -27.068243, 38.76564 ], [ -27.058484, 38.744478 ], [ -27.044633, 38.735822 ], [ -27.060516, 38.728157 ], [ -27.059654, 38.713523 ], [ -27.046587, 38.716236 ], [ -27.042402, 38.696614 ], [ -27.056158, 38.677944 ], [ -27.074402, 38.670293 ], [ -27.079824, 38.64401 ], [ -27.139322, 38.644499 ], [ -27.173315, 38.654415 ], [ -27.209082, 38.65365 ], [ -27.220984, 38.650511 ], [ -27.219561, 38.642493 ], [ -27.232604, 38.644188 ], [ -27.232251, 38.655456 ], [ -27.276903, 38.652936 ], [ -27.351527, 38.687353 ], [ -27.370019, 38.709078 ], [ -27.378169, 38.734187 ], [ -27.379229, 38.747528 ], [ -27.361547, 38.779052 ], [ -27.332975, 38.793462 ], [ -27.256756, 38.802579 ] ] ], [ [ [ -28.26518, 38.745605 ], [ -28.024911, 38.672037 ], [ -27.916828, 38.616281 ], [ -27.797908, 38.574165 ], [ -27.753753, 38.547991 ], [ -27.771638, 38.536894 ], [ -27.827797, 38.533778 ], [ -27.943658, 38.589482 ], [ -28.025775, 38.60234 ], [ -28.064143, 38.625714 ], [ -28.104041, 38.632154 ], [ -28.190641, 38.667033 ], [ -28.202284, 38.680559 ], [ -28.22311, 38.680918 ], [ -28.220812, 38.690639 ], [ -28.232411, 38.702113 ], [ -28.268768, 38.716037 ], [ -28.316199, 38.754365 ], [ -28.26518, 38.745605 ] ] ], [ [ [ -28.048801, 39.094962 ], [ -27.995589, 39.087937 ], [ -27.955612, 39.039207 ], [ -27.948151, 39.021077 ], [ -27.953248, 39.012746 ], [ -27.996215, 39.012752 ], [ -28.046546, 39.033728 ], [ -28.071815, 39.067047 ], [ -28.048801, 39.094962 ] ] ], [ [ [ -28.390332, 38.558163 ], [ -28.3234, 38.532039 ], [ -28.294971, 38.506825 ], [ -28.242151, 38.498717 ], [ -28.191215, 38.462981 ], [ -28.058207, 38.442924 ], [ -28.03512, 38.428469 ], [ -28.030322, 38.411686 ], [ -28.095012, 38.400427 ], [ -28.178955, 38.408991 ], [ -28.197659, 38.395071 ], [ -28.237687, 38.382922 ], [ -28.255919, 38.390938 ], [ -28.257022, 38.404297 ], [ -28.267738, 38.410931 ], [ -28.36379, 38.412328 ], [ -28.411371, 38.427614 ], [ -28.445286, 38.42045 ], [ -28.51618, 38.452656 ], [ -28.539606, 38.485684 ], [ -28.534825, 38.532739 ], [ -28.514624, 38.548406 ], [ -28.475623, 38.560376 ], [ -28.390332, 38.558163 ] ] ], [ [ [ -28.621627, 38.611134 ], [ -28.598785, 38.592482 ], [ -28.60966, 38.564815 ], [ -28.605881, 38.543839 ], [ -28.620934, 38.541652 ], [ -28.626006, 38.533884 ], [ -28.620267, 38.519672 ], [ -28.631534, 38.5183 ], [ -28.627521, 38.525433 ], [ -28.720846, 38.517794 ], [ -28.750082, 38.523273 ], [ -28.758413, 38.559412 ], [ -28.813604, 38.580938 ], [ -28.834069, 38.599943 ], [ -28.804071, 38.610265 ], [ -28.75555, 38.610958 ], [ -28.714767, 38.643688 ], [ -28.621627, 38.611134 ] ] ], [ [ [ -31.087107, 39.686454 ], [ -31.111733, 39.669848 ], [ -31.122915, 39.672145 ], [ -31.117175, 39.679695 ], [ -31.128908, 39.702277 ], [ -31.118839, 39.724753 ], [ -31.087965, 39.719301 ], [ -31.082083, 39.706656 ], [ -31.087107, 39.686454 ] ] ], [ [ [ -31.207542, 39.523565 ], [ -31.201869, 39.508766 ], [ -31.183189, 39.49895 ], [ -31.155412, 39.499989 ], [ -31.147977, 39.475413 ], [ -31.127046, 39.462761 ], [ -31.128302, 39.448513 ], [ -31.144518, 39.435339 ], [ -31.139136, 39.426249 ], [ -31.150215, 39.419694 ], [ -31.160091, 39.386474 ], [ -31.17594, 39.37529 ], [ -31.230879, 39.371083 ], [ -31.248149, 39.376083 ], [ -31.25844, 39.398453 ], [ -31.25209, 39.402939 ], [ -31.267969, 39.45191 ], [ -31.258095, 39.463094 ], [ -31.256811, 39.489539 ], [ -31.235902, 39.507985 ], [ -31.235902, 39.520727 ], [ -31.207542, 39.523565 ] ] ] ] } },
{ "type": "Feature", "properties": { "loc": "PT30" }, "geometry": { "type": "MultiPolygon", "coordinates": [ [ [ [ -15.856112, 30.148916 ], [ -15.858132, 30.139685 ], [ -15.874598, 30.141487 ], [ -15.871014, 30.15373 ], [ -15.856112, 30.148916 ] ] ], [ [ [ -16.372043, 33.028198 ], [ -16.383145, 33.027839 ], [ -16.393804, 33.038635 ], [ -16.372043, 33.077076 ], [ -16.322249, 33.103492 ], [ -16.298139, 33.096546 ], [ -16.298166, 33.062978 ], [ -16.331714, 33.057731 ], [ -16.372043, 33.028198 ] ] ], [ [ [ -16.377634, 33.01191 ], [ -16.384472, 33.001355 ], [ -16.3989, 33.004296 ], [ -16.383859, 33.01865 ], [ -16.377634, 33.01191 ] ] ], [ [ [ -16.464921, 32.408133 ], [ -16.470594, 32.402318 ], [ -16.487231, 32.418587 ], [ -16.471887, 32.419201 ], [ -16.464921, 32.408133 ] ] ], [ [ [ -16.482232, 32.434262 ], [ -16.488824, 32.426148 ], [ -16.496317, 32.448344 ], [ -16.48707, 32.450176 ], [ -16.482232, 32.434262 ] ] ], [ [ [ -16.500013, 32.520008 ], [ -16.493392, 32.485143 ], [ -16.520614, 32.532178 ], [ -16.536226, 32.541368 ], [ -16.537315, 32.572595 ], [ -16.500013, 32.520008 ] ] ], [ [ [ -16.673751, 32.743367 ], [ -16.682515, 32.734324 ], [ -16.694627, 32.749042 ], [ -16.677944, 32.750477 ], [ -16.673751, 32.743367 ] ] ], [ [ [ -17.12501, 32.827753 ], [ -17.051058, 32.808914 ], [ -16.990208, 32.82984 ], [ -16.907169, 32.83648 ], [ -16.885305, 32.82714 ], [ -16.822241, 32.768449 ], [ -16.735854, 32.748724 ], [ -16.696993, 32.749098 ], [ -16.702514, 32.739699 ], [ -16.744984, 32.734479 ], [ -16.763754, 32.716268 ], [ -16.77331, 32.692014 ], [ -16.790169, 32.686831 ], [ -16.802994, 32.664613 ], [ -16.831825, 32.641484 ], [ -16.904869, 32.646581 ], [ -16.943524, 32.633165 ], [ -16.985105, 32.6508 ], [ -17.019657, 32.653597 ], [ -17.086607, 32.679577 ], [ -17.103701, 32.678715 ], [ -17.211887, 32.736998 ], [ -17.240766, 32.768456 ], [ -17.251204, 32.801148 ], [ -17.265, 32.814756 ], [ -17.193689, 32.870402 ], [ -17.167702, 32.868494 ], [ -17.12501, 32.827753 ] ] ] ] } }
]
}
