{
"type": "FeatureCollection",
"name": "regions_ML",
"crs": { "type": "name", "properties": { "name": "urn:ogc:def:crs:OGC:1.3:CRS84" } },
"features": [
{ "type": "Feature", "properties": { "loc": "ML030122101" }, "geometry": { "type": "Polygon", "coordinates": [ [ [ -7.591165755600001, 11.960592563900001 ], [ -7.569465755600001, 11.8334925639 ], [ -7.467765755600001, 11.7413925639 ], [ -7.355365755600001, 11.687692563900001 ], [ -7.220365755600001, 11.664892563900001 ], [ -7.245265755600001, 11.6276925639 ], [ -7.294665755600001, 11.6551925639 ], [ -7.349365755600001, 11.6285925639 ], [ -7.422165755600001, 11.522092563899999 ], [ -7.380465755600001, 11.524492563900001 ], [ -7.347165755600001, 11.4136925639 ], [ -7.326965755600002, 11.428392563899999 ], [ -7.315465755600001, 11.417092563899999 ], [ -7.322265755600001, 11.396292563899999 ], [ -7.363365755600001, 11.3702925639 ], [ -7.379765755600001, 11.3212925639 ], [ -7.375365755600001, 11.275192563899999 ], [ -7.312965755600001, 11.2528925639 ], [ -7.338465755600001, 11.178492563900001 ], [ -7.397565755600001, 11.1507925639 ], [ -7.443765755600001, 11.1506925639 ], [ -7.521565755600001, 11.0886925639 ], [ -7.559965755600001, 11.0232925639 ], [ -7.658465755600001, 11.001692563900001 ], [ -7.705665755600001, 11.0308925639 ], [ -7.665665755600001, 11.044392563900001 ], [ -7.683065755600001, 11.0539925639 ], [ -7.697665755600001, 11.0989925639 ], [ -7.674565755600002, 11.106892563900001 ], [ -7.668265755600001, 11.1377925639 ], [ -7.636765755600001, 11.156992563899999 ], [ -7.676065755600002, 11.1732925639 ], [ -7.6681657556, 11.2053925639 ], [ -7.721565755600001, 11.2192925639 ], [ -7.872065755600001, 11.209692563899999 ], [ -8.084165755600001, 11.3472925639 ], [ -8.150365755600001, 11.4371925639 ], [ -8.179665755600002, 11.4134925639 ], [ -8.144665755600002, 11.4697925639 ], [ -8.1744657556, 11.4843925639 ], [ -8.197665755600001, 11.539592563899999 ], [ -8.268465755600001, 11.503192563900001 ], [ -8.266765755600002, 11.3851925639 ], [ -8.305265755600001, 11.359992563900001 ], [ -8.489165755600002, 11.393992563899999 ], [ -8.525865755600002, 11.4325925639 ], [ -8.525365755600001, 11.4766925639 ], [ -8.558665755600002, 11.4592925639 ], [ -8.575465755600002, 11.4668925639 ], [ -8.530165755600001, 11.4945925639 ], [ -8.538565755600001, 11.5163925639 ], [ -8.522565755600001, 11.537592563900001 ], [ -8.538365755600001, 11.559392563899999 ], [ -8.518465755600001, 11.5735925639 ], [ -8.515265755600002, 11.601392563899999 ], [ -8.491165755600001, 11.589892563899999 ], [ -8.455865755600001, 11.6214925639 ], [ -8.464765755600002, 11.6397925639 ], [ -8.240965755600001, 11.6855925639 ], [ -8.2070657556, 11.7139925639 ], [ -8.184065755600001, 11.7124925639 ], [ -8.191565755600001, 11.6895925639 ], [ -8.067165755600001, 11.683792563899999 ], [ -8.028265755600001, 11.705292563900001 ], [ -7.963965755600001, 11.783692563900001 ], [ -7.874465755600001, 11.827192563899999 ], [ -7.831765755600001, 11.881292563900001 ], [ -7.714465755600001, 11.9152925639 ], [ -7.688465755600001, 11.9518925639 ], [ -7.620965755600001, 11.9441925639 ], [ -7.591165755600001, 11.960592563900001 ] ] ] } },
{ "type": "Feature", "properties": { "loc": "ML030120104" }, "geometry": { "type": "Polygon", "coordinates": [ [ [ -7.116865755600001, 12.455092563899999 ], [ -7.138365755600001, 12.3874925639 ], [ -7.120465755600002, 12.3447925639 ], [ -7.128365755600001, 12.3166925639 ], [ -7.085765755600001, 12.2762925639 ], [ -7.116265755600001, 12.218792563899999 ], [ -7.077965755600001, 12.2053925639 ], [ -7.069065755600001, 12.178392563899999 ], [ -7.134465755600001, 12.1275925639 ], [ -7.090565755600001, 12.1186925639 ], [ -7.098565755600001, 12.086092563899999 ], [ -7.140165755600001, 12.0791925639 ], [ -7.159365755600001, 12.0566925639 ], [ -7.083465755600001, 12.012392563900001 ], [ -7.111665755600001, 11.975692563900001 ], [ -7.100765755600001, 11.960592563900001 ], [ -7.144365755600001, 11.956492563899999 ], [ -7.135465755600001, 11.9081925639 ], [ -7.189665755600001, 11.8297925639 ], [ -7.182065755600001, 11.817792563899999 ], [ -7.127265755600001, 11.819292563899999 ], [ -7.147065755600001, 11.7634925639 ], [ -7.124065755600001, 11.7129925639 ], [ -7.140965755600001, 11.706692563899999 ], [ -7.167365755600001, 11.737092563899999 ], [ -7.194365755600001, 11.736992563899999 ], [ -7.250065755600001, 11.7137925639 ], [ -7.2687657556, 11.6720925639 ], [ -7.355365755600001, 11.687692563900001 ], [ -7.467765755600001, 11.7413925639 ], [ -7.569465755600001, 11.8334925639 ], [ -7.591665755600001, 11.9701925639 ], [ -7.5454657556, 11.991592563899999 ], [ -7.515065755600001, 12.0271925639 ], [ -7.526765755600001, 12.0765925639 ], [ -7.509765755600001, 12.1306925639 ], [ -7.448265755600001, 12.176992563900001 ], [ -7.425265755600002, 12.176992563900001 ], [ -7.395365755600001, 12.2124925639 ], [ -7.325465755600002, 12.2398925639 ], [ -7.3137657556, 12.262292563900001 ], [ -7.297365755600001, 12.259992563899999 ], [ -7.283565755600002, 12.332292563899999 ], [ -7.249465755600001, 12.3580925639 ], [ -7.202565755600001, 12.361492563900001 ], [ -7.174265755600001, 12.4198925639 ], [ -7.116865755600001, 12.455092563899999 ] ] ] } },
{ "type": "Feature", "properties": { "loc": "ML030122103" }, "geometry": { "type": "Polygon", "coordinates": [ [ [ -7.343565755600001, 11.179092563899999 ], [ -7.2527657556, 11.013892563900001 ], [ -7.155265755600001, 11.0849925639 ], [ -7.147465755600001, 11.046692563900001 ], [ -7.112065755600001, 11.025992563899999 ], [ -7.077965755600001, 10.934392563899999 ], [ -7.010565755600001, 10.859092563899999 ], [ -7.024665755600001, 10.817992563899999 ], [ -7.070365755600001, 10.781392563899999 ], [ -7.123465755600001, 10.705792563899999 ], [ -6.940165755600001, 10.3748925639 ], [ -6.993665755600001, 10.3114925639 ], [ -6.965165755600001, 10.2504925639 ], [ -6.963565755600001, 10.2093925639 ], [ -7.018165755600001, 10.165392563899999 ], [ -7.051465755600001, 10.1652925639 ], [ -7.081665755600001, 10.220392563899999 ], [ -7.167165755600001, 10.2544925639 ], [ -7.267865755600001, 10.2604925639 ], [ -7.295965755600001, 10.2845925639 ], [ -7.3297657556, 10.269292563900001 ], [ -7.376365755600001, 10.2764925639 ], [ -7.364365755600002, 10.3654925639 ], [ -7.431265755600001, 10.395692563899999 ], [ -7.461465755600001, 10.471292563900001 ], [ -7.519465755600001, 10.4758925639 ], [ -7.560065755600001, 10.4409925639 ], [ -7.6140657556, 10.4509925639 ], [ -7.638765755600001, 10.486392563899999 ], [ -7.669165755600002, 10.4434925639 ], [ -7.736165755600001, 10.424792563900001 ], [ -7.763065755600001, 10.4537925639 ], [ -7.788465755600001, 10.4494925639 ], [ -7.774265755600001, 10.508592563900001 ], [ -7.814765755600002, 10.5219925639 ], [ -7.7893657556, 10.538892563899999 ], [ -7.8259657556, 10.5508925639 ], [ -7.816865755600001, 10.5669925639 ], [ -7.841065755600001, 10.5882925639 ], [ -7.831465755600001, 10.6164925639 ], [ -7.787565755600001, 10.611492563900001 ], [ -7.807165755600002, 10.6238925639 ], [ -7.785765755600002, 10.628892563899999 ], [ -7.785165755600001, 10.6536925639 ], [ -7.748065755600001, 10.6604925639 ], [ -7.766065755600001, 10.672292563899999 ], [ -7.743965755600001, 10.7178925639 ], [ -7.765265755600002, 10.7617925639 ], [ -7.725965755600001, 10.7466925639 ], [ -7.715465755600001, 10.7663925639 ], [ -7.701165755600002, 10.7399925639 ], [ -7.686565755600001, 10.7422925639 ], [ -7.641365755600001, 10.8363925639 ], [ -7.592365755600001, 10.837592563899999 ], [ -7.609165755600001, 10.8853925639 ], [ -7.645465755600001, 10.891992563900001 ], [ -7.626765755600001, 10.9286925639 ], [ -7.664165755600001, 10.939792563899999 ], [ -7.671465755600002, 10.9662925639 ], [ -7.698965755600002, 10.984692563899999 ], [ -7.555465755600001, 11.0255925639 ], [ -7.521565755600001, 11.0886925639 ], [ -7.443765755600001, 11.1506925639 ], [ -7.389165755600001, 11.1530925639 ], [ -7.343565755600001, 11.179092563899999 ] ] ] } },
{ "type": "Feature", "properties": { "loc": "ML030122102" }, "geometry": { "type": "Polygon", "coordinates": [ [ [ -6.955865755600001, 11.9698925639 ], [ -6.939665755600001, 11.895692563899999 ], [ -6.905365755600001, 11.8973925639 ], [ -6.840265755600001, 11.8249925639 ], [ -6.724365755600001, 11.798792563899999 ], [ -6.704765755600001, 11.764492563899999 ], [ -6.678865755600001, 11.794192563899999 ], [ -6.565865755600001, 11.7518925639 ], [ -6.567865755600001, 11.7130925639 ], [ -6.549065755600001, 11.673792563899999 ], [ -6.589865755600001, 11.574092563899999 ], [ -6.577565755600001, 11.5262925639 ], [ -6.546665755600001, 11.5133925639 ], [ -6.551765755600001, 11.480992563899999 ], [ -6.581165755600001, 11.430092563900001 ], [ -6.625565755600001, 11.4265925639 ], [ -6.664465755600001, 11.392692563899999 ], [ -6.680365755600001, 11.3386925639 ], [ -6.706865755600001, 11.311092563900001 ], [ -6.743365755600001, 11.3334925639 ], [ -6.805365755600001, 11.3135925639 ], [ -6.816065755600001, 11.295092563899999 ], [ -6.944865755600001, 11.3419925639 ], [ -6.955965755600001, 11.3700925639 ], [ -7.060065755600001, 11.4114925639 ], [ -7.141165755600001, 11.3465925639 ], [ -7.233665755600001, 11.2389925639 ], [ -7.167065755600001, 11.0826925639 ], [ -7.194165755600001, 11.0477925639 ], [ -7.256065755600002, 11.0155925639 ], [ -7.338465755600001, 11.178492563900001 ], [ -7.312965755600001, 11.2528925639 ], [ -7.376565755600001, 11.2779925639 ], [ -7.363365755600001, 11.3702925639 ], [ -7.322265755600001, 11.396292563899999 ], [ -7.315465755600001, 11.417092563899999 ], [ -7.326965755600002, 11.428392563899999 ], [ -7.347165755600001, 11.4136925639 ], [ -7.380465755600001, 11.524492563900001 ], [ -7.422165755600001, 11.522092563899999 ], [ -7.349365755600001, 11.6285925639 ], [ -7.294665755600001, 11.6551925639 ], [ -7.245265755600001, 11.6276925639 ], [ -7.220365755600001, 11.664892563900001 ], [ -7.2687657556, 11.6720925639 ], [ -7.246765755600001, 11.7160925639 ], [ -7.167365755600001, 11.737092563899999 ], [ -7.140965755600001, 11.706692563899999 ], [ -7.124065755600001, 11.7129925639 ], [ -7.147065755600001, 11.7634925639 ], [ -7.127265755600001, 11.819292563899999 ], [ -7.182065755600001, 11.817792563899999 ], [ -7.189665755600001, 11.8297925639 ], [ -7.135465755600001, 11.9081925639 ], [ -7.144365755600001, 11.956492563899999 ], [ -6.955865755600001, 11.9698925639 ] ] ] } },
{ "type": "Feature", "properties": { "loc": "ML030122106" }, "geometry": { "type": "Polygon", "coordinates": [ [ [ -8.1666657556, 11.476492563899999 ], [ -8.144665755600002, 11.4697925639 ], [ -8.179665755600002, 11.4134925639 ], [ -8.150365755600001, 11.4371925639 ], [ -8.084165755600001, 11.3472925639 ], [ -7.907265755600001, 11.2261925639 ], [ -7.861165755600001, 11.206592563899999 ], [ -7.708665755600001, 11.216492563899999 ], [ -7.6681657556, 11.2053925639 ], [ -7.672665755600001, 11.1681925639 ], [ -7.636765755600001, 11.1598925639 ], [ -7.668265755600001, 11.1377925639 ], [ -7.674565755600002, 11.106892563900001 ], [ -7.697665755600001, 11.0989925639 ], [ -7.683065755600001, 11.0539925639 ], [ -7.665665755600001, 11.044392563900001 ], [ -7.705665755600001, 11.0308925639 ], [ -7.6780657556, 11.0241925639 ], [ -7.658465755600001, 10.9982925639 ], [ -7.696165755600001, 10.9875925639 ], [ -7.698165755600002, 10.9745925639 ], [ -7.671465755600002, 10.9662925639 ], [ -7.664165755600001, 10.939792563899999 ], [ -7.626765755600001, 10.9286925639 ], [ -7.645765755600001, 10.8908925639 ], [ -7.609165755600001, 10.8853925639 ], [ -7.592365755600001, 10.837592563899999 ], [ -7.641365755600001, 10.8363925639 ], [ -7.686565755600001, 10.7422925639 ], [ -7.701165755600002, 10.7399925639 ], [ -7.715465755600001, 10.7663925639 ], [ -7.725965755600001, 10.7466925639 ], [ -7.765265755600002, 10.7617925639 ], [ -7.743965755600001, 10.7178925639 ], [ -7.766065755600001, 10.672292563899999 ], [ -7.748065755600001, 10.6604925639 ], [ -7.785165755600001, 10.6536925639 ], [ -7.785765755600002, 10.628892563899999 ], [ -7.807165755600002, 10.6238925639 ], [ -7.787565755600001, 10.611492563900001 ], [ -7.831465755600001, 10.6164925639 ], [ -7.841065755600001, 10.5989925639 ], [ -7.816865755600001, 10.5669925639 ], [ -7.8259657556, 10.5508925639 ], [ -7.7893657556, 10.538892563899999 ], [ -7.814765755600002, 10.5219925639 ], [ -7.774265755600001, 10.508592563900001 ], [ -7.792965755600001, 10.454492563900001 ], [ -7.763065755600001, 10.4537925639 ], [ -7.756965755600001, 10.433792563899999 ], [ -7.726065755600001, 10.4259925639 ], [ -7.741965755600001, 10.398692563899999 ], [ -7.725365755600001, 10.3898925639 ], [ -7.726165755600001, 10.3548925639 ], [ -7.754965755600001, 10.344592563899999 ], [ -7.752865755600001, 10.3267925639 ], [ -7.773865755600001, 10.317292563900001 ], [ -7.758565755600001, 10.297392563900001 ], [ -7.815165755600001, 10.2368925639 ], [ -7.934565755600001, 10.1664925639 ], [ -7.971765755600002, 10.1779925639 ], [ -7.946665755600002, 10.2099925639 ], [ -7.946165755600001, 10.2451925639 ], [ -7.970265755600002, 10.320292563900001 ], [ -7.998565755600001, 10.340792563899999 ], [ -8.080365755600001, 10.3532925639 ], [ -8.119665755600002, 10.4225925639 ], [ -8.169965755600002, 10.3999925639 ], [ -8.208765755600002, 10.404692563899999 ], [ -8.2268657556, 10.416292563900001 ], [ -8.237665755600002, 10.461892563899999 ], [ -8.263865755600001, 10.4807925639 ], [ -8.2596657556, 10.5002925639 ], [ -8.275965755600001, 10.517592563899999 ], [ -8.269165755600001, 10.5795925639 ], [ -8.288065755600002, 10.593192563900001 ], [ -8.300665755600001, 10.6377925639 ], [ -8.306165755600002, 10.715092563900001 ], [ -8.292865755600001, 10.7512925639 ], [ -8.326465755600001, 10.7701925639 ], [ -8.272565755600001, 10.8578925639 ], [ -8.2855657556, 11.0002925639 ], [ -8.318565755600002, 11.0493925639 ], [ -8.3777657556, 11.079992563899999 ], [ -8.4000657556, 11.0652925639 ], [ -8.4655657556, 11.0714925639 ], [ -8.4959657556, 11.0399925639 ], [ -8.508465755600001, 10.972792563900001 ], [ -8.584965755600001, 10.9495925639 ], [ -8.6178657556, 10.9661925639 ], [ -8.651965755600001, 10.9495925639 ], [ -8.677665755600001, 10.957392563899999 ], [ -8.678265755600002, 11.009892563899999 ], [ -8.6180657556, 11.085592563900001 ], [ -8.626465755600002, 11.116092563900001 ], [ -8.5646657556, 11.1428925639 ], [ -8.564765755600002, 11.2048925639 ], [ -8.476765755600001, 11.2290925639 ], [ -8.497165755600001, 11.261592563899999 ], [ -8.487765755600002, 11.285292563900001 ], [ -8.467365755600001, 11.293692563900001 ], [ -8.404965755600001, 11.270592563899999 ], [ -8.373665755600001, 11.2792925639 ], [ -8.3594657556, 11.317892563899999 ], [ -8.411865755600001, 11.324192563900001 ], [ -8.413165755600001, 11.356792563899999 ], [ -8.3741657556, 11.369892563900001 ], [ -8.305265755600001, 11.359992563900001 ], [ -8.272265755600001, 11.3754925639 ], [ -8.268465755600001, 11.503192563900001 ], [ -8.254265755600001, 11.5156925639 ], [ -8.197665755600001, 11.539592563899999 ], [ -8.1666657556, 11.476492563899999 ] ] ] } },
{ "type": "Feature", "properties": { "loc": "ML020201201" }, "geometry": { "type": "Polygon", "coordinates": [ [ [ -6.381565755600001, 12.5889925639 ], [ -6.343465755600001, 12.5643925639 ], [ -6.291365755600001, 12.5744925639 ], [ -6.248165755600001, 12.5326925639 ], [ -6.252065755600001, 12.503092563899999 ], [ -6.271565755600001, 12.4996925639 ], [ -6.236365755600001, 12.4354925639 ], [ -6.266465755600001, 12.3996925639 ], [ -6.220765755600001, 12.4080925639 ], [ -6.156565755600001, 12.3928925639 ], [ -6.124165755600001, 12.3146925639 ], [ -6.077265755600001, 12.295092563899999 ], [ -6.047665755600001, 12.2992925639 ], [ -6.035965755600001, 12.324092563899999 ], [ -5.994665755600001, 12.317992563899999 ], [ -5.995165755600001, 12.2542925639 ], [ -5.957165755600001, 12.2322925639 ], [ -5.962765755600001, 12.162492563899999 ], [ -6.127365755600001, 12.1519925639 ], [ -6.139765755600001, 12.087592563899999 ], [ -6.168165755600001, 12.068592563899999 ], [ -6.191365755600001, 12.0683925639 ], [ -6.244565755600001, 12.109692563899999 ], [ -6.293765755600001, 12.1019925639 ], [ -6.333865755600001, 12.069292563899999 ], [ -6.348465755600001, 12.1764925639 ], [ -6.383165755600001, 12.2282925639 ], [ -6.430965755600001, 12.232492563899999 ], [ -6.509265755600001, 12.2816925639 ], [ -6.496965755600001, 12.371892563899999 ], [ -6.564865755600001, 12.4532925639 ], [ -6.557865755600001, 12.508392563899999 ], [ -6.589865755600001, 12.5444925639 ], [ -6.536365755600001, 12.6681925639 ], [ -6.459365755600001, 12.7281925639 ], [ -6.409065755600001, 12.705192563899999 ], [ -6.413365755600001, 12.6575925639 ], [ -6.381565755600001, 12.5889925639 ] ] ] } },
{ "type": "Feature", "properties": { "loc": "ML020220202" }, "geometry": { "type": "Polygon", "coordinates": [ [ [ -6.654465755600001, 12.6589925639 ], [ -6.632165755600001, 12.5561925639 ], [ -6.589865755600001, 12.5444925639 ], [ -6.557865755600001, 12.508392563899999 ], [ -6.564865755600001, 12.4532925639 ], [ -6.496965755600001, 12.371892563899999 ], [ -6.509265755600001, 12.2816925639 ], [ -6.430965755600001, 12.232492563899999 ], [ -6.383165755600001, 12.2282925639 ], [ -6.348465755600001, 12.1764925639 ], [ -6.333865755600001, 12.069292563899999 ], [ -6.377365755600001, 12.024492563900001 ], [ -6.355165755600001, 11.9392925639 ], [ -6.412865755600001, 11.8479925639 ], [ -6.433865755600001, 11.8663925639 ], [ -6.455465755600001, 11.9514925639 ], [ -6.480665755600001, 11.966492563899999 ], [ -6.603465755600001, 11.963392563899999 ], [ -6.599965755600001, 12.027392563899999 ], [ -6.620365755600001, 12.064792563899999 ], [ -6.715065755600001, 12.0658925639 ], [ -6.731565755600001, 12.047492563900001 ], [ -6.785165755600001, 12.0444925639 ], [ -6.852165755600001, 12.013792563900001 ], [ -6.866665755600001, 12.013792563900001 ], [ -6.880965755600001, 12.0477925639 ], [ -6.928365755600001, 12.0437925639 ], [ -7.099965755600001, 11.961092563899999 ], [ -7.111665755600001, 11.975692563900001 ], [ -7.083465755600001, 12.0224925639 ], [ -7.113765755600001, 12.0409925639 ], [ -7.145865755600001, 12.038092563899999 ], [ -7.159365755600001, 12.0566925639 ], [ -7.140165755600001, 12.0791925639 ], [ -7.098565755600001, 12.086092563899999 ], [ -7.090565755600001, 12.1186925639 ], [ -7.134465755600001, 12.1275925639 ], [ -7.069065755600001, 12.178392563899999 ], [ -7.077965755600001, 12.2053925639 ], [ -7.116265755600001, 12.218792563899999 ], [ -7.086865755600001, 12.285292563900001 ], [ -7.125065755600001, 12.3098925639 ], [ -7.120465755600002, 12.3447925639 ], [ -7.138365755600001, 12.377392563899999 ], [ -7.116965755600001, 12.4257925639 ], [ -7.122965755600001, 12.4762925639 ], [ -7.102365755600001, 12.505492563899999 ], [ -7.050865755600001, 12.5056925639 ], [ -7.038165755600001, 12.5338925639 ], [ -7.076965755600001, 12.581592563899999 ], [ -7.078265755600001, 12.614292563899999 ], [ -7.050965755600001, 12.6169925639 ], [ -6.969965755600001, 12.552792563899999 ], [ -6.852365755600001, 12.6328925639 ], [ -6.814865755600001, 12.620492563900001 ], [ -6.754765755600001, 12.651692563899999 ], [ -6.762165755600001, 12.7129925639 ], [ -6.729365755600001, 12.740092563899999 ], [ -6.697965755600001, 12.727092563899999 ], [ -6.654465755600001, 12.6589925639 ] ] ] } },
{ "type": "Feature", "properties": { "loc": "ML020601206" }, "geometry": { "type": "Polygon", "coordinates": [ [ [ -6.174765755600001, 13.257692563900001 ], [ -6.122565755600001, 13.2361925639 ], [ -6.178165755600001, 13.1703925639 ], [ -6.173165755600001, 13.1337925639 ], [ -6.116665755600001, 13.0545925639 ], [ -6.261765755600001, 13.0272925639 ], [ -6.336665755600001, 12.9790925639 ], [ -6.348065755600001, 12.900092563899999 ], [ -6.291865755600001, 12.8089925639 ], [ -6.359565755600001, 12.775192563899999 ], [ -6.421765755600001, 12.7169925639 ], [ -6.482865755600001, 12.7197925639 ], [ -6.540465755600001, 12.6620925639 ], [ -6.589865755600001, 12.5444925639 ], [ -6.641065755600001, 12.5690925639 ], [ -6.649065755600001, 12.648092563900001 ], [ -6.697965755600001, 12.727092563899999 ], [ -6.729365755600001, 12.740092563899999 ], [ -6.752565755600001, 12.727892563899999 ], [ -6.805965755600001, 12.8230925639 ], [ -6.893865755600001, 12.7900925639 ], [ -6.896665755600001, 12.849192563900001 ], [ -6.883165755600001, 12.863792563899999 ], [ -7.036665755600001, 12.8870925639 ], [ -7.035765755600001, 12.9647925639 ], [ -7.081965755600001, 13.012292563900001 ], [ -7.026965755600001, 13.108992563899999 ], [ -7.017865755600001, 13.1612925639 ], [ -6.905465755600001, 13.157892563899999 ], [ -6.775865755600001, 13.211192563899999 ], [ -6.747165755600001, 13.175292563899999 ], [ -6.609665755600001, 13.1633925639 ], [ -6.593165755600001, 13.0943925639 ], [ -6.537665755600001, 13.138892563900001 ], [ -6.458465755600001, 13.135692563899999 ], [ -6.453165755600001, 13.1522925639 ], [ -6.311565755600001, 13.1972925639 ], [ -6.318965755600001, 13.225092563900001 ], [ -6.269865755600001, 13.2178925639 ], [ -6.231965755600001, 13.255492563899999 ], [ -6.174765755600001, 13.257692563900001 ] ] ] } },
{ "type": "Feature", "properties": { "loc": "ML020424204" }, "geometry": { "type": "Polygon", "coordinates": [ [ [ -7.035765755600001, 12.9647925639 ], [ -7.035765755600001, 12.886692563900001 ], [ -6.883865755600001, 12.862892563900001 ], [ -6.896665755600001, 12.849192563900001 ], [ -6.894065755600001, 12.7900925639 ], [ -6.805965755600001, 12.8230925639 ], [ -6.752565755600001, 12.732692563899999 ], [ -6.754765755600001, 12.651692563899999 ], [ -6.814865755600001, 12.620492563900001 ], [ -6.852665755600001, 12.634292563900001 ], [ -6.969965755600001, 12.552792563899999 ], [ -7.070065755600001, 12.6223925639 ], [ -7.083065755600001, 12.5965925639 ], [ -7.038165755600001, 12.5338925639 ], [ -7.045065755600001, 12.510792563900001 ], [ -7.102365755600001, 12.505492563899999 ], [ -7.129765755600001, 12.4653925639 ], [ -7.116865755600001, 12.455092563899999 ], [ -7.174265755600001, 12.4198925639 ], [ -7.202565755600001, 12.361492563900001 ], [ -7.249465755600001, 12.3580925639 ], [ -7.283565755600002, 12.332292563899999 ], [ -7.297365755600001, 12.259992563899999 ], [ -7.363665755600001, 12.2276925639 ], [ -7.384665755600001, 12.296492563899999 ], [ -7.372865755600001, 12.3930925639 ], [ -7.417065755600001, 12.460592563900001 ], [ -7.4509657556, 12.5667925639 ], [ -7.489665755600001, 12.7770925639 ], [ -7.431165755600001, 12.775192563899999 ], [ -7.334265755600001, 12.813192563899999 ], [ -7.286265755600001, 12.8769925639 ], [ -7.276965755600001, 12.928592563900001 ], [ -7.241765755600001, 12.965692563899999 ], [ -7.173365755600001, 12.9294925639 ], [ -7.151865755600001, 12.9339925639 ], [ -7.081965755600001, 13.012292563900001 ], [ -7.035765755600001, 12.9647925639 ] ] ] } },
{ "type": "Feature", "properties": { "loc": "ML020220205" }, "geometry": { "type": "Polygon", "coordinates": [ [ [ -6.715065755600001, 12.0658925639 ], [ -6.620365755600001, 12.064792563899999 ], [ -6.599965755600001, 12.027392563899999 ], [ -6.603465755600001, 11.963392563899999 ], [ -6.480665755600001, 11.966492563899999 ], [ -6.448265755600001, 11.944392563899999 ], [ -6.417165755600001, 11.833792563899999 ], [ -6.489665755600001, 11.7123925639 ], [ -6.490765755600001, 11.659292563899999 ], [ -6.525865755600001, 11.6398925639 ], [ -6.555965755600001, 11.641092563899999 ], [ -6.565865755600001, 11.7518925639 ], [ -6.678865755600001, 11.794192563899999 ], [ -6.704765755600001, 11.764492563899999 ], [ -6.724365755600001, 11.798792563899999 ], [ -6.840265755600001, 11.8249925639 ], [ -6.905365755600001, 11.8973925639 ], [ -6.939665755600001, 11.895692563899999 ], [ -6.942365755600001, 11.951392563900001 ], [ -6.958065755600001, 11.973292563899999 ], [ -7.099965755600001, 11.961092563899999 ], [ -6.928365755600001, 12.0437925639 ], [ -6.880965755600001, 12.0477925639 ], [ -6.866665755600001, 12.013792563900001 ], [ -6.852165755600001, 12.013792563900001 ], [ -6.785165755600001, 12.0444925639 ], [ -6.731565755600001, 12.047492563900001 ], [ -6.715065755600001, 12.0658925639 ] ] ] } },
{ "type": "Feature", "properties": { "loc": "ML020208307" }, "geometry": { "type": "Polygon", "coordinates": [ [ [ -5.662165755600001, 13.228892563900001 ], [ -5.540265755600001, 13.205892563900001 ], [ -5.584765755600001, 13.118992563900001 ], [ -5.603065755600001, 13.039692563900001 ], [ -5.548265755600001, 13.0103925639 ], [ -5.462165755600001, 13.0020925639 ], [ -5.371865755600001, 12.967292563899999 ], [ -5.369165755600001, 12.9380925639 ], [ -5.447465755600001, 12.9226925639 ], [ -5.573065755600001, 12.842392563899999 ], [ -5.570365755600001, 12.8161925639 ], [ -5.651965755600001, 12.8089925639 ], [ -5.809165755600001, 12.7505925639 ], [ -5.912865755600001, 12.756992563899999 ], [ -5.964765755600001, 12.7765925639 ], [ -6.012265755600001, 12.7687925639 ], [ -6.060165755600001, 12.675492563900001 ], [ -6.211365755600001, 12.6046925639 ], [ -6.262065755600001, 12.5524925639 ], [ -6.302265755600001, 12.5780925639 ], [ -6.343465755600001, 12.5643925639 ], [ -6.381565755600001, 12.5889925639 ], [ -6.421465755600001, 12.7160925639 ], [ -6.359565755600001, 12.775192563899999 ], [ -6.291465755600001, 12.809692563900001 ], [ -6.349865755600001, 12.9095925639 ], [ -6.340765755600001, 12.9736925639 ], [ -6.303965755600001, 13.009092563899999 ], [ -6.168765755600001, 13.049592563899999 ], [ -6.135265755600001, 13.0409925639 ], [ -6.089365755600001, 13.086892563899999 ], [ -6.049065755600001, 13.101492563899999 ], [ -5.985465755600001, 13.190492563899999 ], [ -5.865165755600001, 13.2163925639 ], [ -5.812665755600001, 13.206792563899999 ], [ -5.781965755600001, 13.1819925639 ], [ -5.738565755600001, 13.1816925639 ], [ -5.674165755600001, 13.2001925639 ], [ -5.662165755600001, 13.228892563900001 ] ] ] } },
{ "type": "Feature", "properties": { "loc": "ML030412305" }, "geometry": { "type": "Polygon", "coordinates": [ [ [ -4.948065755600001, 12.4105925639 ], [ -4.879965755600001, 12.2487925639 ], [ -4.694765755600001, 12.2801925639 ], [ -4.651765755600001, 12.200392563899999 ], [ -4.587265755600001, 12.1946925639 ], [ -4.561965755600001, 12.1461925639 ], [ -4.625865755600001, 12.112292563900001 ], [ -4.655765755600001, 12.0566925639 ], [ -4.713265755600001, 12.045092563899999 ], [ -4.733065755600001, 11.997792563899999 ], [ -4.839065755600001, 12.0180925639 ], [ -4.989465755600001, 11.985492563899999 ], [ -5.078265755600001, 11.9823925639 ], [ -5.153865755600001, 11.9507925639 ], [ -5.207665755600001, 11.8998925639 ], [ -5.221565755600001, 12.037592563900001 ], [ -5.193865755600001, 12.0826925639 ], [ -5.069665755600001, 12.1475925639 ], [ -5.103965755600001, 12.2129925639 ], [ -5.131865755600001, 12.2239925639 ], [ -5.123265755600001, 12.2579925639 ], [ -5.100465755600001, 12.267592563899999 ], [ -5.104765755600001, 12.3006925639 ], [ -5.012365755600001, 12.363792563899999 ], [ -4.979865755600001, 12.4044925639 ], [ -4.948065755600001, 12.4105925639 ] ] ] } },
{ "type": "Feature", "properties": { "loc": "ML030524301" }, "geometry": { "type": "Polygon", "coordinates": [ [ [ -5.416665755600001, 12.6225925639 ], [ -5.380365755600001, 12.6322925639 ], [ -5.359165755600001, 12.585592563900001 ], [ -5.372565755600001, 12.546592563899999 ], [ -5.368465755600001, 12.418592563899999 ], [ -5.442665755600001, 12.370492563900001 ], [ -5.475565755600001, 12.3733925639 ], [ -5.425965755600001, 12.3075925639 ], [ -5.417365755600001, 12.2670925639 ], [ -5.502165755600001, 12.2389925639 ], [ -5.510465755600001, 12.181592563900001 ], [ -5.488265755600001, 12.0825925639 ], [ -5.450565755600001, 12.0696925639 ], [ -5.411565755600001, 12.087792563899999 ], [ -5.391465755600001, 12.053492563900001 ], [ -5.418165755600001, 12.024392563899999 ], [ -5.545265755600001, 11.9653925639 ], [ -5.568565755600001, 11.9654925639 ], [ -5.589465755600001, 11.987192563899999 ], [ -5.629865755600001, 11.974992563899999 ], [ -5.626165755600001, 11.9952925639 ], [ -5.652665755600001, 11.9895925639 ], [ -5.666665755600001, 12.0208925639 ], [ -5.695665755600001, 12.0178925639 ], [ -5.710065755600001, 12.066392563899999 ], [ -5.729965755600001, 12.0500925639 ], [ -5.768565755600001, 12.061692563899999 ], [ -5.832465755600001, 12.048992563900001 ], [ -5.867065755600001, 12.107492563899999 ], [ -5.848165755600001, 12.124492563900001 ], [ -5.823265755600001, 12.115092563899999 ], [ -5.829965755600001, 12.1267925639 ], [ -5.807965755600002, 12.150092563899999 ], [ -5.783165755600001, 12.1557925639 ], [ -5.815265755600001, 12.192892563899999 ], [ -5.897565755600001, 12.2056925639 ], [ -5.899765755600001, 12.2319925639 ], [ -5.937865755600001, 12.223392563899999 ], [ -5.981765755600001, 12.236992563899999 ], [ -5.995165755600001, 12.2542925639 ], [ -5.985665755600001, 12.2922925639 ], [ -6.010265755600001, 12.328592563899999 ], [ -6.077265755600001, 12.295092563899999 ], [ -6.124165755600001, 12.3146925639 ], [ -6.156565755600001, 12.3928925639 ], [ -6.220765755600001, 12.4080925639 ], [ -6.266465755600001, 12.3996925639 ], [ -6.236365755600001, 12.4354925639 ], [ -6.271565755600001, 12.4996925639 ], [ -6.252065755600001, 12.503092563899999 ], [ -6.245365755600001, 12.5264925639 ], [ -6.260965755600001, 12.552792563899999 ], [ -6.211365755600001, 12.6046925639 ], [ -6.062065755600001, 12.6741925639 ], [ -6.028865755600001, 12.592292563899999 ], [ -5.932265755600001, 12.529092563900001 ], [ -5.868065755600001, 12.5178925639 ], [ -5.816765755600001, 12.468692563899999 ], [ -5.769265755600001, 12.4516925639 ], [ -5.705665755600001, 12.5277925639 ], [ -5.609165755600001, 12.5171925639 ], [ -5.594065755600001, 12.5326925639 ], [ -5.601065755600001, 12.5477925639 ], [ -5.521565755600001, 12.553392563899999 ], [ -5.509265755600001, 12.5750925639 ], [ -5.440065755600001, 12.6032925639 ], [ -5.431165755600001, 12.611992563899999 ], [ -5.464165755600001, 12.680092563900001 ], [ -5.434565755600001, 12.671692563899999 ], [ -5.416665755600001, 12.6225925639 ] ] ] } },
{ "type": "Feature", "properties": { "loc": "ML030532303" }, "geometry": { "type": "Polygon", "coordinates": [ [ [ -5.304765755600001, 12.253192563900001 ], [ -5.147365755600001, 12.217292563899999 ], [ -5.116165755600001, 12.222492563899999 ], [ -5.069665755600001, 12.1475925639 ], [ -5.196765755600001, 12.0795925639 ], [ -5.221565755600001, 12.037592563900001 ], [ -5.206865755600001, 11.8952925639 ], [ -5.252065755600001, 11.842292563899999 ], [ -5.269265755600001, 11.834592563899999 ], [ -5.292865755600001, 11.852292563900001 ], [ -5.356065755600001, 11.823192563899999 ], [ -5.381865755600001, 11.8413925639 ], [ -5.436565755600001, 11.8001925639 ], [ -5.445665755600001, 11.846792563899999 ], [ -5.489665755600001, 11.8645925639 ], [ -5.485865755600001, 11.881292563900001 ], [ -5.516465755600001, 11.8836925639 ], [ -5.511665755600001, 11.9258925639 ], [ -5.533165755600001, 11.9287925639 ], [ -5.529565755600001, 11.948892563899999 ], [ -5.549265755600001, 11.9622925639 ], [ -5.457165755600001, 12.001592563900001 ], [ -5.391365755600001, 12.0537925639 ], [ -5.411565755600001, 12.087792563899999 ], [ -5.450565755600001, 12.0696925639 ], [ -5.494465755600001, 12.091692563900001 ], [ -5.509665755600001, 12.173192563899999 ], [ -5.502165755600001, 12.2389925639 ], [ -5.447865755600001, 12.2632925639 ], [ -5.418765755600001, 12.2627925639 ], [ -5.402565755600001, 12.2353925639 ], [ -5.385965755600001, 12.2412925639 ], [ -5.332165755600001, 12.305092563900001 ], [ -5.304765755600001, 12.253192563900001 ] ] ] } },
{ "type": "Feature", "properties": { "loc": "ML030422302" }, "geometry": { "type": "Polygon", "coordinates": [ [ [ -5.809165755600001, 12.7505925639 ], [ -5.570365755600001, 12.8161925639 ], [ -5.555965755600001, 12.780692563900001 ], [ -5.500265755600001, 12.7253925639 ], [ -5.489465755600001, 12.688492563899999 ], [ -5.461365755600001, 12.674492563899999 ], [ -5.431165755600001, 12.611992563899999 ], [ -5.509265755600001, 12.5750925639 ], [ -5.521565755600001, 12.553392563899999 ], [ -5.602465755600001, 12.5477925639 ], [ -5.594065755600001, 12.5326925639 ], [ -5.609165755600001, 12.5171925639 ], [ -5.705665755600001, 12.5277925639 ], [ -5.769565755600001, 12.4518925639 ], [ -5.816765755600001, 12.468692563899999 ], [ -5.868065755600001, 12.5178925639 ], [ -5.932265755600001, 12.529092563900001 ], [ -6.028865755600001, 12.592292563899999 ], [ -6.060165755600001, 12.675492563900001 ], [ -6.013365755600001, 12.7681925639 ], [ -5.964765755600001, 12.7765925639 ], [ -5.912865755600001, 12.756992563899999 ], [ -5.809165755600001, 12.7505925639 ] ] ] } },
{ "type": "Feature", "properties": { "loc": "ML030707306" }, "geometry": { "type": "Polygon", "coordinates": [ [ [ -4.725465755600001, 12.8066925639 ], [ -4.666265755600001, 12.799792563900001 ], [ -4.636765755600001, 12.736992563899999 ], [ -4.605465755600001, 12.7160925639 ], [ -4.552765755600001, 12.733492563900001 ], [ -4.539365755600001, 12.7205925639 ], [ -4.423265755600001, 12.722592563899999 ], [ -4.405465755600001, 12.7403925639 ], [ -4.381165755600001, 12.728092563899999 ], [ -4.475765755600001, 12.6329925639 ], [ -4.428365755600001, 12.6033925639 ], [ -4.392165755600001, 12.5330925639 ], [ -4.452465755600001, 12.416192563899999 ], [ -4.420665755600001, 12.307192563899999 ], [ -4.481765755600001, 12.323192563899999 ], [ -4.511665755600001, 12.2557925639 ], [ -4.586465755600001, 12.1957925639 ], [ -4.651765755600001, 12.200392563899999 ], [ -4.677365755600001, 12.267692563899999 ], [ -4.702565755600001, 12.2823925639 ], [ -4.879965755600001, 12.2487925639 ], [ -4.944665755600001, 12.407792563899999 ], [ -4.988065755600001, 12.398092563900001 ], [ -4.941165755600001, 12.5981925639 ], [ -4.817865755600001, 12.6108925639 ], [ -4.811465755600001, 12.6504925639 ], [ -4.736165755600001, 12.7521925639 ], [ -4.725465755600001, 12.8066925639 ] ] ] } },
{ "type": "Feature", "properties": { "loc": "ML030406304" }, "geometry": { "type": "Polygon", "coordinates": [ [ [ -5.114865755600001, 12.5621925639 ], [ -5.019565755600001, 12.5669925639 ], [ -5.046165755600001, 12.6233925639 ], [ -5.031065755600001, 12.631792563899999 ], [ -4.961865755600001, 12.6255925639 ], [ -4.941165755600001, 12.5981925639 ], [ -4.990765755600001, 12.3923925639 ], [ -5.104765755600001, 12.3006925639 ], [ -5.100465755600001, 12.267592563899999 ], [ -5.123965755600001, 12.2594925639 ], [ -5.135165755600001, 12.2174925639 ], [ -5.301665755600001, 12.2488925639 ], [ -5.332165755600001, 12.305092563900001 ], [ -5.400965755600001, 12.2365925639 ], [ -5.425965755600001, 12.3075925639 ], [ -5.475565755600001, 12.3733925639 ], [ -5.442665755600001, 12.370492563900001 ], [ -5.368865755600001, 12.4152925639 ], [ -5.372565755600001, 12.546592563899999 ], [ -5.359165755600001, 12.585592563900001 ], [ -5.379865755600001, 12.6269925639 ], [ -5.376465755600001, 12.6772925639 ], [ -5.329765755600001, 12.7755925639 ], [ -5.232365755600001, 12.8120925639 ], [ -5.151065755600001, 12.7536925639 ], [ -5.121565755600001, 12.715092563900001 ], [ -5.096365755600001, 12.603892563900001 ], [ -5.114865755600001, 12.5621925639 ] ] ] } },
{ "type": "Feature", "properties": { "loc": "ML040711405" }, "geometry": { "type": "Polygon", "coordinates": [ [ [ -4.012465755600001, 13.7061925639 ], [ -3.958365755600001, 13.5981925639 ], [ -3.961665755600001, 13.5012925639 ], [ -3.983865755600001, 13.494692563899999 ], [ -4.001565755600001, 13.4388925639 ], [ -4.124365755600001, 13.415392563899999 ], [ -4.077165755600001, 13.402592563900001 ], [ -4.101065755600001, 13.386592563899999 ], [ -4.130665755600001, 13.289592563899999 ], [ -4.220965755600001, 13.2602925639 ], [ -4.257665755600001, 13.2281925639 ], [ -4.246865755600001, 13.181392563899999 ], [ -4.303265755600001, 13.173892563900001 ], [ -4.348665755600001, 13.2967925639 ], [ -4.391765755600001, 13.304292563899999 ], [ -4.421065755600001, 13.3387925639 ], [ -4.400765755600001, 13.3945925639 ], [ -4.485365755600001, 13.3950925639 ], [ -4.523065755600001, 13.4127925639 ], [ -4.500565755600001, 13.4311925639 ], [ -4.525865755600001, 13.4585925639 ], [ -4.501065755600001, 13.491092563900001 ], [ -4.531765755600001, 13.513092563899999 ], [ -4.549865755600001, 13.6110925639 ], [ -4.457465755600001, 13.6740925639 ], [ -4.463165755600001, 13.695192563900001 ], [ -4.412165755600001, 13.7053925639 ], [ -4.392465755600001, 13.7246925639 ], [ -4.309865755600001, 13.8710925639 ], [ -4.112265755600001, 13.9372925639 ], [ -4.039065755600001, 13.8388925639 ], [ -4.012465755600001, 13.7061925639 ] ] ] } },
{ "type": "Feature", "properties": { "loc": "ML040503401" }, "geometry": { "type": "Polygon", "coordinates": [ [ [ -4.896365755600001, 13.2521925639 ], [ -4.805765755600001, 13.1506925639 ], [ -4.784165755600001, 13.067292563900001 ], [ -4.797365755600001, 13.0200925639 ], [ -4.774065755600001, 12.983492563900001 ], [ -4.765565755600001, 12.8876925639 ], [ -4.725465755600001, 12.8066925639 ], [ -4.736165755600001, 12.7521925639 ], [ -4.811465755600001, 12.6504925639 ], [ -4.818965755600001, 12.610592563899999 ], [ -4.935065755600001, 12.596092563900001 ], [ -4.961865755600001, 12.6255925639 ], [ -5.031065755600001, 12.631792563899999 ], [ -5.046165755600001, 12.6233925639 ], [ -5.019565755600001, 12.5669925639 ], [ -5.114765755600001, 12.5621925639 ], [ -5.096365755600001, 12.6024925639 ], [ -5.122665755600001, 12.7178925639 ], [ -5.177365755600001, 12.775992563900001 ], [ -5.226465755600001, 12.798892563900001 ], [ -5.247465755600001, 12.839292563899999 ], [ -5.120665755600001, 12.823192563899999 ], [ -5.126965755600001, 12.888892563900001 ], [ -5.002665755600001, 12.9052925639 ], [ -5.001465755600001, 12.974892563899999 ], [ -5.053065755600001, 12.980392563900001 ], [ -5.002665755600001, 13.067792563899999 ], [ -4.998765755600001, 13.180092563900001 ], [ -4.950865755600001, 13.187492563899999 ], [ -4.923065755600001, 13.2389925639 ], [ -4.896365755600001, 13.2521925639 ] ] ] } },
{ "type": "Feature", "properties": { "loc": "ML040711402" }, "geometry": { "type": "Polygon", "coordinates": [ [ [ -4.677765755600001, 13.6131925639 ], [ -4.549865755600001, 13.6110925639 ], [ -4.531765755600001, 13.513092563899999 ], [ -4.501065755600001, 13.491092563900001 ], [ -4.523765755600001, 13.4699925639 ], [ -4.512465755600001, 13.449892563900001 ], [ -4.535865755600001, 13.412592563900001 ], [ -4.685665755600001, 13.2983925639 ], [ -4.725865755600001, 13.2456925639 ], [ -4.823765755600001, 13.1672925639 ], [ -4.896365755600001, 13.2521925639 ], [ -4.923065755600001, 13.2389925639 ], [ -4.950865755600001, 13.187492563899999 ], [ -4.998765755600001, 13.180092563900001 ], [ -5.002665755600001, 13.067792563899999 ], [ -5.053065755600001, 12.980392563900001 ], [ -5.001465755600001, 12.974892563899999 ], [ -5.002665755600001, 12.9052925639 ], [ -5.126965755600001, 12.888892563900001 ], [ -5.120765755600001, 12.8235925639 ], [ -5.235265755600001, 12.834692563899999 ], [ -5.275165755600001, 12.860692563899999 ], [ -5.306665755600001, 12.905592563900001 ], [ -5.202965755600001, 12.954492563900001 ], [ -5.234265755600001, 13.0711925639 ], [ -5.187565755600001, 13.1042925639 ], [ -5.218765755600001, 13.135892563900001 ], [ -5.206165755600001, 13.164692563900001 ], [ -5.239465755600001, 13.2018925639 ], [ -5.210565755600001, 13.2893925639 ], [ -5.166865755600001, 13.325392563899999 ], [ -5.092965755600001, 13.3342925639 ], [ -5.050865755600001, 13.367592563900001 ], [ -4.952465755600001, 13.3672925639 ], [ -4.839165755600001, 13.4022925639 ], [ -4.787165755600001, 13.4945925639 ], [ -4.744765755600001, 13.512992563899999 ], [ -4.677765755600001, 13.6131925639 ] ] ] } },
{ "type": "Feature", "properties": { "loc": "ML040711404" }, "geometry": { "type": "Polygon", "coordinates": [ [ [ -4.523065755600001, 13.4127925639 ], [ -4.400765755600001, 13.3945925639 ], [ -4.421065755600001, 13.3387925639 ], [ -4.391765755600001, 13.304292563899999 ], [ -4.348665755600001, 13.2967925639 ], [ -4.303265755600001, 13.173892563900001 ], [ -4.356865755600001, 13.1267925639 ], [ -4.308265755600001, 13.0842925639 ], [ -4.280365755600001, 13.009992563899999 ], [ -4.230465755600001, 12.9516925639 ], [ -4.226865755600001, 12.7747925639 ], [ -4.248165755600001, 12.7261925639 ], [ -4.294965755600001, 12.699892563900001 ], [ -4.405465755600001, 12.7403925639 ], [ -4.423265755600001, 12.722592563899999 ], [ -4.539365755600001, 12.7205925639 ], [ -4.552765755600001, 12.733492563900001 ], [ -4.605465755600001, 12.7160925639 ], [ -4.636765755600001, 12.736992563899999 ], [ -4.666265755600001, 12.799792563900001 ], [ -4.725465755600001, 12.8066925639 ], [ -4.765565755600001, 12.8876925639 ], [ -4.774065755600001, 12.983492563900001 ], [ -4.797365755600001, 13.0200925639 ], [ -4.784165755600001, 13.067292563900001 ], [ -4.805765755600001, 13.1506925639 ], [ -4.823765755600001, 13.1672925639 ], [ -4.725865755600001, 13.2456925639 ], [ -4.685665755600001, 13.2983925639 ], [ -4.606165755600001, 13.347792563900001 ], [ -4.512365755600001, 13.450392563899999 ], [ -4.500565755600001, 13.4311925639 ], [ -4.523065755600001, 13.4127925639 ] ] ] } },
{ "type": "Feature", "properties": { "loc": "ML030421403" }, "geometry": { "type": "Polygon", "coordinates": [ [ [ -5.210565755600001, 13.2893925639 ], [ -5.239465755600001, 13.2018925639 ], [ -5.207365755600001, 13.1650925639 ], [ -5.218765755600001, 13.135892563900001 ], [ -5.188565755600001, 13.1049925639 ], [ -5.234265755600001, 13.0711925639 ], [ -5.202965755600001, 12.954492563900001 ], [ -5.307365755600001, 12.906292563899999 ], [ -5.232865755600001, 12.812692563900001 ], [ -5.329765755600001, 12.7755925639 ], [ -5.376465755600001, 12.6772925639 ], [ -5.380365755600001, 12.6330925639 ], [ -5.412765755600002, 12.619792563899999 ], [ -5.434565755600001, 12.671692563899999 ], [ -5.489465755600001, 12.688492563899999 ], [ -5.500265755600001, 12.7253925639 ], [ -5.555965755600001, 12.780692563900001 ], [ -5.573065755600001, 12.842392563899999 ], [ -5.435365755600001, 12.9287925639 ], [ -5.369165755600001, 12.9380925639 ], [ -5.368665755600001, 12.964992563900001 ], [ -5.598365755600001, 13.034392563899999 ], [ -5.584765755600001, 13.118992563900001 ], [ -5.513865755600001, 13.2313925639 ], [ -5.458065755600001, 13.208192563899999 ], [ -5.382665755600001, 13.276092563900001 ], [ -5.313465755600001, 13.2869925639 ], [ -5.263165755600001, 13.262992563899999 ], [ -5.210565755600001, 13.2893925639 ] ] ] } },
{ "type": "Feature", "properties": { "loc": "ML030201505" }, "geometry": { "type": "Polygon", "coordinates": [ [ [ -5.617565755600001, 11.0226925639 ], [ -5.509465755600001, 10.961892563899999 ], [ -5.469665755600001, 10.9645925639 ], [ -5.460765755600001, 10.900192563899999 ], [ -5.420265755600001, 10.848292563899999 ], [ -5.448165755600001, 10.7679925639 ], [ -5.471765755600001, 10.7572925639 ], [ -5.482265755600001, 10.6238925639 ], [ -5.462965755600001, 10.5958925639 ], [ -5.465365755600001, 10.559692563900001 ], [ -5.517865755600001, 10.4312925639 ], [ -5.565165755600001, 10.4624925639 ], [ -5.594765755600001, 10.450692563900001 ], [ -5.675265755600001, 10.4607925639 ], [ -5.710765755600001, 10.438492563900001 ], [ -5.783865755600001, 10.437492563899999 ], [ -5.846365755600001, 10.3837925639 ], [ -5.882665755600001, 10.374392563899999 ], [ -5.910565755600001, 10.3067925639 ], [ -5.905765755600001, 10.2832925639 ], [ -5.974265755600001, 10.279092563900001 ], [ -5.988065755600001, 10.2237925639 ], [ -6.016265755600001, 10.202192563900001 ], [ -6.117365755600001, 10.1954925639 ], [ -6.190065755600001, 10.2345925639 ], [ -6.238665755600001, 10.299492563899999 ], [ -6.213865755600001, 10.316292563899999 ], [ -6.196565755600001, 10.303292563899999 ], [ -6.185065755600001, 10.3191925639 ], [ -6.196165755600001, 10.343992563900001 ], [ -6.164565755600001, 10.3641925639 ], [ -6.190565755600001, 10.3877925639 ], [ -6.184565755600001, 10.408692563900001 ], [ -6.160765755600001, 10.4165925639 ], [ -6.190065755600001, 10.4531925639 ], [ -6.165365755600001, 10.4876925639 ], [ -6.249265755600001, 10.527592563900001 ], [ -6.211665755600001, 10.5689925639 ], [ -6.220165755600001, 10.6184925639 ], [ -6.188365755600001, 10.6330925639 ], [ -6.231865755600001, 10.6603925639 ], [ -6.215165755600001, 10.7230925639 ], [ -6.245865755600001, 10.7374925639 ], [ -6.222865755600001, 10.758492563899999 ], [ -6.243265755600001, 10.798192563899999 ], [ -6.197965755600001, 10.804892563899999 ], [ -6.224165755600001, 10.8372925639 ], [ -6.192565755600001, 10.8542925639 ], [ -6.197765755600001, 10.887192563899999 ], [ -6.115665755600001, 10.8679925639 ], [ -6.088265755600001, 10.916292563900001 ], [ -6.042765755600001, 10.910092563899999 ], [ -6.026365755600001, 10.8828925639 ], [ -5.996665755600001, 10.885892563900001 ], [ -5.981265755600001, 10.858492563900001 ], [ -5.941665755600001, 10.8549925639 ], [ -5.939265755600001, 10.840892563899999 ], [ -5.912265755600001, 10.846792563899999 ], [ -5.901865755600001, 10.869892563900001 ], [ -5.878465755600001, 10.868192563899999 ], [ -5.874565755600001, 10.8291925639 ], [ -5.860165755600001, 10.826292563899999 ], [ -5.829865755600001, 10.859092563899999 ], [ -5.782165755600001, 10.877992563899999 ], [ -5.650865755600001, 10.8916925639 ], [ -5.693465755600001, 11.017492563899999 ], [ -5.617565755600001, 11.0226925639 ] ] ] } },
{ "type": "Feature", "properties": { "loc": "ML030524501" }, "geometry": { "type": "Polygon", "coordinates": [ [ [ -5.957165755600001, 12.2322925639 ], [ -5.894765755600001, 12.228692563899999 ], [ -5.897565755600001, 12.2056925639 ], [ -5.815265755600001, 12.192892563899999 ], [ -5.783065755600001, 12.1649925639 ], [ -5.828265755600001, 12.1292925639 ], [ -5.823265755600001, 12.115092563899999 ], [ -5.860665755600001, 12.118392563900001 ], [ -5.867565755600001, 12.0928925639 ], [ -5.835865755600001, 12.051092563899999 ], [ -5.788365755600001, 12.040392563899999 ], [ -5.805565755600001, 11.9746925639 ], [ -5.797065755600001, 11.9152925639 ], [ -5.753665755600001, 11.821092563899999 ], [ -5.814265755600001, 11.6977925639 ], [ -5.870265755600001, 11.6696925639 ], [ -5.878265755600001, 11.634192563899999 ], [ -5.938165755600001, 11.5681925639 ], [ -6.053065755600001, 11.544992563899999 ], [ -6.053865755600001, 11.576992563899999 ], [ -6.092265755600001, 11.6018925639 ], [ -6.096265755600001, 11.6269925639 ], [ -6.124765755600001, 11.650392563900001 ], [ -6.099365755600001, 11.6771925639 ], [ -6.073265755600001, 11.680592563899999 ], [ -6.092465755600001, 11.718192563900001 ], [ -6.172865755600001, 11.7664925639 ], [ -6.231765755600001, 11.7571925639 ], [ -6.310565755600001, 11.791292563900001 ], [ -6.296865755600001, 11.8481925639 ], [ -6.366265755600001, 11.9166925639 ], [ -6.355165755600001, 11.9392925639 ], [ -6.377365755600001, 12.024492563900001 ], [ -6.286565755600001, 12.104592563899999 ], [ -6.244565755600001, 12.109692563899999 ], [ -6.191365755600001, 12.0683925639 ], [ -6.153065755600001, 12.0730925639 ], [ -6.127365755600001, 12.1519925639 ], [ -5.962765755600001, 12.162492563899999 ], [ -5.957165755600001, 12.2322925639 ] ] ] } },
{ "type": "Feature", "properties": { "loc": "ML030532502" }, "geometry": { "type": "Polygon", "coordinates": [ [ [ -5.710065755600001, 12.066392563899999 ], [ -5.693465755600001, 12.015392563900001 ], [ -5.666665755600001, 12.0208925639 ], [ -5.652665755600001, 11.9895925639 ], [ -5.626165755600001, 11.9952925639 ], [ -5.629865755600001, 11.974992563899999 ], [ -5.582465755600001, 11.984992563900001 ], [ -5.529565755600001, 11.948892563899999 ], [ -5.533165755600001, 11.9287925639 ], [ -5.511665755600001, 11.9258925639 ], [ -5.570965755600001, 11.753092563899999 ], [ -5.548565755600001, 11.634392563900001 ], [ -5.510165755600001, 11.538192563899999 ], [ -5.550065755600001, 11.513892563900001 ], [ -5.794465755600001, 11.472492563899999 ], [ -5.897465755600001, 11.478092563900001 ], [ -5.894665755600001, 11.5299925639 ], [ -5.936465755600001, 11.5775925639 ], [ -5.878265755600001, 11.634192563899999 ], [ -5.870265755600001, 11.6696925639 ], [ -5.814265755600001, 11.6977925639 ], [ -5.753565755600001, 11.820892563899999 ], [ -5.796065755600001, 11.913292563900001 ], [ -5.805565755600001, 11.9746925639 ], [ -5.793765755600001, 12.0493925639 ], [ -5.768565755600001, 12.061692563899999 ], [ -5.729965755600001, 12.0500925639 ], [ -5.710065755600001, 12.066392563899999 ] ] ] } },
{ "type": "Feature", "properties": { "loc": "ML020220503" }, "geometry": { "type": "Polygon", "coordinates": [ [ [ -6.299665755600001, 11.783792563900001 ], [ -6.231765755600001, 11.7571925639 ], [ -6.186265755600001, 11.770692563899999 ], [ -6.117565755600001, 11.7389925639 ], [ -6.073265755600001, 11.680592563899999 ], [ -6.099365755600001, 11.6771925639 ], [ -6.123065755600001, 11.644992563900001 ], [ -6.053265755600001, 11.575692563900001 ], [ -6.052665755600001, 11.5438925639 ], [ -5.938165755600001, 11.567092563899999 ], [ -5.901265755600001, 11.5416925639 ], [ -5.891465755600001, 11.506192563899999 ], [ -5.923365755600001, 11.452892563900001 ], [ -5.902065755600001, 11.4098925639 ], [ -5.890065755600001, 11.321792563900001 ], [ -5.908665755600001, 11.2845925639 ], [ -5.933165755600001, 11.2549925639 ], [ -6.014065755600001, 11.282792563899999 ], [ -6.027865755600001, 11.2321925639 ], [ -6.085665755600001, 11.2366925639 ], [ -6.113965755600001, 11.2045925639 ], [ -6.090965755600001, 11.1664925639 ], [ -6.101565755600001, 11.0970925639 ], [ -6.141065755600001, 11.1050925639 ], [ -6.226065755600001, 11.021592563900001 ], [ -6.282165755600001, 11.0036925639 ], [ -6.333165755600001, 11.015392563900001 ], [ -6.331765755600001, 11.0368925639 ], [ -6.355065755600001, 11.0233925639 ], [ -6.363965755600001, 11.0728925639 ], [ -6.407765755600001, 11.066292563899999 ], [ -6.395265755600001, 11.084592563899999 ], [ -6.408065755600001, 11.1087925639 ], [ -6.456165755600001, 11.116792563899999 ], [ -6.425065755600001, 11.160892563899999 ], [ -6.475565755600001, 11.2323925639 ], [ -6.469665755600001, 11.306592563900001 ], [ -6.516765755600001, 11.298992563900001 ], [ -6.544065755600001, 11.2456925639 ], [ -6.562465755600001, 11.2450925639 ], [ -6.530365755600001, 11.383392563899999 ], [ -6.585665755600001, 11.4294925639 ], [ -6.545565755600001, 11.509992563899999 ], [ -6.577565755600001, 11.5262925639 ], [ -6.589865755600001, 11.574092563899999 ], [ -6.566065755600001, 11.6376925639 ], [ -6.490765755600001, 11.659292563899999 ], [ -6.489665755600001, 11.7123925639 ], [ -6.369565755600001, 11.917092563899999 ], [ -6.341065755600001, 11.9049925639 ], [ -6.296865755600001, 11.8481925639 ], [ -6.313065755600001, 11.8029925639 ], [ -6.299665755600001, 11.783792563900001 ] ] ] } },
{ "type": "Feature", "properties": { "loc": "ML030532504" }, "geometry": { "type": "Polygon", "coordinates": [ [ [ -5.510665755600001, 11.8839925639 ], [ -5.445665755600001, 11.846792563899999 ], [ -5.436565755600001, 11.8001925639 ], [ -5.405765755600001, 11.8287925639 ], [ -5.354865755600001, 11.798192563899999 ], [ -5.296565755600001, 11.7870925639 ], [ -5.281065755600001, 11.7617925639 ], [ -5.259965755600001, 11.7655925639 ], [ -5.266365755600001, 11.6865925639 ], [ -5.294465755600001, 11.6200925639 ], [ -5.237065755600001, 11.6064925639 ], [ -5.217665755600001, 11.583892563899999 ], [ -5.196065755600001, 11.4325925639 ], [ -5.232365755600001, 11.3768925639 ], [ -5.260665755600001, 11.243392563900001 ], [ -5.321965755600001, 11.2023925639 ], [ -5.353865755600001, 11.121192563899999 ], [ -5.473965755600001, 11.096192563900001 ], [ -5.496165755600001, 10.958892563899999 ], [ -5.613165755600001, 11.021592563900001 ], [ -5.694065755600001, 11.017492563899999 ], [ -5.646165755600001, 10.8977925639 ], [ -5.655265755600001, 10.8889925639 ], [ -5.782365755600001, 10.8786925639 ], [ -5.862665755600001, 10.825492563899999 ], [ -5.878465755600001, 10.868192563899999 ], [ -5.901865755600001, 10.869892563900001 ], [ -5.912265755600001, 10.846792563899999 ], [ -5.939265755600001, 10.840892563899999 ], [ -5.941665755600001, 10.8549925639 ], [ -5.981265755600001, 10.858492563900001 ], [ -5.996665755600001, 10.885892563900001 ], [ -6.026365755600001, 10.8828925639 ], [ -6.035465755600001, 10.9082925639 ], [ -6.088265755600001, 10.916292563900001 ], [ -6.112865755600001, 10.8684925639 ], [ -6.192565755600001, 10.889592563899999 ], [ -6.192565755600001, 10.875692563899999 ], [ -6.218565755600001, 10.8671925639 ], [ -6.235265755600001, 10.890292563899999 ], [ -6.256465755600001, 10.866092563900001 ], [ -6.244965755600001, 10.9784925639 ], [ -6.268165755600001, 10.9926925639 ], [ -6.296365755600001, 10.982692563900001 ], [ -6.297865755600001, 11.0041925639 ], [ -6.226065755600001, 11.021592563900001 ], [ -6.139665755600001, 11.1047925639 ], [ -6.101265755600001, 11.0970925639 ], [ -6.090965755600001, 11.1664925639 ], [ -6.113965755600001, 11.2045925639 ], [ -6.080865755600001, 11.240192563899999 ], [ -6.027865755600001, 11.2321925639 ], [ -6.014065755600001, 11.282792563899999 ], [ -5.930965755600001, 11.2565925639 ], [ -5.890065755600001, 11.321792563900001 ], [ -5.902065755600001, 11.4098925639 ], [ -5.923465755600001, 11.449692563899999 ], [ -5.915765755600001, 11.467392563899999 ], [ -5.897865755600001, 11.4789925639 ], [ -5.794465755600001, 11.472492563899999 ], [ -5.550065755600001, 11.513892563900001 ], [ -5.512565755600001, 11.5346925639 ], [ -5.570965755600001, 11.753092563899999 ], [ -5.510665755600001, 11.8839925639 ] ] ] } }
]
}
