{
"type": "FeatureCollection",
"name": "border_LT",
"crs": { "type": "name", "properties": { "name": "urn:ogc:def:crs:OGC:1.3:CRS84" } },
"features": [
{ "type": "Feature", "properties": { }, "geometry": { "type": "Polygon", "coordinates": [ [ [ 26.494331495883756, 55.615106919977634 ], [ 26.588279249790389, 55.167175604871673 ], [ 25.768432651479799, 54.846962592175089 ], [ 25.536353794056993, 54.282423407602529 ], [ 24.450683628037037, 53.905702216194754 ], [ 23.484127638449849, 53.912497667041137 ], [ 23.243987257589509, 54.220566718149144 ], [ 22.731098667092652, 54.327536932993326 ], [ 22.651051873472539, 54.582740993866736 ], [ 22.757763706155259, 54.85657440858138 ], [ 22.315723504330577, 55.015298570365864 ], [ 21.268448927503467, 55.190481675835315 ], [ 21.055800408622417, 56.031076361711065 ], [ 22.201156853939494, 56.33780182557949 ], [ 23.878263787539964, 56.273671373105273 ], [ 24.86068444184076, 56.37252838807963 ], [ 25.000934279080894, 56.164530748104838 ], [ 25.533046502390334, 56.100296942766036 ], [ 26.494331495883756, 55.615106919977634 ] ] ] } }
]
}
