{
"type": "FeatureCollection",
"name": "regions_LT",
"crs": { "type": "name", "properties": { "name": "urn:ogc:def:crs:OGC:1.3:CRS84" } },
"features": [
{ "type": "Feature", "properties": { "loc": "LT011" }, "geometry": { "type": "MultiPolygon", "coordinates": [ [ [ [ 24.42979, 55.390796 ], [ 24.426278, 55.365907 ], [ 24.388448, 55.323429 ], [ 24.392992, 55.298454 ], [ 24.423694, 55.272602 ], [ 24.415562, 55.234709 ], [ 24.50072, 55.22252 ], [ 24.484548, 55.198382 ], [ 24.503668, 55.161836 ], [ 24.536256, 55.153408 ], [ 24.522377, 55.136832 ], [ 24.577851, 55.110278 ], [ 24.594894, 55.076875 ], [ 24.637308, 55.049728 ], [ 24.590249, 55.026635 ], [ 24.56265, 54.987392 ], [ 24.694747, 54.928965 ], [ 24.752487, 54.929417 ], [ 24.809432, 54.894736 ], [ 24.755442, 54.873422 ], [ 24.760461, 54.828776 ], [ 24.7387, 54.819531 ], [ 24.623773, 54.828256 ], [ 24.594913, 54.812061 ], [ 24.543522, 54.817083 ], [ 24.544755, 54.800346 ], [ 24.581667, 54.784701 ], [ 24.555066, 54.741799 ], [ 24.508037, 54.728322 ], [ 24.467802, 54.686458 ], [ 24.482773, 54.608591 ], [ 24.457642, 54.590058 ], [ 24.426939, 54.592187 ], [ 24.416838, 54.493627 ], [ 24.398014, 54.480832 ], [ 24.434531, 54.459383 ], [ 24.420141, 54.428065 ], [ 24.535286, 54.42902 ], [ 24.578076, 54.415106 ], [ 24.668368, 54.44519 ], [ 24.717676, 54.427701 ], [ 24.709326, 54.403039 ], [ 24.721327, 54.392378 ], [ 24.837922, 54.399231 ], [ 25.015846, 54.439356 ], [ 25.013598, 54.401592 ], [ 24.992568, 54.384035 ], [ 24.93356, 54.376185 ], [ 24.916352, 54.359503 ], [ 24.930786, 54.299158 ], [ 24.881376, 54.291767 ], [ 24.853064, 54.256797 ], [ 24.760777, 54.222026 ], [ 24.763723, 54.198432 ], [ 24.813306, 54.186382 ], [ 24.83595, 54.149027 ], [ 24.962467, 54.170539 ], [ 24.99816, 54.14309 ], [ 25.068283, 54.136112 ], [ 25.19111, 54.212058 ], [ 25.225693, 54.259764 ], [ 25.353968, 54.265497 ], [ 25.503906, 54.307945 ], [ 25.523749, 54.281983 ], [ 25.559839, 54.272736 ], [ 25.588047, 54.229955 ], [ 25.552146, 54.228065 ], [ 25.561152, 54.201788 ], [ 25.516011, 54.181956 ], [ 25.536008, 54.157371 ], [ 25.64457, 54.129858 ], [ 25.7076, 54.167209 ], [ 25.784132, 54.16052 ], [ 25.754108, 54.218386 ], [ 25.776372, 54.23437 ], [ 25.743112, 54.271234 ], [ 25.705372, 54.277175 ], [ 25.705671, 54.300553 ], [ 25.684296, 54.318089 ], [ 25.556905, 54.317173 ], [ 25.534638, 54.339112 ], [ 25.62803, 54.418959 ], [ 25.624433, 54.452861 ], [ 25.607919, 54.462185 ], [ 25.638795, 54.475053 ], [ 25.680929, 54.533937 ], [ 25.759076, 54.576317 ], [ 25.733475, 54.678227 ], [ 25.744279, 54.813799 ], [ 25.851488, 54.897353 ], [ 25.862343, 54.927124 ], [ 25.983509, 54.956121 ], [ 26.048597, 54.943219 ], [ 26.12215, 54.987047 ], [ 26.204157, 54.997481 ], [ 26.238147, 55.038325 ], [ 26.240645, 55.064492 ], [ 26.266912, 55.074005 ], [ 26.234085, 55.103708 ], [ 26.251293, 55.116837 ], [ 26.359405, 55.1493 ], [ 26.464346, 55.131785 ], [ 26.513518, 55.158466 ], [ 26.547464, 55.144394 ], [ 26.669455, 55.158369 ], [ 26.701286, 55.172056 ], [ 26.678586, 55.196839 ], [ 26.724454, 55.214085 ], [ 26.743454, 55.254103 ], [ 26.633736, 55.262828 ], [ 26.595841, 55.230043 ], [ 26.445231, 55.211117 ], [ 26.262369, 55.225323 ], [ 26.229478, 55.24296 ], [ 26.174728, 55.223342 ], [ 26.155801, 55.228429 ], [ 26.170557, 55.253769 ], [ 26.122325, 55.291209 ], [ 26.052867, 55.297467 ], [ 26.026292, 55.277051 ], [ 25.90299, 55.27682 ], [ 25.864085, 55.301131 ], [ 25.817231, 55.278919 ], [ 25.803966, 55.301273 ], [ 25.769195, 55.314115 ], [ 25.732833, 55.301815 ], [ 25.704711, 55.267958 ], [ 25.684249, 55.268625 ], [ 25.702199, 55.242571 ], [ 25.670766, 55.23816 ], [ 25.650297, 55.198893 ], [ 25.706053, 55.170354 ], [ 25.710904, 55.145326 ], [ 25.785633, 55.120558 ], [ 25.752194, 55.101632 ], [ 25.763884, 55.088188 ], [ 25.740147, 55.039193 ], [ 25.669828, 55.042157 ], [ 25.62589, 55.062964 ], [ 25.518679, 55.040548 ], [ 25.33136, 55.032664 ], [ 25.224243, 55.042998 ], [ 25.232059, 55.063412 ], [ 25.21702, 55.089229 ], [ 25.152503, 55.094339 ], [ 25.171187, 55.15022 ], [ 25.225706, 55.168038 ], [ 25.243476, 55.190678 ], [ 25.163179, 55.219418 ], [ 25.18566, 55.264924 ], [ 25.140562, 55.255531 ], [ 25.109646, 55.265379 ], [ 25.074069, 55.310259 ], [ 24.992385, 55.310007 ], [ 24.966184, 55.354608 ], [ 24.895589, 55.343294 ], [ 24.893641, 55.358191 ], [ 24.850842, 55.354861 ], [ 24.789908, 55.376931 ], [ 24.787315, 55.412713 ], [ 24.814907, 55.424008 ], [ 24.814469, 55.441395 ], [ 24.769305, 55.478457 ], [ 24.666949, 55.501758 ], [ 24.655051, 55.517687 ], [ 24.634514, 55.508161 ], [ 24.64526, 55.461017 ], [ 24.542005, 55.457821 ], [ 24.546013, 55.425091 ], [ 24.42979, 55.390796 ] ] ], [ [ [ 25.730823, 55.080118 ], [ 25.740263, 55.073995 ], [ 25.754143, 55.080911 ], [ 25.749211, 55.089871 ], [ 25.730823, 55.080118 ] ] ] ] } },
{ "type": "Feature", "properties": { "loc": "LT021" }, "geometry": { "type": "Polygon", "coordinates": [ [ [ 23.51465, 53.95656 ], [ 23.612946, 53.926174 ], [ 23.718096, 53.935403 ], [ 23.789779, 53.902046 ], [ 23.810817, 53.911158 ], [ 23.812837, 53.940557 ], [ 23.887997, 53.947033 ], [ 23.915027, 53.965225 ], [ 23.98806, 53.925729 ], [ 24.195897, 53.966965 ], [ 24.343978, 53.900862 ], [ 24.429856, 53.90287 ], [ 24.516623, 53.963982 ], [ 24.619634, 54.006069 ], [ 24.693683, 54.014081 ], [ 24.694668, 53.968734 ], [ 24.720723, 53.966443 ], [ 24.852199, 54.033966 ], [ 24.779075, 54.108537 ], [ 24.83595, 54.149027 ], [ 24.813306, 54.186382 ], [ 24.763723, 54.198432 ], [ 24.760777, 54.222026 ], [ 24.853064, 54.256797 ], [ 24.881376, 54.291767 ], [ 24.930786, 54.299158 ], [ 24.916352, 54.359503 ], [ 24.93356, 54.376185 ], [ 24.992568, 54.384035 ], [ 25.022366, 54.430805 ], [ 24.952051, 54.43248 ], [ 24.837922, 54.399231 ], [ 24.721327, 54.392378 ], [ 24.709326, 54.403039 ], [ 24.717676, 54.427701 ], [ 24.668368, 54.44519 ], [ 24.578076, 54.415106 ], [ 24.535286, 54.42902 ], [ 24.420141, 54.428065 ], [ 24.434531, 54.459383 ], [ 24.398014, 54.480832 ], [ 24.416838, 54.493627 ], [ 24.414311, 54.533269 ], [ 24.289579, 54.527037 ], [ 24.262208, 54.559889 ], [ 24.105573, 54.529173 ], [ 24.056013, 54.553144 ], [ 24.008929, 54.540232 ], [ 24.001644, 54.497356 ], [ 23.906473, 54.48233 ], [ 23.876058, 54.459348 ], [ 23.684616, 54.47991 ], [ 23.643629, 54.511252 ], [ 23.519706, 54.465699 ], [ 23.506495, 54.416766 ], [ 23.444376, 54.398676 ], [ 23.43529, 54.367682 ], [ 23.351609, 54.344882 ], [ 23.319987, 54.295923 ], [ 23.321499, 54.253326 ], [ 23.48743, 54.148149 ], [ 23.526901, 54.063605 ], [ 23.522953, 54.033247 ], [ 23.483794, 53.996278 ], [ 23.51465, 53.95656 ] ] ] } },
{ "type": "Feature", "properties": { "loc": "LT022" }, "geometry": { "type": "Polygon", "coordinates": [ [ [ 23.68734, 55.502522 ], [ 23.650074, 55.470046 ], [ 23.574623, 55.474637 ], [ 23.569032, 55.508589 ], [ 23.532161, 55.521815 ], [ 23.482311, 55.518842 ], [ 23.468285, 55.490095 ], [ 23.329541, 55.547344 ], [ 23.259582, 55.529118 ], [ 23.226569, 55.572985 ], [ 23.176498, 55.558607 ], [ 23.105257, 55.565127 ], [ 23.076894, 55.537891 ], [ 23.077592, 55.505581 ], [ 22.93926, 55.485622 ], [ 22.893945, 55.465183 ], [ 22.838463, 55.470708 ], [ 22.844649, 55.505753 ], [ 22.756944, 55.51136 ], [ 22.692117, 55.484182 ], [ 22.674719, 55.456547 ], [ 22.695452, 55.419838 ], [ 22.734476, 55.422393 ], [ 22.735722, 55.390732 ], [ 22.805091, 55.374462 ], [ 22.793743, 55.332907 ], [ 22.839493, 55.322243 ], [ 22.868832, 55.288779 ], [ 22.936126, 55.320199 ], [ 22.978018, 55.312259 ], [ 22.977771, 55.288842 ], [ 23.017773, 55.274105 ], [ 23.012402, 55.253727 ], [ 23.175054, 55.266583 ], [ 23.186947, 55.234375 ], [ 23.348722, 55.238966 ], [ 23.370732, 55.21217 ], [ 23.499201, 55.193952 ], [ 23.476105, 55.119771 ], [ 23.411938, 55.073509 ], [ 23.579144, 55.029606 ], [ 23.571861, 55.003477 ], [ 23.499981, 54.97513 ], [ 23.441336, 54.97287 ], [ 23.410549, 54.951718 ], [ 23.466965, 54.927155 ], [ 23.49128, 54.889638 ], [ 23.552431, 54.887817 ], [ 23.565826, 54.860191 ], [ 23.613118, 54.840979 ], [ 23.631586, 54.802486 ], [ 23.614735, 54.768842 ], [ 23.643468, 54.755609 ], [ 23.653612, 54.725642 ], [ 23.642642, 54.702842 ], [ 23.664583, 54.661332 ], [ 23.642763, 54.625203 ], [ 23.684646, 54.601204 ], [ 23.669292, 54.580878 ], [ 23.68496, 54.559376 ], [ 23.749481, 54.542637 ], [ 23.779618, 54.51279 ], [ 23.755518, 54.468568 ], [ 23.896407, 54.463735 ], [ 23.906473, 54.48233 ], [ 24.001644, 54.497356 ], [ 24.008929, 54.540232 ], [ 24.056013, 54.553144 ], [ 24.105573, 54.529173 ], [ 24.262208, 54.559889 ], [ 24.289579, 54.527037 ], [ 24.414311, 54.533269 ], [ 24.426939, 54.592187 ], [ 24.457642, 54.590058 ], [ 24.482773, 54.608591 ], [ 24.467802, 54.686458 ], [ 24.508037, 54.728322 ], [ 24.555066, 54.741799 ], [ 24.581667, 54.784701 ], [ 24.544755, 54.800346 ], [ 24.543522, 54.817083 ], [ 24.594913, 54.812061 ], [ 24.623773, 54.828256 ], [ 24.7387, 54.819531 ], [ 24.760461, 54.828776 ], [ 24.755442, 54.873422 ], [ 24.795618, 54.879765 ], [ 24.803449, 54.90705 ], [ 24.752487, 54.929417 ], [ 24.694747, 54.928965 ], [ 24.56265, 54.987392 ], [ 24.590249, 55.026635 ], [ 24.637308, 55.049728 ], [ 24.594894, 55.076875 ], [ 24.577851, 55.110278 ], [ 24.522377, 55.136832 ], [ 24.536256, 55.153408 ], [ 24.503668, 55.161836 ], [ 24.484548, 55.198382 ], [ 24.50072, 55.22252 ], [ 24.415562, 55.234709 ], [ 24.423694, 55.272602 ], [ 24.392992, 55.298454 ], [ 24.388448, 55.323429 ], [ 24.426278, 55.365907 ], [ 24.42979, 55.390796 ], [ 24.403406, 55.393189 ], [ 24.38282, 55.434515 ], [ 24.312423, 55.453039 ], [ 24.295121, 55.441176 ], [ 24.208602, 55.473386 ], [ 24.193583, 55.44809 ], [ 24.144439, 55.43732 ], [ 24.108127, 55.450352 ], [ 24.044311, 55.44309 ], [ 24.052827, 55.473304 ], [ 24.00677, 55.509926 ], [ 23.947969, 55.508648 ], [ 23.91236, 55.560345 ], [ 23.68734, 55.502522 ] ] ] } },
{ "type": "Feature", "properties": { "loc": "LT023" }, "geometry": { "type": "Polygon", "coordinates": [ [ [ 21.880256, 55.596994 ], [ 21.795229, 55.640217 ], [ 21.791311, 55.686995 ], [ 21.758596, 55.71108 ], [ 21.75422, 55.750633 ], [ 21.635495, 55.754436 ], [ 21.599651, 55.808569 ], [ 21.518911, 55.811855 ], [ 21.546177, 55.849577 ], [ 21.613182, 55.887026 ], [ 21.584981, 55.912481 ], [ 21.584511, 55.991284 ], [ 21.641039, 56.010356 ], [ 21.74846, 56.101606 ], [ 21.823562, 56.104653 ], [ 21.838337, 56.129224 ], [ 21.916142, 56.117748 ], [ 21.963662, 56.194145 ], [ 22.011187, 56.202786 ], [ 21.972799, 56.272428 ], [ 21.974712, 56.311542 ], [ 21.936566, 56.327049 ], [ 21.943388, 56.346546 ], [ 21.972944, 56.357067 ], [ 21.978209, 56.385143 ], [ 21.880361, 56.363111 ], [ 21.835755, 56.369652 ], [ 21.718218, 56.313955 ], [ 21.596413, 56.322943 ], [ 21.498474, 56.291972 ], [ 21.449532, 56.248416 ], [ 21.330661, 56.21795 ], [ 21.231268, 56.15985 ], [ 21.235121, 56.122586 ], [ 21.199569, 56.077831 ], [ 21.064238, 56.069137 ], [ 21.054338, 55.896269 ], [ 21.099988, 55.706637 ], [ 21.096597, 55.55262 ], [ 21.052121, 55.419786 ], [ 20.976544, 55.294611 ], [ 21.038898, 55.325414 ], [ 21.093599, 55.409533 ], [ 21.145107, 55.639793 ], [ 21.236681, 55.490715 ], [ 21.240154, 55.422949 ], [ 21.223264, 55.371098 ], [ 21.273163, 55.316852 ], [ 21.273511, 55.245652 ], [ 21.382825, 55.294408 ], [ 21.502387, 55.186768 ], [ 21.569494, 55.198128 ], [ 21.651071, 55.179983 ], [ 21.750615, 55.22657 ], [ 21.865043, 55.205495 ], [ 21.878995, 55.236904 ], [ 21.856198, 55.277862 ], [ 21.995008, 55.353858 ], [ 22.020635, 55.389341 ], [ 21.994909, 55.423033 ], [ 21.872488, 55.426995 ], [ 21.856209, 55.487704 ], [ 21.825457, 55.517752 ], [ 21.832146, 55.544381 ], [ 21.813405, 55.550166 ], [ 21.876225, 55.580021 ], [ 21.880256, 55.596994 ] ] ] } },
{ "type": "Feature", "properties": { "loc": "LT024" }, "geometry": { "type": "Polygon", "coordinates": [ [ [ 23.411938, 55.073509 ], [ 23.320529, 55.067959 ], [ 23.051797, 55.104433 ], [ 22.942726, 55.083823 ], [ 22.855588, 55.088513 ], [ 22.660486, 55.049886 ], [ 22.588968, 55.070251 ], [ 22.600612, 55.020407 ], [ 22.647834, 54.96882 ], [ 22.679234, 54.985369 ], [ 22.759971, 54.936048 ], [ 22.758455, 54.9211 ], [ 22.846423, 54.895256 ], [ 22.843443, 54.865688 ], [ 22.881638, 54.813807 ], [ 22.846707, 54.77009 ], [ 22.742847, 54.728354 ], [ 22.72697, 54.688976 ], [ 22.752453, 54.653168 ], [ 22.746261, 54.633062 ], [ 22.686728, 54.586915 ], [ 22.709789, 54.563713 ], [ 22.682373, 54.530612 ], [ 22.704642, 54.455634 ], [ 22.736332, 54.440297 ], [ 22.768186, 54.384583 ], [ 22.792096, 54.363359 ], [ 22.852803, 54.408202 ], [ 22.975069, 54.38971 ], [ 23.00255, 54.380176 ], [ 23.006184, 54.358861 ], [ 23.053763, 54.343047 ], [ 23.058106, 54.310836 ], [ 23.095923, 54.300858 ], [ 23.145853, 54.311911 ], [ 23.241238, 54.260555 ], [ 23.321499, 54.253326 ], [ 23.319987, 54.295923 ], [ 23.351609, 54.344882 ], [ 23.43529, 54.367682 ], [ 23.444376, 54.398676 ], [ 23.506495, 54.416766 ], [ 23.519706, 54.465699 ], [ 23.643629, 54.511252 ], [ 23.684616, 54.47991 ], [ 23.755518, 54.468568 ], [ 23.779618, 54.51279 ], [ 23.749481, 54.542637 ], [ 23.68496, 54.559376 ], [ 23.669292, 54.580878 ], [ 23.684646, 54.601204 ], [ 23.642763, 54.625203 ], [ 23.664583, 54.661332 ], [ 23.642642, 54.702842 ], [ 23.653612, 54.725642 ], [ 23.643468, 54.755609 ], [ 23.614735, 54.768842 ], [ 23.631586, 54.802486 ], [ 23.613118, 54.840979 ], [ 23.565826, 54.860191 ], [ 23.552431, 54.887817 ], [ 23.49128, 54.889638 ], [ 23.466965, 54.927155 ], [ 23.410549, 54.951718 ], [ 23.441336, 54.97287 ], [ 23.499981, 54.97513 ], [ 23.571861, 55.003477 ], [ 23.579144, 55.029606 ], [ 23.411938, 55.073509 ] ] ] } },
{ "type": "Feature", "properties": { "loc": "LT025" }, "geometry": { "type": "Polygon", "coordinates": [ [ [ 24.131284, 56.236329 ], [ 24.138851, 56.205691 ], [ 24.161474, 56.19385 ], [ 24.157457, 56.172295 ], [ 24.178392, 56.164133 ], [ 24.173706, 56.134385 ], [ 24.131348, 56.119033 ], [ 24.06552, 56.033762 ], [ 24.041585, 56.029789 ], [ 24.019134, 55.968456 ], [ 24.091484, 55.937883 ], [ 24.080105, 55.880443 ], [ 23.961832, 55.831458 ], [ 23.978946, 55.792397 ], [ 24.017748, 55.774628 ], [ 24.055034, 55.695991 ], [ 24.020895, 55.678055 ], [ 24.029294, 55.634653 ], [ 23.928095, 55.62087 ], [ 23.879444, 55.558162 ], [ 23.91236, 55.560345 ], [ 23.947969, 55.508648 ], [ 24.00677, 55.509926 ], [ 24.052827, 55.473304 ], [ 24.044311, 55.44309 ], [ 24.108127, 55.450352 ], [ 24.144439, 55.43732 ], [ 24.193583, 55.44809 ], [ 24.208602, 55.473386 ], [ 24.295121, 55.441176 ], [ 24.312423, 55.453039 ], [ 24.38282, 55.434515 ], [ 24.403406, 55.393189 ], [ 24.483219, 55.39874 ], [ 24.546013, 55.425091 ], [ 24.542005, 55.457821 ], [ 24.64526, 55.461017 ], [ 24.634514, 55.508161 ], [ 24.670532, 55.548296 ], [ 24.676666, 55.593471 ], [ 24.719233, 55.618196 ], [ 24.704326, 55.644456 ], [ 24.660251, 55.659787 ], [ 24.736064, 55.664836 ], [ 24.723245, 55.720046 ], [ 24.85567, 55.708676 ], [ 24.981965, 55.733156 ], [ 25.079116, 55.716726 ], [ 25.110932, 55.685624 ], [ 25.245927, 55.714116 ], [ 25.298174, 55.70682 ], [ 25.30567, 55.731813 ], [ 25.381945, 55.762125 ], [ 25.515238, 55.722646 ], [ 25.605292, 55.739394 ], [ 25.670703, 55.737856 ], [ 25.691377, 55.720928 ], [ 25.745868, 55.779924 ], [ 25.817602, 55.777426 ], [ 25.845325, 55.829437 ], [ 25.898327, 55.824263 ], [ 25.908584, 55.859616 ], [ 25.978751, 55.884226 ], [ 25.979422, 55.92386 ], [ 26.046155, 55.944106 ], [ 25.971785, 55.981349 ], [ 25.860286, 56.002459 ], [ 25.821387, 56.052179 ], [ 25.696722, 56.086346 ], [ 25.693829, 56.120244 ], [ 25.673048, 56.14444 ], [ 25.593018, 56.136267 ], [ 25.534417, 56.161902 ], [ 25.488338, 56.144882 ], [ 25.316953, 56.148002 ], [ 25.233779, 56.188367 ], [ 25.169541, 56.175322 ], [ 25.09551, 56.18794 ], [ 25.074716, 56.203671 ], [ 25.052659, 56.263437 ], [ 24.977892, 56.311291 ], [ 24.966657, 56.362544 ], [ 24.907219, 56.415298 ], [ 24.914976, 56.439596 ], [ 24.885291, 56.446567 ], [ 24.859697, 56.438584 ], [ 24.850487, 56.416336 ], [ 24.711177, 56.401772 ], [ 24.686296, 56.379259 ], [ 24.635605, 56.373721 ], [ 24.564366, 56.287204 ], [ 24.445564, 56.260519 ], [ 24.298693, 56.298909 ], [ 24.131284, 56.236329 ] ] ] } },
{ "type": "Feature", "properties": { "loc": "LT026" }, "geometry": { "type": "Polygon", "coordinates": [ [ [ 22.635564, 56.368168 ], [ 22.571689, 56.358237 ], [ 22.596194, 56.33094 ], [ 22.583542, 56.284822 ], [ 22.597015, 56.259281 ], [ 22.636515, 56.247047 ], [ 22.643731, 56.225374 ], [ 22.61899, 56.219691 ], [ 22.617917, 56.173897 ], [ 22.535699, 56.155165 ], [ 22.577686, 56.132796 ], [ 22.586178, 56.090311 ], [ 22.720388, 56.108863 ], [ 22.716702, 56.084388 ], [ 22.734103, 56.069843 ], [ 22.704849, 56.049719 ], [ 22.624441, 56.039582 ], [ 22.632305, 56.025829 ], [ 22.615299, 55.994647 ], [ 22.589921, 55.979682 ], [ 22.616043, 55.949986 ], [ 22.667116, 55.966977 ], [ 22.701338, 55.929426 ], [ 22.683237, 55.920018 ], [ 22.686834, 55.897766 ], [ 22.658462, 55.899731 ], [ 22.660665, 55.876385 ], [ 22.638546, 55.861178 ], [ 22.568705, 55.858148 ], [ 22.579859, 55.811156 ], [ 22.490927, 55.787582 ], [ 22.519881, 55.755363 ], [ 22.525983, 55.698268 ], [ 22.466302, 55.672948 ], [ 22.479719, 55.637596 ], [ 22.510327, 55.623572 ], [ 22.504711, 55.591357 ], [ 22.581361, 55.565486 ], [ 22.581998, 55.546902 ], [ 22.642697, 55.499559 ], [ 22.627794, 55.478773 ], [ 22.677405, 55.470137 ], [ 22.756944, 55.51136 ], [ 22.844649, 55.505753 ], [ 22.838463, 55.470708 ], [ 22.893945, 55.465183 ], [ 22.93926, 55.485622 ], [ 23.077592, 55.505581 ], [ 23.076894, 55.537891 ], [ 23.105257, 55.565127 ], [ 23.176498, 55.558607 ], [ 23.226569, 55.572985 ], [ 23.259582, 55.529118 ], [ 23.329541, 55.547344 ], [ 23.468285, 55.490095 ], [ 23.482311, 55.518842 ], [ 23.532161, 55.521815 ], [ 23.569032, 55.508589 ], [ 23.574623, 55.474637 ], [ 23.650074, 55.470046 ], [ 23.68734, 55.502522 ], [ 23.879444, 55.558162 ], [ 23.928095, 55.62087 ], [ 24.029294, 55.634653 ], [ 24.020895, 55.678055 ], [ 24.055034, 55.695991 ], [ 24.035701, 55.714443 ], [ 24.040839, 55.739834 ], [ 24.017748, 55.774628 ], [ 23.978946, 55.792397 ], [ 23.961832, 55.831458 ], [ 24.080105, 55.880443 ], [ 24.091484, 55.937883 ], [ 24.019134, 55.968456 ], [ 24.041585, 56.029789 ], [ 24.06552, 56.033762 ], [ 24.131348, 56.119033 ], [ 24.173706, 56.134385 ], [ 24.178392, 56.164133 ], [ 24.138851, 56.205691 ], [ 24.131284, 56.236329 ], [ 24.1518, 56.253348 ], [ 24.050206, 56.28111 ], [ 24.013568, 56.329322 ], [ 23.811413, 56.341135 ], [ 23.772556, 56.322901 ], [ 23.776908, 56.365834 ], [ 23.765431, 56.37174 ], [ 23.637261, 56.360486 ], [ 23.546772, 56.334029 ], [ 23.443569, 56.351966 ], [ 23.388121, 56.378101 ], [ 23.311177, 56.382062 ], [ 23.177463, 56.36752 ], [ 23.177555, 56.336356 ], [ 23.098306, 56.305967 ], [ 23.026484, 56.334004 ], [ 23.000729, 56.4034 ], [ 22.950437, 56.414202 ], [ 22.920517, 56.399143 ], [ 22.915459, 56.378831 ], [ 22.841395, 56.366103 ], [ 22.734589, 56.372042 ], [ 22.684469, 56.352703 ], [ 22.635564, 56.368168 ] ] ] } },
{ "type": "Feature", "properties": { "loc": "LT027" }, "geometry": { "type": "Polygon", "coordinates": [ [ [ 23.411938, 55.073509 ], [ 23.476105, 55.119771 ], [ 23.499201, 55.193952 ], [ 23.370732, 55.21217 ], [ 23.348722, 55.238966 ], [ 23.186947, 55.234375 ], [ 23.175054, 55.266583 ], [ 23.012402, 55.253727 ], [ 23.017773, 55.274105 ], [ 22.977771, 55.288842 ], [ 22.978018, 55.312259 ], [ 22.936126, 55.320199 ], [ 22.868832, 55.288779 ], [ 22.839493, 55.322243 ], [ 22.793743, 55.332907 ], [ 22.805091, 55.374462 ], [ 22.735722, 55.390732 ], [ 22.740493, 55.414796 ], [ 22.695452, 55.419838 ], [ 22.677405, 55.470137 ], [ 22.627794, 55.478773 ], [ 22.642697, 55.499559 ], [ 22.581998, 55.546902 ], [ 22.581361, 55.565486 ], [ 22.504711, 55.591357 ], [ 22.510327, 55.623572 ], [ 22.479719, 55.637596 ], [ 22.466302, 55.672948 ], [ 22.371572, 55.660921 ], [ 22.262358, 55.685557 ], [ 22.073776, 55.654905 ], [ 22.028661, 55.607848 ], [ 21.880256, 55.596994 ], [ 21.876225, 55.580021 ], [ 21.835159, 55.568957 ], [ 21.813405, 55.550166 ], [ 21.832146, 55.544381 ], [ 21.825457, 55.517752 ], [ 21.856209, 55.487704 ], [ 21.872488, 55.426995 ], [ 21.994909, 55.423033 ], [ 22.020635, 55.389341 ], [ 21.995008, 55.353858 ], [ 21.856198, 55.277862 ], [ 21.878995, 55.236904 ], [ 21.865043, 55.205495 ], [ 21.750615, 55.22657 ], [ 21.651071, 55.179983 ], [ 21.720839, 55.133962 ], [ 21.814829, 55.118588 ], [ 21.851381, 55.097725 ], [ 21.961438, 55.075181 ], [ 22.031902, 55.082342 ], [ 22.0394, 55.041961 ], [ 22.090731, 55.024714 ], [ 22.153338, 55.053456 ], [ 22.222492, 55.060444 ], [ 22.466432, 55.045093 ], [ 22.588968, 55.070251 ], [ 22.660486, 55.049886 ], [ 22.855588, 55.088513 ], [ 22.942726, 55.083823 ], [ 23.051797, 55.104433 ], [ 23.320529, 55.067959 ], [ 23.411938, 55.073509 ] ] ] } },
{ "type": "Feature", "properties": { "loc": "LT028" }, "geometry": { "type": "Polygon", "coordinates": [ [ [ 22.466302, 55.672948 ], [ 22.525983, 55.698268 ], [ 22.519881, 55.755363 ], [ 22.490927, 55.787582 ], [ 22.579859, 55.811156 ], [ 22.568705, 55.858148 ], [ 22.638546, 55.861178 ], [ 22.660665, 55.876385 ], [ 22.658462, 55.899731 ], [ 22.686834, 55.897766 ], [ 22.683237, 55.920018 ], [ 22.701338, 55.929426 ], [ 22.667116, 55.966977 ], [ 22.616043, 55.949986 ], [ 22.589921, 55.979682 ], [ 22.615299, 55.994647 ], [ 22.632305, 56.025829 ], [ 22.624441, 56.039582 ], [ 22.704849, 56.049719 ], [ 22.734103, 56.069843 ], [ 22.716702, 56.084388 ], [ 22.720388, 56.108863 ], [ 22.701378, 56.115769 ], [ 22.586178, 56.090311 ], [ 22.577686, 56.132796 ], [ 22.535699, 56.155165 ], [ 22.617917, 56.173897 ], [ 22.61899, 56.219691 ], [ 22.643731, 56.225374 ], [ 22.636515, 56.247047 ], [ 22.597015, 56.259281 ], [ 22.583542, 56.284822 ], [ 22.596194, 56.33094 ], [ 22.571689, 56.358237 ], [ 22.635564, 56.368168 ], [ 22.579354, 56.388666 ], [ 22.426474, 56.408915 ], [ 22.247151, 56.400978 ], [ 22.205569, 56.422891 ], [ 22.143014, 56.42793 ], [ 21.994302, 56.40995 ], [ 21.972944, 56.357067 ], [ 21.943388, 56.346546 ], [ 21.936566, 56.327049 ], [ 21.974712, 56.311542 ], [ 21.972799, 56.272428 ], [ 22.011187, 56.202786 ], [ 21.963662, 56.194145 ], [ 21.916142, 56.117748 ], [ 21.838337, 56.129224 ], [ 21.823562, 56.104653 ], [ 21.74846, 56.101606 ], [ 21.641039, 56.010356 ], [ 21.584511, 55.991284 ], [ 21.584981, 55.912481 ], [ 21.613182, 55.887026 ], [ 21.546177, 55.849577 ], [ 21.518911, 55.811855 ], [ 21.599651, 55.808569 ], [ 21.635495, 55.754436 ], [ 21.75422, 55.750633 ], [ 21.758596, 55.71108 ], [ 21.791311, 55.686995 ], [ 21.795229, 55.640217 ], [ 21.880256, 55.596994 ], [ 22.028661, 55.607848 ], [ 22.073776, 55.654905 ], [ 22.121538, 55.653285 ], [ 22.173693, 55.674944 ], [ 22.262358, 55.685557 ], [ 22.371572, 55.660921 ], [ 22.466302, 55.672948 ] ] ] } },
{ "type": "Feature", "properties": { "loc": "LT029" }, "geometry": { "type": "Polygon", "coordinates": [ [ [ 24.655051, 55.517687 ], [ 24.666949, 55.501758 ], [ 24.769305, 55.478457 ], [ 24.814469, 55.441395 ], [ 24.814907, 55.424008 ], [ 24.787315, 55.412713 ], [ 24.789908, 55.376931 ], [ 24.850842, 55.354861 ], [ 24.893641, 55.358191 ], [ 24.895589, 55.343294 ], [ 24.966184, 55.354608 ], [ 24.992385, 55.310007 ], [ 25.074069, 55.310259 ], [ 25.109646, 55.265379 ], [ 25.140562, 55.255531 ], [ 25.18566, 55.264924 ], [ 25.163179, 55.219418 ], [ 25.243476, 55.190678 ], [ 25.225706, 55.168038 ], [ 25.171187, 55.15022 ], [ 25.152503, 55.094339 ], [ 25.21702, 55.089229 ], [ 25.232059, 55.063412 ], [ 25.224243, 55.042998 ], [ 25.518679, 55.040548 ], [ 25.62589, 55.062964 ], [ 25.669828, 55.042157 ], [ 25.740147, 55.039193 ], [ 25.763884, 55.088188 ], [ 25.752194, 55.101632 ], [ 25.785633, 55.120558 ], [ 25.710904, 55.145326 ], [ 25.706053, 55.170354 ], [ 25.650297, 55.198893 ], [ 25.670766, 55.23816 ], [ 25.702199, 55.242571 ], [ 25.684249, 55.268625 ], [ 25.704711, 55.267958 ], [ 25.732833, 55.301815 ], [ 25.769195, 55.314115 ], [ 25.803966, 55.301273 ], [ 25.817231, 55.278919 ], [ 25.864085, 55.301131 ], [ 25.90299, 55.27682 ], [ 26.026292, 55.277051 ], [ 26.052867, 55.297467 ], [ 26.122325, 55.291209 ], [ 26.170557, 55.253769 ], [ 26.155801, 55.228429 ], [ 26.174728, 55.223342 ], [ 26.229478, 55.24296 ], [ 26.262369, 55.225323 ], [ 26.445231, 55.211117 ], [ 26.595841, 55.230043 ], [ 26.633736, 55.262828 ], [ 26.743454, 55.254103 ], [ 26.816965, 55.276705 ], [ 26.825187, 55.301134 ], [ 26.682922, 55.3342 ], [ 26.569087, 55.322373 ], [ 26.460578, 55.350311 ], [ 26.547956, 55.39775 ], [ 26.550739, 55.466643 ], [ 26.535124, 55.512192 ], [ 26.624369, 55.576498 ], [ 26.630365, 55.680667 ], [ 26.530019, 55.67782 ], [ 26.444494, 55.708081 ], [ 26.381588, 55.707752 ], [ 26.352509, 55.73864 ], [ 26.270345, 55.767773 ], [ 26.204442, 55.857462 ], [ 26.116863, 55.88301 ], [ 26.046155, 55.944106 ], [ 25.979422, 55.92386 ], [ 25.978751, 55.884226 ], [ 25.908584, 55.859616 ], [ 25.898327, 55.824263 ], [ 25.845325, 55.829437 ], [ 25.817602, 55.777426 ], [ 25.745868, 55.779924 ], [ 25.691377, 55.720928 ], [ 25.670703, 55.737856 ], [ 25.605292, 55.739394 ], [ 25.515238, 55.722646 ], [ 25.381945, 55.762125 ], [ 25.30567, 55.731813 ], [ 25.298174, 55.70682 ], [ 25.245927, 55.714116 ], [ 25.110932, 55.685624 ], [ 25.079116, 55.716726 ], [ 24.981965, 55.733156 ], [ 24.85567, 55.708676 ], [ 24.723245, 55.720046 ], [ 24.736064, 55.664836 ], [ 24.660251, 55.659787 ], [ 24.704326, 55.644456 ], [ 24.719233, 55.618196 ], [ 24.676666, 55.593471 ], [ 24.655051, 55.517687 ] ], [ [ 25.730823, 55.080118 ], [ 25.749211, 55.089871 ], [ 25.754143, 55.080911 ], [ 25.740263, 55.073995 ], [ 25.730823, 55.080118 ] ] ] } }
]
}
