{
"type": "FeatureCollection",
"name": "border_BR",
"crs": { "type": "name", "properties": { "name": "urn:ogc:def:crs:OGC:1.3:CRS84" } },
"features": [
{ "type": "Feature", "properties": { }, "geometry": { "type": "Polygon", "coordinates": [ [ [ -53.373661668498244, -33.768377780900764 ], [ -53.650543992718099, -33.20200408298183 ], [ -53.209588995971544, -32.727666110974724 ], [ -53.787951626182192, -32.047242526987624 ], [ -55.601510179249345, -30.853878676071393 ], [ -55.973244594940937, -30.883075860316303 ], [ -56.976025763564735, -30.109686374636127 ], [ -57.625133429582959, -30.216294854454262 ], [ -56.290899624239081, -28.852760512000895 ], [ -55.162286342984572, -27.881915378533463 ], [ -53.648735317587892, -26.92347258881609 ], [ -53.628348965048744, -26.124865004177472 ], [ -54.13004960795439, -25.547639255477254 ], [ -54.625290696823576, -25.739255466415514 ], [ -54.293476325077449, -24.570799655863965 ], [ -54.292959560754518, -24.021014092710729 ], [ -54.652834235235133, -23.839578138933959 ], [ -55.02790178080955, -24.001273695575229 ], [ -55.400747239795422, -23.956935316668805 ], [ -55.517639329639636, -23.571997572526637 ], [ -55.610682745981144, -22.655619398694846 ], [ -55.797958136606908, -22.356929620047822 ], [ -56.473317430229393, -22.086300144135283 ], [ -56.881509568902899, -22.282153822521479 ], [ -57.937155727761294, -22.090175876557172 ], [ -57.8706739976178, -20.732687676681952 ], [ -58.166392381408045, -20.176700941653678 ], [ -57.853801642474508, -19.969995212486189 ], [ -57.949997321185826, -19.400004164306822 ], [ -57.676008877174311, -18.961839694904029 ], [ -57.498371141170992, -18.174187513911292 ], [ -57.734558274961003, -17.552468357007768 ], [ -58.280804002502251, -17.271710300366017 ], [ -58.388058437724041, -16.877109063385276 ], [ -58.24121985536668, -16.299573256091293 ], [ -60.158389655179036, -16.258283786690086 ], [ -60.542965664295153, -15.093910414289596 ], [ -60.251148851142936, -15.07721892665932 ], [ -60.26432634137737, -14.645979099183641 ], [ -60.459198167550028, -14.354007256734555 ], [ -60.503304002511136, -13.775954685117659 ], [ -61.084121263255653, -13.479383640194598 ], [ -61.713204311760776, -13.489202162330052 ], [ -62.127080857986385, -13.198780612849724 ], [ -62.803060268796386, -13.000653171442686 ], [ -63.196498786050569, -12.627032565972435 ], [ -64.316352912031604, -12.461978041232193 ], [ -65.402281460213032, -11.566270440317155 ], [ -65.321898769783019, -10.895872084194679 ], [ -65.444837002205389, -10.511451104375432 ], [ -65.338435228116424, -9.761987806846392 ], [ -66.646908331962806, -9.931331475466862 ], [ -67.173801235610739, -10.306812432499612 ], [ -68.048192308205387, -10.712059014532485 ], [ -68.271253628193264, -11.014521172736821 ], [ -69.529678107364958, -10.951734307502194 ], [ -70.093752204046893, -11.123971856331012 ], [ -70.548685675728407, -11.009146823778465 ], [ -70.481893886991173, -9.490118096558845 ], [ -71.302412278921537, -10.079436130415374 ], [ -72.18489071316985, -10.053597914269432 ], [ -72.563033006465645, -9.520193780152717 ], [ -73.226713426390162, -9.462212823121234 ], [ -73.015382656532552, -9.032833347208062 ], [ -73.571059332967067, -8.424446709835834 ], [ -73.987235480429661, -7.523829847853065 ], [ -73.723401455363501, -7.340998630404414 ], [ -73.724486660441642, -6.91859547285064 ], [ -73.120027431923603, -6.629930922068239 ], [ -73.21971126981461, -6.089188734566078 ], [ -72.9645072089412, -5.741251315944893 ], [ -72.891927659787257, -5.274561455916981 ], [ -71.748405727816547, -4.593982842633011 ], [ -70.928843349883579, -4.401591485210368 ], [ -70.794768846302304, -4.251264743673303 ], [ -69.893635219996625, -4.298186944194327 ], [ -69.420485805932231, -1.122618503426409 ], [ -69.5770653957766, -0.549991957200163 ], [ -70.020655890570055, -0.185156345219539 ], [ -70.015565761989308, 0.541414292804205 ], [ -69.452396002872462, 0.706158758950693 ], [ -69.252434048119056, 0.602650865070075 ], [ -69.21863766140018, 0.985676581217433 ], [ -69.80459672715773, 1.089081122233466 ], [ -69.816973232691623, 1.714805202639624 ], [ -67.868565029558837, 1.692455145673392 ], [ -67.537810024674698, 2.03716278727633 ], [ -67.259997524673594, 1.719998684084956 ], [ -67.065048183852497, 1.130112209473225 ], [ -66.87632585312258, 1.253360500489336 ], [ -66.325765143484958, 0.724452215982012 ], [ -65.548267381437569, 0.78925446207603 ], [ -65.354713304288367, 1.0952822941085 ], [ -64.199305792890513, 1.49285492594602 ], [ -64.083085496666087, 1.91636912679408 ], [ -63.368788011311665, 2.200899562993129 ], [ -63.422867397705119, 2.411067613124175 ], [ -64.269999152265797, 2.497005520025567 ], [ -64.408827887617917, 3.126786200366624 ], [ -64.368494432214106, 3.797210394705246 ], [ -64.816064012294021, 4.056445217297423 ], [ -64.628659430587547, 4.14848094320925 ], [ -63.888342861574159, 4.020530096854571 ], [ -63.093197597899106, 3.770571193858785 ], [ -62.804533047116706, 4.006965033377952 ], [ -62.085429653559132, 4.162123521334308 ], [ -60.966893276601539, 4.536467596856639 ], [ -60.601179165271944, 4.91809804933213 ], [ -60.733574184803722, 5.200277207861901 ], [ -60.213683437731333, 5.244486395687602 ], [ -59.980958624904886, 5.014061184098139 ], [ -60.11100236676738, 4.574966538914083 ], [ -59.767405768458715, 4.423502915866607 ], [ -59.538039923731233, 3.958802598481938 ], [ -59.815413174057866, 3.606498521332085 ], [ -59.974524909084558, 2.755232652188056 ], [ -59.718545701726747, 2.24963043864436 ], [ -59.646043667221257, 1.786893825686789 ], [ -59.030861579002647, 1.317697658692722 ], [ -58.540012986878295, 1.268088283692521 ], [ -58.429477098205965, 1.463941962078721 ], [ -57.660971035377372, 1.682584947105639 ], [ -57.335822923396904, 1.948537705895759 ], [ -55.995698004771754, 1.817667141116601 ], [ -55.905600145070885, 2.02199575439866 ], [ -56.073341844290297, 2.220794989425499 ], [ -55.973322109589375, 2.510363877773017 ], [ -55.569755011605999, 2.421506252447131 ], [ -55.097587449755139, 2.523748073736613 ], [ -54.08806250671725, 2.105556545414629 ], [ -53.778520677288917, 2.376702785650082 ], [ -53.554839240113544, 2.334896551925951 ], [ -53.418465135295307, 2.053389187015981 ], [ -52.939657151894956, 2.124857692875636 ], [ -52.556424730018421, 2.504705308437053 ], [ -52.249337531123956, 3.241094468596245 ], [ -51.657797410678889, 4.156232408053029 ], [ -51.317146369010857, 4.203490505383954 ], [ -51.069771287629656, 3.650397650564031 ], [ -50.508875291533656, 1.901563828942457 ], [ -49.974075893745059, 1.736483465986069 ], [ -49.947100796088712, 1.046189683431223 ], [ -50.699251268096916, 0.222984117021682 ], [ -50.388210822132137, -0.078444512536819 ], [ -48.62056677915632, -0.235489190271821 ], [ -48.584496629416591, -1.237805271005001 ], [ -47.824956427590635, -0.5816179337628 ], [ -46.566583624851226, -0.941027520352776 ], [ -44.905703090990414, -1.551739597178134 ], [ -44.417619187993665, -2.137750339367976 ], [ -44.581588507655781, -2.691308282078524 ], [ -43.418791266440195, -2.383110039889793 ], [ -41.472656826328247, -2.912018324397116 ], [ -39.978665330554037, -2.873054294449041 ], [ -38.500383470196567, -3.700652357603396 ], [ -37.2232521225352, -4.820945733258917 ], [ -36.452937384576387, -5.109403578312154 ], [ -35.597795783010469, -5.149504489770649 ], [ -35.23538896334756, -5.464937432480247 ], [ -34.729993455533034, -7.343220716992967 ], [ -35.128212042774223, -8.996401462442286 ], [ -35.636966518687714, -9.649281508017815 ], [ -37.046518724096998, -11.040721123908803 ], [ -37.683611619607362, -12.171194756725823 ], [ -38.423876512188443, -13.038118584854288 ], [ -38.673887091616521, -13.057652276260619 ], [ -38.953275722802545, -13.793369642800023 ], [ -38.882298143049653, -15.667053724838768 ], [ -39.267339240056401, -17.867746270420483 ], [ -39.583521491034233, -18.262295830968938 ], [ -39.760823330227637, -19.599113457927409 ], [ -40.774740770010339, -20.904511814052423 ], [ -40.944756232250612, -21.937316989837811 ], [ -41.754164191238225, -22.370675551037458 ], [ -41.98828426773656, -22.970070489190896 ], [ -43.074703742024752, -22.967693373305469 ], [ -44.647811855637812, -23.351959323827842 ], [ -45.352135789559917, -23.796841729428582 ], [ -46.472093268405537, -24.088968601174543 ], [ -47.648972337420659, -24.885199069927722 ], [ -48.495458136577703, -25.877024834905654 ], [ -48.64100480812774, -26.623697605090932 ], [ -48.474735887228654, -27.175911960561891 ], [ -48.661520351747626, -28.18613453543572 ], [ -48.8884574041574, -28.674115085567884 ], [ -49.587329474472675, -29.224469089476337 ], [ -50.696874152211485, -30.98446502047296 ], [ -51.576226162306156, -31.777698256153212 ], [ -52.256081305538046, -32.24536996839467 ], [ -52.712099982297694, -33.196578057591182 ], [ -53.373661668498244, -33.768377780900764 ] ] ] } }
]
}
