{
"type": "FeatureCollection",
"name": "border_BG",
"crs": { "type": "name", "properties": { "name": "urn:ogc:def:crs:OGC:1.3:CRS84" } },
"features": [
{ "type": "Feature", "properties": { }, "geometry": { "type": "Polygon", "coordinates": [ [ [ 22.657149692482989, 44.234923000661283 ], [ 22.944832391051847, 43.82378530534713 ], [ 23.332302280376325, 43.897010809904714 ], [ 24.100679152124172, 43.741051337247853 ], [ 25.569271681426926, 43.688444729174719 ], [ 26.065158725699746, 43.943493760751267 ], [ 27.242399529740908, 44.175986029632405 ], [ 27.970107049275075, 43.812468166675217 ], [ 28.558081495891997, 43.707461656258133 ], [ 28.039095086384719, 43.293171698574184 ], [ 27.673897739378049, 42.577892361006221 ], [ 27.99672041190539, 42.007358710287789 ], [ 27.13573937349048, 42.141484890301342 ], [ 26.1170418637208, 41.826904608724561 ], [ 26.106138136507127, 41.328898830727837 ], [ 25.197201368925448, 41.23448598893053 ], [ 24.492644891057978, 41.58389618587205 ], [ 23.692073601992348, 41.309080918943856 ], [ 22.952377150166452, 41.337993882811148 ], [ 22.881373732197346, 41.999297186850356 ], [ 22.380525750424592, 42.320259507815088 ], [ 22.545011834409621, 42.46136200618804 ], [ 22.43659467946128, 42.580321153323936 ], [ 22.604801466571331, 42.898518785161144 ], [ 22.986018507588483, 43.211161200527101 ], [ 22.500156691180223, 43.642814439461006 ], [ 22.410446404721597, 44.008063462899955 ], [ 22.657149692482989, 44.234923000661283 ] ] ] } }
]
}
