{
"type": "FeatureCollection",
"name": "border_ET",
"crs": { "type": "name", "properties": { "name": "urn:ogc:def:crs:OGC:1.3:CRS84" } },
"features": [
{ "type": "Feature", "properties": { }, "geometry": { "type": "Polygon", "coordinates": [ [ [ 47.78942, 8.003 ], [ 44.9636, 5.00162 ], [ 43.66087, 4.95755 ], [ 42.76967, 4.25259 ], [ 42.12861, 4.23413 ], [ 41.855083092643973, 3.918911920483727 ], [ 41.1718, 3.91909 ], [ 40.76848, 4.25702 ], [ 39.85494, 3.83879 ], [ 39.559384258765853, 3.42206 ], [ 38.89251, 3.50074 ], [ 38.67114, 3.61607 ], [ 38.120915, 3.598605 ], [ 36.855093238008124, 4.447864127672769 ], [ 36.159078632855646, 4.447864127672769 ], [ 35.817447662353516, 4.77696566346189 ], [ 35.817447662353516, 5.338232082790797 ], [ 35.298007118232981, 5.506 ], [ 34.70702, 6.594220000000121 ], [ 34.25032, 6.82607 ], [ 34.0751, 7.22595 ], [ 33.568290000000104, 7.71334 ], [ 32.95418, 7.784970000000101 ], [ 33.294800000000123, 8.35458 ], [ 33.825500000000147, 8.37916 ], [ 33.97498, 8.68456 ], [ 33.96162, 9.58358 ], [ 34.25745, 10.63009 ], [ 34.731150000000127, 10.910170000000107 ], [ 34.831630000000132, 11.318960000000118 ], [ 35.26049, 12.08286 ], [ 35.86363, 12.57828 ], [ 36.27022, 13.563330000000121 ], [ 36.42951, 14.42211 ], [ 37.59377, 14.2131 ], [ 37.906070000000113, 14.959430000000168 ], [ 38.51295, 14.50547 ], [ 39.0994, 14.74064 ], [ 39.34061, 14.53155 ], [ 40.026250000000118, 14.51959 ], [ 40.8966, 14.118640000000141 ], [ 41.1552, 13.77333 ], [ 41.59856, 13.452090000000112 ], [ 42.00975, 12.86582 ], [ 42.35156000000012, 12.542230000000131 ], [ 41.661760000000129, 11.6312 ], [ 41.755570000000205, 11.050910000000101 ], [ 42.314140000000123, 11.0342 ], [ 42.554930000000127, 11.105110000000195 ], [ 42.776851841000962, 10.92687856693442 ], [ 42.55876, 10.57258000000013 ], [ 43.296990000000108, 9.540480000000173 ], [ 43.67875, 9.18358000000012 ], [ 46.94834, 7.99688 ], [ 47.78942, 8.003 ] ] ] } }
]
}
