{
"type": "FeatureCollection",
"name": "border_PL",
"crs": { "type": "name", "properties": { "name": "urn:ogc:def:crs:OGC:1.3:CRS84" } },
"features": [
{ "type": "Feature", "properties": { }, "geometry": { "type": "Polygon", "coordinates": [ [ [ 23.484127638449849, 53.912497667041137 ], [ 23.527535841575002, 53.470121568406555 ], [ 23.804934930117781, 53.089731350306074 ], [ 23.799198846133379, 52.691099351606567 ], [ 23.199493849386187, 52.486977444053672 ], [ 23.508002150168693, 52.023646552124731 ], [ 23.52707075368437, 51.578454087930311 ], [ 24.029985792748903, 50.705406602575181 ], [ 23.922757195743259, 50.424881089878738 ], [ 23.426508416444392, 50.308505764357449 ], [ 22.518450148211603, 49.476773586619743 ], [ 22.776418898212626, 49.027395331409622 ], [ 21.607808058364213, 49.470107326854091 ], [ 20.887955356538413, 49.32877228453583 ], [ 20.415839471119853, 49.431453355499769 ], [ 19.825022820726872, 49.217125352569226 ], [ 19.320712517990472, 49.571574001659194 ], [ 18.909574822676319, 49.435845852244576 ], [ 18.392913852622172, 49.988628648470751 ], [ 17.649445021238989, 50.049038397819956 ], [ 17.554567091551121, 50.362145901076417 ], [ 16.868769158605659, 50.47397370055603 ], [ 16.719475945714436, 50.215746568393541 ], [ 16.176253289462267, 50.422607326857907 ], [ 16.238626743238569, 50.697732652379841 ], [ 15.490972120839729, 50.784729926143207 ], [ 15.016995883858669, 51.10667409932158 ], [ 14.607098422919535, 51.745188096719971 ], [ 14.685026482815687, 52.089947414755201 ], [ 14.437599725002201, 52.62485016540839 ], [ 14.074521111719434, 52.981262518925348 ], [ 14.353315463934138, 53.248171291712971 ], [ 14.119686313542559, 53.75702912049104 ], [ 14.802900424873458, 54.050706285205749 ], [ 17.622831658608675, 54.851535956432912 ], [ 18.620858595461641, 54.682605699270781 ], [ 18.696254510175464, 54.43871877706929 ], [ 20.892244500418627, 54.312524929412533 ], [ 22.731098667092652, 54.327536932993326 ], [ 23.243987257589509, 54.220566718149144 ], [ 23.484127638449849, 53.912497667041137 ] ] ] } }
]
}
