{
"type": "FeatureCollection",
"name": "border_SE",
"crs": { "type": "name", "properties": { "name": "urn:ogc:def:crs:OGC:1.3:CRS84" } },
"features": [
{ "type": "Feature", "properties": { }, "geometry": { "type": "Polygon", "coordinates": [ [ [ 11.027368605196868, 58.856149400459358 ], [ 11.468271925511146, 59.432393296946039 ], [ 12.300365838274899, 60.117932847730032 ], [ 12.631146681375185, 61.293571682370136 ], [ 11.992064243221563, 61.80036245385655 ], [ 11.930569288794231, 63.128317572676977 ], [ 12.579935336973934, 64.066218980558332 ], [ 13.571916131248713, 64.04911408146971 ], [ 13.919905226302204, 64.44542064071608 ], [ 13.555689731509091, 64.787027696381514 ], [ 15.108411492583002, 66.193866889095474 ], [ 16.768878614985482, 68.013936672631402 ], [ 17.729181756265348, 68.010551866316277 ], [ 17.993868442464333, 68.567391262477358 ], [ 19.878559604581255, 68.407194322372575 ], [ 20.025268995857886, 69.065138658312705 ], [ 20.645592889089528, 69.106247260200874 ], [ 23.539473097434438, 67.93600861273525 ], [ 23.565879754335583, 66.396050930437426 ], [ 23.903378533633802, 66.006927395279618 ], [ 22.18317345550193, 65.723740546320172 ], [ 21.21351687997722, 65.026005357515274 ], [ 21.369631381930958, 64.413587958424287 ], [ 17.847779168375212, 62.74940013289681 ], [ 17.119554884518124, 61.341165676510968 ], [ 17.831346062906391, 60.636583360427409 ], [ 18.787721795332089, 60.081914374422595 ], [ 17.86922488777634, 58.953766181058697 ], [ 16.829185011470088, 58.719826972073392 ], [ 16.447709588291474, 57.041118069071885 ], [ 15.879785597403783, 56.104301866268663 ], [ 14.666681349352075, 56.200885118222175 ], [ 14.100721062891465, 55.407781073622651 ], [ 12.942910597392057, 55.361737372450577 ], [ 12.625100538797028, 56.30708018658197 ], [ 11.787942335668674, 57.441817125063068 ], [ 11.027368605196868, 58.856149400459358 ] ] ] } }
]
}
