{
"type": "FeatureCollection",
"name": "border_FI",
"crs": { "type": "name", "properties": { "name": "urn:ogc:def:crs:OGC:1.3:CRS84" } },
"features": [
{ "type": "Feature", "properties": { }, "geometry": { "type": "Polygon", "coordinates": [ [ [ 28.591929559043194, 69.064776923286658 ], [ 28.445943637818658, 68.364612942164044 ], [ 29.97742638522061, 67.698297024192755 ], [ 29.054588657352326, 66.944286200622059 ], [ 30.21765, 65.80598 ], [ 29.544429559046989, 64.948671576590485 ], [ 30.444684686003711, 64.20445343693909 ], [ 30.035872430142717, 63.552813625738551 ], [ 31.516092156711125, 62.867687486412891 ], [ 31.139991082490894, 62.357692776124409 ], [ 28.069997592895277, 60.503516547275837 ], [ 26.255172967236973, 60.423960679762502 ], [ 24.496623976344523, 60.057316392651657 ], [ 22.869694858499457, 59.846373196036225 ], [ 22.290763787533592, 60.391921291741539 ], [ 21.322244093519316, 60.720169989659524 ], [ 21.544866163832694, 61.705329494871791 ], [ 21.059211053153689, 62.60739329695874 ], [ 21.536029493910803, 63.18973501245587 ], [ 22.442744174903993, 63.817810370531291 ], [ 24.730511508897536, 64.902343655040838 ], [ 25.398067661243942, 65.111426500093742 ], [ 25.294043003040404, 65.534346421970454 ], [ 23.903378533633802, 66.006927395279618 ], [ 23.565879754335583, 66.396050930437426 ], [ 23.539473097434438, 67.93600861273525 ], [ 20.645592889089528, 69.106247260200874 ], [ 21.244936150810673, 69.370443020293081 ], [ 22.356237827247412, 68.841741441514912 ], [ 23.662049594830759, 68.891247463650544 ], [ 24.735679152126725, 68.64955678982146 ], [ 25.689212680776365, 69.092113755969038 ], [ 26.179622023226244, 69.825298977326142 ], [ 27.732292107867863, 70.164193020296253 ], [ 29.015572950971972, 69.766491197377988 ], [ 28.591929559043194, 69.064776923286658 ] ] ] } }
]
}
