{
"type": "FeatureCollection",
"name": "border_NL",
"crs": { "type": "name", "properties": { "name": "urn:ogc:def:crs:OGC:1.3:CRS84" } },
"features": [
{ "type": "Feature", "properties": { }, "geometry": { "type": "Polygon", "coordinates": [ [ [ 6.905139601274129, 53.482162177130647 ], [ 7.092053256873896, 53.144043280644894 ], [ 6.842869500362383, 52.228440253297549 ], [ 6.589396599970826, 51.852029120483394 ], [ 5.988658074577813, 51.851615709025054 ], [ 6.15665815595878, 50.803721015010581 ], [ 5.606975945670001, 51.037298488969782 ], [ 4.973991326526914, 51.475023708698131 ], [ 4.047071160507528, 51.26725861266857 ], [ 3.314971144228537, 51.34575511331991 ], [ 3.830288527043137, 51.620544542031951 ], [ 4.705997348661185, 53.091798407597764 ], [ 6.074182570020923, 53.510403347378144 ], [ 6.905139601274129, 53.482162177130647 ] ] ] } }
]
}
