{
"type": "FeatureCollection",
"name": "regions_NL",
"crs": { "type": "name", "properties": { "name": "urn:ogc:def:crs:OGC:1.3:CRS84" } },
"features": [
{ "type": "Feature", "properties": { "loc": "NL11" }, "geometry": { "type": "MultiPolygon", "coordinates": [ [ [ [ 6.874905, 53.408013 ], [ 6.901237, 53.353245 ], [ 6.937366, 53.326586 ], [ 7.030608, 53.303338 ], [ 7.085845, 53.301676 ], [ 7.08119, 53.271635 ], [ 7.092713, 53.257017 ], [ 7.194789, 53.239055 ], [ 7.208935, 53.243064 ], [ 7.216179, 53.182589 ], [ 7.194974, 53.16617 ], [ 7.181195, 53.135526 ], [ 7.186325, 53.121833 ], [ 7.202795, 53.113281 ], [ 7.200165, 53.077611 ], [ 7.213542, 53.005804 ], [ 7.180638, 52.941324 ], [ 7.091835, 52.853011 ], [ 7.092692, 52.838201 ], [ 7.07661, 52.839721 ], [ 7.039638, 52.870142 ], [ 7.018609, 52.87439 ], [ 7.042162, 52.914667 ], [ 7.012211, 52.928057 ], [ 6.935702, 52.993362 ], [ 6.81381, 53.071048 ], [ 6.73586, 53.118468 ], [ 6.69305, 53.120422 ], [ 6.638109, 53.109965 ], [ 6.526531, 53.194996 ], [ 6.483767, 53.202408 ], [ 6.410035, 53.177221 ], [ 6.383858, 53.153134 ], [ 6.346568, 53.092152 ], [ 6.296395, 53.098427 ], [ 6.262942, 53.113939 ], [ 6.205481, 53.115774 ], [ 6.175689, 53.135093 ], [ 6.176817, 53.15945 ], [ 6.19731, 53.193681 ], [ 6.226056, 53.215391 ], [ 6.21872, 53.239113 ], [ 6.25233, 53.270771 ], [ 6.256712, 53.286834 ], [ 6.285171, 53.307571 ], [ 6.282692, 53.341381 ], [ 6.23519, 53.345172 ], [ 6.175024, 53.369826 ], [ 6.16993, 53.390296 ], [ 6.191302, 53.410938 ], [ 6.255158, 53.414569 ], [ 6.309488, 53.398229 ], [ 6.367714, 53.415065 ], [ 6.749851, 53.465237 ], [ 6.821378, 53.460577 ], [ 6.833389, 53.445586 ], [ 6.850087, 53.453377 ], [ 6.866449, 53.449263 ], [ 6.880497, 53.437664 ], [ 6.874905, 53.408013 ] ] ], [ [ [ 6.602947, 53.526384 ], [ 6.59851, 53.516608 ], [ 6.579877, 53.52525 ], [ 6.584658, 53.52986 ], [ 6.572527, 53.539709 ], [ 6.592532, 53.544075 ], [ 6.587398, 53.530026 ], [ 6.602947, 53.526384 ] ] ], [ [ [ 6.487282, 53.532744 ], [ 6.474804, 53.517775 ], [ 6.4582, 53.539945 ], [ 6.48733, 53.555864 ], [ 6.512791, 53.537312 ], [ 6.487282, 53.532744 ] ] ] ] } },
{ "type": "Feature", "properties": { "loc": "NL12" }, "geometry": { "type": "MultiPolygon", "coordinates": [ [ [ [ 6.315237, 53.094051 ], [ 6.310045, 53.08086 ], [ 6.364764, 53.06629 ], [ 6.365637, 53.0322 ], [ 6.42424, 52.973507 ], [ 6.396035, 52.936123 ], [ 6.332446, 52.909108 ], [ 6.297424, 52.924903 ], [ 6.254799, 52.925641 ], [ 6.203833, 52.890013 ], [ 6.059046, 52.837013 ], [ 6.05507, 52.827098 ], [ 6.029972, 52.818019 ], [ 5.997081, 52.819572 ], [ 5.967759, 52.839576 ], [ 5.931695, 52.833793 ], [ 5.880141, 52.802521 ], [ 5.819827, 52.817317 ], [ 5.789703, 52.804546 ], [ 5.783678, 52.817729 ], [ 5.750123, 52.838832 ], [ 5.726278, 52.843651 ], [ 5.727868, 52.834825 ], [ 5.660803, 52.831011 ], [ 5.631353, 52.803055 ], [ 5.377262, 52.764805 ], [ 5.238683, 52.874061 ], [ 5.164384, 53.00091 ], [ 5.293898, 53.069414 ], [ 5.343102, 53.077496 ], [ 5.371063, 53.093123 ], [ 5.37911, 53.108289 ], [ 5.403816, 53.122012 ], [ 5.412607, 53.174446 ], [ 5.44554, 53.217696 ], [ 5.530058, 53.260448 ], [ 5.589813, 53.301415 ], [ 5.891018, 53.387663 ], [ 6.029325, 53.404537 ], [ 6.191302, 53.410938 ], [ 6.16993, 53.390296 ], [ 6.175024, 53.369826 ], [ 6.23519, 53.345172 ], [ 6.282692, 53.341381 ], [ 6.285171, 53.307571 ], [ 6.256712, 53.286834 ], [ 6.25233, 53.270771 ], [ 6.21872, 53.239113 ], [ 6.226056, 53.215391 ], [ 6.19731, 53.193681 ], [ 6.176817, 53.15945 ], [ 6.175689, 53.135093 ], [ 6.205481, 53.115774 ], [ 6.262942, 53.113939 ], [ 6.315237, 53.094051 ] ] ], [ [ [ 6.163585, 53.470922 ], [ 6.148844, 53.462534 ], [ 6.132959, 53.47219 ], [ 6.137333, 53.487333 ], [ 6.16146, 53.501004 ], [ 6.361982, 53.513057 ], [ 6.362833, 53.507756 ], [ 6.252131, 53.478482 ], [ 6.163585, 53.470922 ] ] ], [ [ [ 5.750963, 53.460604 ], [ 5.934186, 53.468355 ], [ 5.961156, 53.467739 ], [ 5.962102, 53.461154 ], [ 5.806221, 53.437913 ], [ 5.727112, 53.442173 ], [ 5.681283, 53.424968 ], [ 5.647296, 53.425168 ], [ 5.618487, 53.437325 ], [ 5.613031, 53.448114 ], [ 5.65819, 53.471315 ], [ 5.750963, 53.460604 ] ] ], [ [ [ 5.226628, 53.364985 ], [ 5.191711, 53.349818 ], [ 5.15679, 53.35744 ], [ 5.179537, 53.382904 ], [ 5.204487, 53.39624 ], [ 5.514784, 53.444447 ], [ 5.543961, 53.44105 ], [ 5.541023, 53.432761 ], [ 5.478027, 53.418063 ], [ 5.464998, 53.405998 ], [ 5.386552, 53.401189 ], [ 5.332002, 53.3792 ], [ 5.226628, 53.364985 ] ] ], [ [ [ 5.264018, 53.255363 ], [ 5.263726, 53.248191 ], [ 5.240486, 53.251763 ], [ 5.249813, 53.258901 ], [ 5.264018, 53.255363 ] ] ], [ [ [ 4.922477, 53.217454 ], [ 4.849613, 53.211049 ], [ 4.856313, 53.223103 ], [ 5.030254, 53.300044 ], [ 5.081871, 53.304473 ], [ 5.082194, 53.299239 ], [ 4.982021, 53.268209 ], [ 4.965887, 53.241786 ], [ 4.922477, 53.217454 ] ] ] ] } },
{ "type": "Feature", "properties": { "loc": "NL13" }, "geometry": { "type": "Polygon", "coordinates": [ [ [ 6.73586, 53.118468 ], [ 6.935702, 52.993362 ], [ 7.012211, 52.928057 ], [ 7.042162, 52.914667 ], [ 7.018609, 52.87439 ], [ 7.039638, 52.870142 ], [ 7.07661, 52.839721 ], [ 7.092692, 52.838201 ], [ 7.072045, 52.810874 ], [ 7.054921, 52.643612 ], [ 7.040483, 52.632918 ], [ 6.978375, 52.644591 ], [ 6.929123, 52.639071 ], [ 6.880648, 52.652149 ], [ 6.786786, 52.651798 ], [ 6.746513, 52.645141 ], [ 6.709733, 52.627823 ], [ 6.701838, 52.649415 ], [ 6.62943, 52.669658 ], [ 6.546988, 52.662537 ], [ 6.516741, 52.645129 ], [ 6.512765, 52.615816 ], [ 6.470715, 52.62224 ], [ 6.447107, 52.617307 ], [ 6.428781, 52.625081 ], [ 6.386751, 52.614509 ], [ 6.362252, 52.64275 ], [ 6.3217, 52.668233 ], [ 6.266645, 52.666708 ], [ 6.21589, 52.68521 ], [ 6.170795, 52.678648 ], [ 6.123394, 52.750978 ], [ 6.161853, 52.766729 ], [ 6.197398, 52.7946 ], [ 6.119814, 52.854267 ], [ 6.203833, 52.890013 ], [ 6.254799, 52.925641 ], [ 6.297424, 52.924903 ], [ 6.332446, 52.909108 ], [ 6.369053, 52.921973 ], [ 6.396035, 52.936123 ], [ 6.42424, 52.973507 ], [ 6.365637, 53.0322 ], [ 6.364764, 53.06629 ], [ 6.310045, 53.08086 ], [ 6.315237, 53.094051 ], [ 6.346568, 53.092152 ], [ 6.383858, 53.153134 ], [ 6.410035, 53.177221 ], [ 6.483767, 53.202408 ], [ 6.526531, 53.194996 ], [ 6.638109, 53.109965 ], [ 6.69305, 53.120422 ], [ 6.73586, 53.118468 ] ] ] } },
{ "type": "Feature", "properties": { "loc": "NL21" }, "geometry": { "type": "Polygon", "coordinates": [ [ [ 6.62943, 52.669658 ], [ 6.701838, 52.649415 ], [ 6.722598, 52.61369 ], [ 6.725059, 52.588746 ], [ 6.750733, 52.566962 ], [ 6.692281, 52.54862 ], [ 6.702138, 52.517954 ], [ 6.697866, 52.486286 ], [ 6.761609, 52.462307 ], [ 6.847305, 52.459334 ], [ 6.937032, 52.4368 ], [ 6.958686, 52.442851 ], [ 6.978934, 52.463947 ], [ 6.992838, 52.463205 ], [ 7.012057, 52.430047 ], [ 7.036205, 52.404864 ], [ 7.058432, 52.39658 ], [ 7.070613, 52.375315 ], [ 7.070339, 52.353084 ], [ 7.027644, 52.285998 ], [ 7.039093, 52.261185 ], [ 7.065685, 52.241373 ], [ 7.033796, 52.227856 ], [ 6.986713, 52.223819 ], [ 6.950728, 52.183101 ], [ 6.912916, 52.175988 ], [ 6.885196, 52.157959 ], [ 6.85734, 52.122368 ], [ 6.760465, 52.118569 ], [ 6.669318, 52.129348 ], [ 6.671636, 52.161184 ], [ 6.650888, 52.171696 ], [ 6.614539, 52.166151 ], [ 6.58911, 52.180332 ], [ 6.489783, 52.179793 ], [ 6.416266, 52.240196 ], [ 6.381998, 52.246086 ], [ 6.326416, 52.227023 ], [ 6.149598, 52.229071 ], [ 6.148357, 52.245889 ], [ 6.128422, 52.252998 ], [ 6.102586, 52.297277 ], [ 6.070065, 52.320911 ], [ 6.07737, 52.348016 ], [ 6.089772, 52.357036 ], [ 6.081553, 52.368511 ], [ 6.117295, 52.379403 ], [ 6.127065, 52.390715 ], [ 6.113837, 52.410379 ], [ 6.116762, 52.431504 ], [ 6.096361, 52.471274 ], [ 6.038116, 52.506566 ], [ 6.007482, 52.502446 ], [ 5.967654, 52.479663 ], [ 5.928612, 52.476755 ], [ 5.8859, 52.516857 ], [ 5.864311, 52.518169 ], [ 5.848622, 52.554726 ], [ 5.814113, 52.577018 ], [ 5.780718, 52.58329 ], [ 5.780381, 52.60559 ], [ 5.929515, 52.614969 ], [ 5.99329, 52.631275 ], [ 6.013685, 52.644151 ], [ 5.93726, 52.671574 ], [ 5.961661, 52.696632 ], [ 5.91653, 52.754261 ], [ 5.854997, 52.78223 ], [ 5.820009, 52.786574 ], [ 5.795149, 52.806499 ], [ 5.819827, 52.817317 ], [ 5.880141, 52.802521 ], [ 5.931695, 52.833793 ], [ 5.967759, 52.839576 ], [ 5.997081, 52.819572 ], [ 6.029972, 52.818019 ], [ 6.05507, 52.827098 ], [ 6.059046, 52.837013 ], [ 6.119814, 52.854267 ], [ 6.197398, 52.7946 ], [ 6.161853, 52.766729 ], [ 6.123394, 52.750978 ], [ 6.170795, 52.678648 ], [ 6.21589, 52.68521 ], [ 6.266645, 52.666708 ], [ 6.3217, 52.668233 ], [ 6.362252, 52.64275 ], [ 6.386751, 52.614509 ], [ 6.428781, 52.625081 ], [ 6.447107, 52.617307 ], [ 6.470715, 52.62224 ], [ 6.512765, 52.615816 ], [ 6.516741, 52.645129 ], [ 6.546988, 52.662537 ], [ 6.62943, 52.669658 ] ] ] } },
{ "type": "Feature", "properties": { "loc": "NL22" }, "geometry": { "type": "Polygon", "coordinates": [ [ [ 6.096361, 52.471274 ], [ 6.116762, 52.431504 ], [ 6.113837, 52.410379 ], [ 6.127065, 52.390715 ], [ 6.117295, 52.379403 ], [ 6.081553, 52.368511 ], [ 6.089772, 52.357036 ], [ 6.07737, 52.348016 ], [ 6.070065, 52.320911 ], [ 6.102586, 52.297277 ], [ 6.128422, 52.252998 ], [ 6.148357, 52.245889 ], [ 6.149598, 52.229071 ], [ 6.326416, 52.227023 ], [ 6.381998, 52.246086 ], [ 6.416266, 52.240196 ], [ 6.489783, 52.179793 ], [ 6.58911, 52.180332 ], [ 6.614539, 52.166151 ], [ 6.650888, 52.171696 ], [ 6.671636, 52.161184 ], [ 6.669318, 52.129348 ], [ 6.760465, 52.118569 ], [ 6.744485, 52.081267 ], [ 6.697735, 52.068833 ], [ 6.687589, 52.048335 ], [ 6.692593, 52.040517 ], [ 6.753001, 52.027859 ], [ 6.82676, 51.98966 ], [ 6.828212, 51.967533 ], [ 6.801656, 51.95749 ], [ 6.778071, 51.923106 ], [ 6.722748, 51.898226 ], [ 6.676138, 51.915138 ], [ 6.471419, 51.85668 ], [ 6.394737, 51.87127 ], [ 6.390297, 51.864408 ], [ 6.405322, 51.852194 ], [ 6.40778, 51.828092 ], [ 6.369015, 51.835122 ], [ 6.348907, 51.849312 ], [ 6.308917, 51.851588 ], [ 6.280804, 51.872393 ], [ 6.207381, 51.870649 ], [ 6.167766, 51.900804 ], [ 6.129437, 51.891285 ], [ 6.157665, 51.861773 ], [ 6.156159, 51.846326 ], [ 6.065897, 51.860078 ], [ 6.009698, 51.837215 ], [ 5.961122, 51.828724 ], [ 5.957221, 51.814427 ], [ 5.980768, 51.773607 ], [ 5.939406, 51.743768 ], [ 5.889702, 51.776692 ], [ 5.870229, 51.773229 ], [ 5.865159, 51.757408 ], [ 5.755501, 51.75661 ], [ 5.660842, 51.797269 ], [ 5.637053, 51.81776 ], [ 5.59788, 51.828083 ], [ 5.534782, 51.817324 ], [ 5.491272, 51.829434 ], [ 5.469773, 51.813567 ], [ 5.447101, 51.810191 ], [ 5.404117, 51.820324 ], [ 5.368918, 51.7882 ], [ 5.353843, 51.75774 ], [ 5.300226, 51.73854 ], [ 5.128058, 51.73761 ], [ 5.138822, 51.754749 ], [ 5.134166, 51.772217 ], [ 5.100128, 51.785459 ], [ 5.067946, 51.781962 ], [ 5.000534, 51.820938 ], [ 5.024211, 51.820574 ], [ 5.029276, 51.834876 ], [ 5.001984, 51.846253 ], [ 4.998458, 51.858663 ], [ 5.051759, 51.859982 ], [ 5.057772, 51.872307 ], [ 5.113942, 51.891815 ], [ 5.178336, 51.964363 ], [ 5.209731, 51.961332 ], [ 5.236508, 51.976552 ], [ 5.323719, 51.956113 ], [ 5.355911, 51.969297 ], [ 5.439576, 51.983429 ], [ 5.487885, 51.98244 ], [ 5.606012, 51.943248 ], [ 5.622195, 51.956016 ], [ 5.621714, 51.972495 ], [ 5.592323, 52.005358 ], [ 5.584406, 52.033301 ], [ 5.562032, 52.052147 ], [ 5.551422, 52.097125 ], [ 5.541253, 52.10014 ], [ 5.525208, 52.0824 ], [ 5.503597, 52.074802 ], [ 5.472199, 52.080167 ], [ 5.506278, 52.136269 ], [ 5.475623, 52.161861 ], [ 5.446207, 52.17238 ], [ 5.43432, 52.204091 ], [ 5.400544, 52.220071 ], [ 5.404633, 52.24963 ], [ 5.531136, 52.273354 ], [ 5.58638, 52.359133 ], [ 5.657323, 52.368643 ], [ 5.798394, 52.429081 ], [ 5.8181, 52.446241 ], [ 5.825521, 52.466495 ], [ 5.84208, 52.476346 ], [ 5.864311, 52.518169 ], [ 5.8859, 52.516857 ], [ 5.928612, 52.476755 ], [ 5.967654, 52.479663 ], [ 6.007482, 52.502446 ], [ 6.038116, 52.506566 ], [ 6.096361, 52.471274 ] ] ] } },
{ "type": "Feature", "properties": { "loc": "NL23" }, "geometry": { "type": "Polygon", "coordinates": [ [ [ 5.750123, 52.838832 ], [ 5.820009, 52.786574 ], [ 5.854997, 52.78223 ], [ 5.91653, 52.754261 ], [ 5.961661, 52.696632 ], [ 5.93726, 52.671574 ], [ 6.013685, 52.644151 ], [ 5.99329, 52.631275 ], [ 5.929515, 52.614969 ], [ 5.780381, 52.60559 ], [ 5.780718, 52.58329 ], [ 5.814113, 52.577018 ], [ 5.848622, 52.554726 ], [ 5.864311, 52.518169 ], [ 5.84208, 52.476346 ], [ 5.825521, 52.466495 ], [ 5.8181, 52.446241 ], [ 5.798394, 52.429081 ], [ 5.657323, 52.368643 ], [ 5.58638, 52.359133 ], [ 5.531136, 52.273354 ], [ 5.404633, 52.24963 ], [ 5.269332, 52.318645 ], [ 5.223178, 52.325244 ], [ 5.14675, 52.320605 ], [ 5.083748, 52.367513 ], [ 5.079161, 52.388653 ], [ 5.13733, 52.415554 ], [ 5.184658, 52.41644 ], [ 5.150841, 52.466508 ], [ 5.10072, 52.508041 ], [ 5.060427, 52.578937 ], [ 5.257186, 52.64447 ], [ 5.262266, 52.67683 ], [ 5.28848, 52.691512 ], [ 5.361148, 52.675728 ], [ 5.377262, 52.764805 ], [ 5.631353, 52.803055 ], [ 5.660803, 52.831011 ], [ 5.727868, 52.834825 ], [ 5.726278, 52.843651 ], [ 5.750123, 52.838832 ] ] ] } },
{ "type": "Feature", "properties": { "loc": "NL31" }, "geometry": { "type": "Polygon", "coordinates": [ [ [ 5.021538, 52.302498 ], [ 5.025234, 52.288154 ], [ 5.039149, 52.281102 ], [ 5.029978, 52.267195 ], [ 5.050415, 52.238027 ], [ 5.036818, 52.19007 ], [ 5.05772, 52.169883 ], [ 5.188893, 52.180927 ], [ 5.263379, 52.275744 ], [ 5.335462, 52.290218 ], [ 5.404633, 52.24963 ], [ 5.400544, 52.220071 ], [ 5.43432, 52.204091 ], [ 5.446207, 52.17238 ], [ 5.475623, 52.161861 ], [ 5.506278, 52.136269 ], [ 5.472199, 52.080167 ], [ 5.503597, 52.074802 ], [ 5.525208, 52.0824 ], [ 5.541253, 52.10014 ], [ 5.551422, 52.097125 ], [ 5.562032, 52.052147 ], [ 5.584406, 52.033301 ], [ 5.592323, 52.005358 ], [ 5.621714, 51.972495 ], [ 5.622195, 51.956016 ], [ 5.606012, 51.943248 ], [ 5.487885, 51.98244 ], [ 5.439576, 51.983429 ], [ 5.355911, 51.969297 ], [ 5.323719, 51.956113 ], [ 5.236508, 51.976552 ], [ 5.209731, 51.961332 ], [ 5.178336, 51.964363 ], [ 5.149456, 51.933452 ], [ 5.06149, 51.954566 ], [ 5.05807, 51.971102 ], [ 5.044611, 51.976635 ], [ 5.026513, 51.970134 ], [ 4.995948, 51.975724 ], [ 4.969948, 51.961892 ], [ 4.938871, 51.9612 ], [ 4.913292, 51.943266 ], [ 4.8779, 51.937835 ], [ 4.829538, 51.993139 ], [ 4.8492, 52.010726 ], [ 4.80561, 52.020093 ], [ 4.854539, 52.064382 ], [ 4.832167, 52.073234 ], [ 4.822603, 52.102819 ], [ 4.80415, 52.122641 ], [ 4.823218, 52.140262 ], [ 4.868364, 52.14162 ], [ 4.879743, 52.162648 ], [ 4.808577, 52.202476 ], [ 4.794524, 52.226726 ], [ 4.832781, 52.232412 ], [ 4.870502, 52.251951 ], [ 4.907466, 52.253252 ], [ 4.930578, 52.278153 ], [ 4.964706, 52.280268 ], [ 5.021538, 52.302498 ] ] ] } },
{ "type": "Feature", "properties": { "loc": "NL32" }, "geometry": { "type": "MultiPolygon", "coordinates": [ [ [ [ 5.377262, 52.764805 ], [ 5.361148, 52.675728 ], [ 5.28848, 52.691512 ], [ 5.262266, 52.67683 ], [ 5.257186, 52.64447 ], [ 5.060427, 52.578937 ], [ 5.10072, 52.508041 ], [ 5.150841, 52.466508 ], [ 5.184658, 52.41644 ], [ 5.13733, 52.415554 ], [ 5.079161, 52.388653 ], [ 5.083748, 52.367513 ], [ 5.14675, 52.320605 ], [ 5.223178, 52.325244 ], [ 5.269332, 52.318645 ], [ 5.335462, 52.290218 ], [ 5.263379, 52.275744 ], [ 5.188893, 52.180927 ], [ 5.05772, 52.169883 ], [ 5.036818, 52.19007 ], [ 5.050415, 52.238027 ], [ 5.029978, 52.267195 ], [ 5.039149, 52.281102 ], [ 5.025234, 52.288154 ], [ 5.021538, 52.302498 ], [ 4.964706, 52.280268 ], [ 4.930578, 52.278153 ], [ 4.907466, 52.253252 ], [ 4.870502, 52.251951 ], [ 4.832781, 52.232412 ], [ 4.779626, 52.228196 ], [ 4.734974, 52.207399 ], [ 4.712263, 52.232751 ], [ 4.623797, 52.215714 ], [ 4.556053, 52.222188 ], [ 4.571046, 52.268271 ], [ 4.611684, 52.313587 ], [ 4.55784, 52.311171 ], [ 4.493848, 52.32826 ], [ 4.560597, 52.437426 ], [ 4.560516, 52.456789 ], [ 4.584387, 52.468569 ], [ 4.576871, 52.482449 ], [ 4.609677, 52.573401 ], [ 4.649071, 52.756177 ], [ 4.706915, 52.877551 ], [ 4.717276, 52.944546 ], [ 4.732815, 52.960612 ], [ 4.799668, 52.959885 ], [ 4.794332, 52.935375 ], [ 4.808696, 52.916284 ], [ 4.881797, 52.891085 ], [ 4.937314, 52.904748 ], [ 4.972089, 52.930482 ], [ 5.041971, 52.936113 ], [ 5.164384, 53.00091 ], [ 5.238683, 52.874061 ], [ 5.377262, 52.764805 ] ] ], [ [ [ 4.81931, 53.029422 ], [ 4.784567, 53.00172 ], [ 4.767983, 53.004924 ], [ 4.755605, 52.992009 ], [ 4.720933, 52.984513 ], [ 4.708824, 53.022462 ], [ 4.720143, 53.061045 ], [ 4.751487, 53.098894 ], [ 4.785068, 53.130603 ], [ 4.803113, 53.137444 ], [ 4.799576, 53.143131 ], [ 4.84113, 53.182889 ], [ 4.860853, 53.182885 ], [ 4.908284, 53.134767 ], [ 4.900017, 53.124258 ], [ 4.900873, 53.087988 ], [ 4.896682, 53.077503 ], [ 4.873125, 53.064865 ], [ 4.861246, 53.042488 ], [ 4.81931, 53.029422 ] ] ] ] } },
{ "type": "Feature", "properties": { "loc": "NL33" }, "geometry": { "type": "Polygon", "coordinates": [ [ [ 4.493848, 52.32826 ], [ 4.55784, 52.311171 ], [ 4.611684, 52.313587 ], [ 4.571046, 52.268271 ], [ 4.556053, 52.222188 ], [ 4.623797, 52.215714 ], [ 4.712263, 52.232751 ], [ 4.734974, 52.207399 ], [ 4.779626, 52.228196 ], [ 4.794524, 52.226726 ], [ 4.808577, 52.202476 ], [ 4.879743, 52.162648 ], [ 4.868364, 52.14162 ], [ 4.823218, 52.140262 ], [ 4.80415, 52.122641 ], [ 4.822603, 52.102819 ], [ 4.832167, 52.073234 ], [ 4.854539, 52.064382 ], [ 4.80561, 52.020093 ], [ 4.8492, 52.010726 ], [ 4.829538, 51.993139 ], [ 4.8779, 51.937835 ], [ 4.913292, 51.943266 ], [ 4.938871, 51.9612 ], [ 4.969948, 51.961892 ], [ 4.995948, 51.975724 ], [ 5.026513, 51.970134 ], [ 5.044611, 51.976635 ], [ 5.05807, 51.971102 ], [ 5.06149, 51.954566 ], [ 5.149456, 51.933452 ], [ 5.113942, 51.891815 ], [ 5.057772, 51.872307 ], [ 5.051759, 51.859982 ], [ 4.998458, 51.858663 ], [ 5.001984, 51.846253 ], [ 5.029276, 51.834876 ], [ 5.024211, 51.820574 ], [ 4.918484, 51.826612 ], [ 4.855496, 51.802229 ], [ 4.784593, 51.796094 ], [ 4.757764, 51.782271 ], [ 4.727816, 51.750157 ], [ 4.676295, 51.724918 ], [ 4.522453, 51.693325 ], [ 4.423817, 51.708016 ], [ 4.350051, 51.659035 ], [ 4.28152, 51.645057 ], [ 4.242536, 51.647121 ], [ 4.15137, 51.684374 ], [ 4.050341, 51.695195 ], [ 4.007532, 51.75935 ], [ 3.941962, 51.7733 ], [ 3.880431, 51.748833 ], [ 3.839083, 51.758297 ], [ 3.862049, 51.776277 ], [ 3.858451, 51.805447 ], [ 3.870908, 51.817999 ], [ 4.001444, 51.848623 ], [ 4.035512, 51.82813 ], [ 4.064058, 51.845103 ], [ 4.034836, 51.885358 ], [ 4.050523, 51.916507 ], [ 3.984899, 51.924055 ], [ 3.963304, 51.957999 ], [ 3.973592, 51.975805 ], [ 4.002605, 51.987311 ], [ 4.072429, 51.978255 ], [ 4.127789, 52.000542 ], [ 4.374233, 52.18709 ], [ 4.493848, 52.32826 ] ] ] } },
{ "type": "Feature", "properties": { "loc": "NL34" }, "geometry": { "type": "MultiPolygon", "coordinates": [ [ [ [ 4.242536, 51.647121 ], [ 4.234993, 51.634705 ], [ 4.199842, 51.618869 ], [ 4.192316, 51.602476 ], [ 4.234069, 51.551934 ], [ 4.220722, 51.504699 ], [ 4.271536, 51.42973 ], [ 4.268206, 51.389958 ], [ 4.279565, 51.376017 ], [ 4.24367, 51.374729 ], [ 4.206981, 51.398075 ], [ 4.144376, 51.398156 ], [ 4.080802, 51.409594 ], [ 3.970067, 51.455373 ], [ 3.929719, 51.443243 ], [ 3.890144, 51.398391 ], [ 3.812241, 51.390436 ], [ 3.727322, 51.419276 ], [ 3.678845, 51.454762 ], [ 3.625236, 51.443667 ], [ 3.566544, 51.446941 ], [ 3.447391, 51.524946 ], [ 3.460724, 51.549486 ], [ 3.571673, 51.590509 ], [ 3.835291, 51.601773 ], [ 3.879063, 51.579161 ], [ 3.889717, 51.54548 ], [ 4.02495, 51.511023 ], [ 4.108193, 51.443668 ], [ 4.146425, 51.435334 ], [ 4.213333, 51.446441 ], [ 4.210379, 51.484975 ], [ 4.177905, 51.509295 ], [ 4.074991, 51.531625 ], [ 3.996395, 51.581744 ], [ 4.007921, 51.594818 ], [ 4.058168, 51.608059 ], [ 4.132125, 51.608034 ], [ 4.112385, 51.635747 ], [ 4.125791, 51.647587 ], [ 4.15646, 51.651002 ], [ 4.146037, 51.668218 ], [ 4.109741, 51.666028 ], [ 4.057617, 51.631977 ], [ 3.976411, 51.61808 ], [ 3.901612, 51.635655 ], [ 3.866585, 51.668325 ], [ 3.820878, 51.688679 ], [ 3.724966, 51.669804 ], [ 3.701125, 51.675684 ], [ 3.68808, 51.689296 ], [ 3.68959, 51.710903 ], [ 3.711118, 51.728601 ], [ 3.803238, 51.741675 ], [ 3.839083, 51.758297 ], [ 3.880431, 51.748833 ], [ 3.941962, 51.7733 ], [ 4.007532, 51.75935 ], [ 4.050341, 51.695195 ], [ 4.15137, 51.684374 ], [ 4.242536, 51.647121 ] ] ], [ [ [ 4.234818, 51.348254 ], [ 4.159673, 51.290062 ], [ 4.061566, 51.245616 ], [ 4.006679, 51.24173 ], [ 3.945685, 51.214098 ], [ 3.925269, 51.21713 ], [ 3.893161, 51.202758 ], [ 3.882508, 51.206033 ], [ 3.886016, 51.22019 ], [ 3.85634, 51.211056 ], [ 3.793982, 51.215133 ], [ 3.791648, 51.253843 ], [ 3.783784, 51.259938 ], [ 3.593884, 51.303257 ], [ 3.579156, 51.290221 ], [ 3.519479, 51.28564 ], [ 3.524928, 51.251993 ], [ 3.519237, 51.246263 ], [ 3.437184, 51.243748 ], [ 3.380661, 51.274299 ], [ 3.362843, 51.314634 ], [ 3.381907, 51.336074 ], [ 3.365788, 51.369835 ], [ 3.418022, 51.388147 ], [ 3.523211, 51.406846 ], [ 3.682206, 51.371058 ], [ 3.763156, 51.340216 ], [ 3.782007, 51.348866 ], [ 3.813602, 51.335998 ], [ 3.855865, 51.336373 ], [ 3.954164, 51.369217 ], [ 3.969892, 51.39845 ], [ 3.987094, 51.4044 ], [ 4.019835, 51.397167 ], [ 4.051377, 51.36923 ], [ 4.123592, 51.347104 ], [ 4.124291, 51.360427 ], [ 4.160598, 51.348576 ], [ 4.158713, 51.366764 ], [ 4.194693, 51.373678 ], [ 4.234818, 51.348254 ] ] ], [ [ [ 3.714595, 51.636685 ], [ 3.686841, 51.616551 ], [ 3.679493, 51.622971 ], [ 3.699359, 51.638177 ], [ 3.714595, 51.636685 ] ] ] ] } },
{ "type": "Feature", "properties": { "loc": "NL41" }, "geometry": { "type": "Polygon", "coordinates": [ [ [ 5.59788, 51.828083 ], [ 5.637053, 51.81776 ], [ 5.660842, 51.797269 ], [ 5.755501, 51.75661 ], [ 5.865159, 51.757408 ], [ 5.892461, 51.723679 ], [ 5.954635, 51.707136 ], [ 5.966732, 51.652746 ], [ 6.020483, 51.619856 ], [ 6.04006, 51.563247 ], [ 6.029089, 51.555773 ], [ 6.001092, 51.568129 ], [ 5.913213, 51.552757 ], [ 5.838077, 51.566467 ], [ 5.871917, 51.451963 ], [ 5.92795, 51.38535 ], [ 5.876206, 51.354721 ], [ 5.673023, 51.314181 ], [ 5.628199, 51.273682 ], [ 5.61605, 51.230989 ], [ 5.566284, 51.220836 ], [ 5.553517, 51.266147 ], [ 5.515184, 51.293845 ], [ 5.494726, 51.298495 ], [ 5.414989, 51.263611 ], [ 5.351861, 51.27394 ], [ 5.329681, 51.263407 ], [ 5.237717, 51.2616 ], [ 5.226578, 51.269201 ], [ 5.241098, 51.305663 ], [ 5.200245, 51.322619 ], [ 5.162362, 51.310742 ], [ 5.134465, 51.31549 ], [ 5.131386, 51.347105 ], [ 5.071045, 51.393421 ], [ 5.10218, 51.429005 ], [ 5.081105, 51.466647 ], [ 5.049276, 51.472331 ], [ 5.03382, 51.484649 ], [ 5.014763, 51.474288 ], [ 5.000885, 51.44337 ], [ 4.92708, 51.396821 ], [ 4.884981, 51.414596 ], [ 4.785251, 51.411103 ], [ 4.773403, 51.416937 ], [ 4.772836, 51.428643 ], [ 4.826744, 51.425198 ], [ 4.825754, 51.446873 ], [ 4.83904, 51.478104 ], [ 4.806476, 51.49684 ], [ 4.759926, 51.502464 ], [ 4.692802, 51.452317 ], [ 4.667286, 51.444439 ], [ 4.669544, 51.426384 ], [ 4.577543, 51.431913 ], [ 4.53833, 51.424937 ], [ 4.531711, 51.445505 ], [ 4.542871, 51.476821 ], [ 4.478998, 51.477104 ], [ 4.392661, 51.450081 ], [ 4.396215, 51.432564 ], [ 4.387892, 51.415014 ], [ 4.427319, 51.377158 ], [ 4.427162, 51.365743 ], [ 4.375975, 51.355481 ], [ 4.344422, 51.359063 ], [ 4.32898, 51.376562 ], [ 4.279565, 51.376017 ], [ 4.268206, 51.389958 ], [ 4.271536, 51.42973 ], [ 4.220722, 51.504699 ], [ 4.234069, 51.551934 ], [ 4.192316, 51.602476 ], [ 4.199842, 51.618869 ], [ 4.234993, 51.634705 ], [ 4.242536, 51.647121 ], [ 4.28152, 51.645057 ], [ 4.350051, 51.659035 ], [ 4.423817, 51.708016 ], [ 4.522453, 51.693325 ], [ 4.676295, 51.724918 ], [ 4.727816, 51.750157 ], [ 4.757764, 51.782271 ], [ 4.784593, 51.796094 ], [ 4.855496, 51.802229 ], [ 4.918484, 51.826612 ], [ 5.000534, 51.820938 ], [ 5.067946, 51.781962 ], [ 5.100128, 51.785459 ], [ 5.134166, 51.772217 ], [ 5.138822, 51.754749 ], [ 5.128058, 51.73761 ], [ 5.300226, 51.73854 ], [ 5.353843, 51.75774 ], [ 5.368918, 51.7882 ], [ 5.404117, 51.820324 ], [ 5.447101, 51.810191 ], [ 5.469773, 51.813567 ], [ 5.491272, 51.829434 ], [ 5.534782, 51.817324 ], [ 5.59788, 51.828083 ] ], [ [ 4.940002, 51.430601 ], [ 4.935002, 51.441787 ], [ 4.916859, 51.435386 ], [ 4.92879, 51.430285 ], [ 4.940002, 51.430601 ] ] ] } },
{ "type": "Feature", "properties": { "loc": "NL42" }, "geometry": { "type": "Polygon", "coordinates": [ [ [ 5.953192, 51.747846 ], [ 5.959513, 51.739551 ], [ 5.996298, 51.736791 ], [ 6.032316, 51.722144 ], [ 6.02889, 51.703134 ], [ 6.038061, 51.67356 ], [ 6.113807, 51.654741 ], [ 6.094877, 51.606416 ], [ 6.156126, 51.566188 ], [ 6.210784, 51.512535 ], [ 6.222367, 51.46706 ], [ 6.207672, 51.404707 ], [ 6.222021, 51.398098 ], [ 6.217288, 51.385499 ], [ 6.224405, 51.364979 ], [ 6.16912, 51.329412 ], [ 6.121402, 51.273033 ], [ 6.072657, 51.242587 ], [ 6.081596, 51.225098 ], [ 6.070065, 51.216733 ], [ 6.070493, 51.203665 ], [ 6.082563, 51.173954 ], [ 6.10097, 51.171944 ], [ 6.160168, 51.191814 ], [ 6.174812, 51.184513 ], [ 6.149059, 51.17371 ], [ 6.169738, 51.159679 ], [ 6.166635, 51.152952 ], [ 6.096782, 51.134995 ], [ 6.039656, 51.098886 ], [ 6.001255, 51.085515 ], [ 5.957202, 51.03762 ], [ 5.937276, 51.038813 ], [ 5.912751, 51.063418 ], [ 5.87142, 51.049468 ], [ 5.903205, 51.000735 ], [ 5.898454, 50.976921 ], [ 5.948769, 50.987249 ], [ 6.020508, 50.982268 ], [ 6.009803, 50.957504 ], [ 6.019974, 50.93632 ], [ 6.086948, 50.913135 ], [ 6.075154, 50.855363 ], [ 6.02892, 50.847599 ], [ 6.017541, 50.813337 ], [ 5.987287, 50.802089 ], [ 6.019436, 50.775623 ], [ 6.020999, 50.754295 ], [ 5.98356, 50.75309 ], [ 5.960132, 50.762024 ], [ 5.901262, 50.752076 ], [ 5.886291, 50.769484 ], [ 5.849627, 50.755369 ], [ 5.844917, 50.765385 ], [ 5.808213, 50.756372 ], [ 5.770756, 50.782695 ], [ 5.737277, 50.757787 ], [ 5.719764, 50.762765 ], [ 5.682001, 50.757446 ], [ 5.69828, 50.781659 ], [ 5.687622, 50.811924 ], [ 5.657657, 50.820858 ], [ 5.641507, 50.851945 ], [ 5.648376, 50.871182 ], [ 5.681774, 50.885218 ], [ 5.698645, 50.907388 ], [ 5.722378, 50.912748 ], [ 5.753773, 50.951061 ], [ 5.724508, 50.964109 ], [ 5.760226, 50.993031 ], [ 5.772618, 51.021927 ], [ 5.761677, 51.035022 ], [ 5.77275, 51.056973 ], [ 5.798274, 51.059853 ], [ 5.80048, 51.089617 ], [ 5.830268, 51.099678 ], [ 5.81235, 51.11732 ], [ 5.850795, 51.142683 ], [ 5.829353, 51.162505 ], [ 5.781677, 51.154983 ], [ 5.77063, 51.179368 ], [ 5.753334, 51.186567 ], [ 5.662353, 51.185415 ], [ 5.644885, 51.199628 ], [ 5.566284, 51.220836 ], [ 5.61605, 51.230989 ], [ 5.628199, 51.273682 ], [ 5.673023, 51.314181 ], [ 5.876206, 51.354721 ], [ 5.92795, 51.38535 ], [ 5.871917, 51.451963 ], [ 5.838077, 51.566467 ], [ 5.913213, 51.552757 ], [ 6.001092, 51.568129 ], [ 6.029089, 51.555773 ], [ 6.04006, 51.563247 ], [ 6.020483, 51.619856 ], [ 5.966732, 51.652746 ], [ 5.954635, 51.707136 ], [ 5.892461, 51.723679 ], [ 5.865159, 51.757408 ], [ 5.870229, 51.773229 ], [ 5.889702, 51.776692 ], [ 5.921051, 51.751573 ], [ 5.939406, 51.743768 ], [ 5.953192, 51.747846 ] ] ] } }
]
}
