{
"type": "FeatureCollection",
"name": "border_BE",
"crs": { "type": "name", "properties": { "name": "urn:ogc:def:crs:OGC:1.3:CRS84" } },
"features": [
{ "type": "Feature", "properties": { }, "geometry": { "type": "Polygon", "coordinates": [ [ [ 6.15665815595878, 50.803721015010581 ], [ 6.043073357781111, 50.128051662794235 ], [ 5.782417433300907, 50.09032786722122 ], [ 5.674051954784829, 49.529483547557504 ], [ 4.799221632515724, 49.985373033236371 ], [ 4.286022983425084, 49.907496649772554 ], [ 3.123251580425688, 50.780363267614547 ], [ 2.658422071960274, 50.796848049515745 ], [ 2.513573032246143, 51.148506171261829 ], [ 3.314971144228537, 51.345780951536085 ], [ 4.047071160507528, 51.26725861266857 ], [ 4.973991326526914, 51.475023708698131 ], [ 5.606975945670001, 51.037298488969782 ], [ 6.15665815595878, 50.803721015010581 ] ] ] } }
]
}
