{
"type": "FeatureCollection",
"name": "border_RO",
"crs": { "type": "name", "properties": { "name": "urn:ogc:def:crs:OGC:1.3:CRS84" } },
"features": [
{ "type": "Feature", "properties": { }, "geometry": { "type": "Polygon", "coordinates": [ [ [ 28.233553501099038, 45.488283189468291 ], [ 28.679779493939382, 45.304030870131704 ], [ 29.149724969201653, 45.464925442072456 ], [ 29.603289015427436, 45.293308010431126 ], [ 29.626543409958771, 45.035390936862399 ], [ 29.141611769331835, 44.820210272799045 ], [ 28.8378577003202, 44.913873806328056 ], [ 28.558081495891997, 43.707461656258133 ], [ 27.970107049275075, 43.812468166675217 ], [ 27.242399529740908, 44.175986029632405 ], [ 26.065158725699746, 43.943493760751267 ], [ 25.569271681426926, 43.688444729174719 ], [ 24.100679152124172, 43.741051337247853 ], [ 23.332302280376325, 43.897010809904714 ], [ 22.944832391051847, 43.82378530534713 ], [ 22.474008416440601, 44.409227606781769 ], [ 22.705725538837356, 44.578002834647023 ], [ 22.459022251075936, 44.702517198254299 ], [ 22.145087924902811, 44.478422349620587 ], [ 21.562022739353608, 44.7689472519655 ], [ 21.483526238702211, 45.181170152357879 ], [ 20.874312778413355, 45.416375433934235 ], [ 20.762174920339987, 45.734573065771485 ], [ 20.220192498462836, 46.127468980486555 ], [ 21.021952345471249, 46.316087958351901 ], [ 21.626514926853872, 46.994237779318162 ], [ 22.099767693782837, 47.672439276716702 ], [ 23.142236362406805, 48.096341050806949 ], [ 23.760958286237411, 47.985598456405455 ], [ 24.402056105250381, 47.981877753280429 ], [ 24.866317172960578, 47.737525743188314 ], [ 25.207743361112989, 47.891056423527473 ], [ 25.945941196402401, 47.987148749374214 ], [ 26.197450392366932, 48.220881252630349 ], [ 26.619336785597795, 48.220726223333472 ], [ 26.924176059687568, 48.123264472030996 ], [ 28.128030226359044, 46.810476386088254 ], [ 28.160017937947714, 46.371562608417221 ], [ 28.054442986775399, 45.944586086605625 ], [ 28.233553501099038, 45.488283189468291 ] ] ] } }
]
}
