{
"type": "FeatureCollection",
"name": "regions_SN",
"crs": { "type": "name", "properties": { "name": "urn:ogc:def:crs:OGC:1.3:CRS84" } },
"features": [
{ "type": "Feature", "properties": { "loc": "SN-A2-0103" }, "geometry": { "type": "Polygon", "coordinates": [ [ [ -17.11021915011737, 14.730126240511277 ], [ -17.132810824560021, 14.712109271825502 ], [ -17.143827436447825, 14.58711017362212 ], [ -17.201749801999913, 14.666408539000154 ], [ -17.312250136999843, 14.722323418000139 ], [ -17.294053191950834, 14.762814023152993 ], [ -17.304209726702993, 14.821557794272112 ], [ -17.175340913988205, 14.885125024766166 ], [ -17.11021915011737, 14.730126240511277 ] ] ] } },
{ "type": "Feature", "properties": { "loc": "SN-A2-0104" }, "geometry": { "type": "Polygon", "coordinates": [ [ [ -17.429746388306658, 14.763053049031461 ], [ -17.412924271125288, 14.733013857932987 ], [ -17.43021774299989, 14.718743324000128 ], [ -17.417554854999853, 14.700513840000029 ], [ -17.419931411999848, 14.682397842000084 ], [ -17.434391021999865, 14.687056541000077 ], [ -17.421237945999859, 14.674524307000103 ], [ -17.433034896999835, 14.646145821000045 ], [ -17.530147551999889, 14.739557266000103 ], [ -17.418813775347466, 14.77519021548307 ], [ -17.429746388306658, 14.763053049031461 ] ] ] } },
{ "type": "Feature", "properties": { "loc": "SN-A2-0105" }, "geometry": { "type": "Polygon", "coordinates": [ [ [ -17.293585476186493, 14.792342690037897 ], [ -17.305384448605501, 14.725034846073315 ], [ -17.420957130202755, 14.734969767849149 ], [ -17.422760537160833, 14.759009010550217 ], [ -17.377747542545155, 14.767110964336927 ], [ -17.366241454999834, 14.796245575000045 ], [ -17.304209726702993, 14.821557794272112 ], [ -17.293585476186493, 14.792342690037897 ] ] ] } },
{ "type": "Feature", "properties": { "loc": "SN-A2-0106" }, "geometry": { "type": "Polygon", "coordinates": [ [ [ -17.36655899209568, 14.791785636703667 ], [ -17.377747542545183, 14.767110964336913 ], [ -17.406564670166489, 14.768275983220677 ], [ -17.424720169290318, 14.745568763064584 ], [ -17.418813775347495, 14.775190215483056 ], [ -17.36655899209568, 14.791785636703667 ] ] ] } },
{ "type": "Feature", "properties": { "loc": "SN-A2-0701" }, "geometry": { "type": "Polygon", "coordinates": [ [ [ -16.904318401980703, 14.51268018176618 ], [ -16.88152263220293, 14.525660946479347 ], [ -16.846410084693478, 14.506853000298248 ], [ -16.737328299542334, 14.653271758128062 ], [ -16.689919754297769, 14.664403465246368 ], [ -16.581162418922204, 14.607203855893614 ], [ -16.524067652961463, 14.606020208503201 ], [ -16.518867442212962, 14.593389707147464 ], [ -16.551231146315828, 14.492149419882894 ], [ -16.635170278018776, 14.428654823691057 ], [ -16.681058142816532, 14.422165907015961 ], [ -16.705195199739389, 14.39502285683062 ], [ -16.708841942727595, 14.302352878544101 ], [ -16.748750048239039, 14.240691965661723 ], [ -16.722309166422658, 14.201114924727721 ], [ -16.763466973671751, 14.160857890058354 ], [ -16.75366281278097, 14.14098259222264 ], [ -16.791561114626521, 14.130100296409898 ], [ -16.75357660529875, 14.084917276002196 ], [ -16.752665056377072, 14.063843464843407 ], [ -16.773006438999818, 14.048725128000095 ], [ -16.80176353499985, 14.134232521000046 ], [ -16.866632461999867, 14.18450641600012 ], [ -16.878324508999867, 14.237623215000051 ], [ -16.928970336999896, 14.285207748000095 ], [ -16.949396132999908, 14.380947113000031 ], [ -17.006698607999862, 14.4363155360001 ], [ -17.055601119999888, 14.452905655000093 ], [ -17.137004851999851, 14.572338104000105 ], [ -17.13073916100474, 14.716238571333962 ], [ -16.967953596114985, 14.631698183619813 ], [ -16.916645271148248, 14.565213223085161 ], [ -16.904318401980703, 14.51268018176618 ] ] ] } },
{ "type": "Feature", "properties": { "loc": "SN-A2-0702" }, "geometry": { "type": "Polygon", "coordinates": [ [ [ -17.055505987184574, 14.873283645006586 ], [ -17.059219272210349, 14.832667464313721 ], [ -17.042568090973312, 14.843627925683867 ], [ -17.008986620627489, 14.824382498161659 ], [ -16.959467340132875, 14.859638202017001 ], [ -16.916902188746199, 14.853066187868292 ], [ -16.873823646987177, 14.874125658131765 ], [ -16.846868890997627, 14.86226146466233 ], [ -16.796662124239539, 14.882159276528151 ], [ -16.75881971634319, 14.877440174645463 ], [ -16.685457638919068, 14.927302817538591 ], [ -16.623259874703347, 14.844852612195625 ], [ -16.648630839953896, 14.814792111739228 ], [ -16.606994096704078, 14.76610575128573 ], [ -16.61917285626793, 14.638176249884383 ], [ -16.663880464266281, 14.642637670097825 ], [ -16.677029163194959, 14.665129505137864 ], [ -16.737328299542334, 14.653271758128062 ], [ -16.846410084693478, 14.506853000298248 ], [ -16.88152263220293, 14.525660946479347 ], [ -16.908967471355865, 14.513943754225823 ], [ -16.916645271148248, 14.565213223085161 ], [ -16.967953596114985, 14.631698183619813 ], [ -17.126464250186427, 14.718368559688278 ], [ -17.112045892745911, 14.724403305515866 ], [ -17.113992349993737, 14.755064027078324 ], [ -17.175340913988205, 14.885125024766166 ], [ -17.128801345999836, 14.909770966000069 ], [ -17.107809092299611, 14.951648661750861 ], [ -17.055505987184574, 14.873283645006586 ] ] ] } },
{ "type": "Feature", "properties": { "loc": "SN-A2-0703" }, "geometry": { "type": "Polygon", "coordinates": [ [ [ -16.741455398252938, 15.299355028028339 ], [ -16.633800662444401, 15.222618264686039 ], [ -16.613305796604585, 15.189076267254398 ], [ -16.612793789069105, 15.145696486720118 ], [ -16.451524446414492, 15.359074204015444 ], [ -16.415263904119673, 15.325843236667181 ], [ -16.354695840798541, 15.323475591780189 ], [ -16.335598236443285, 15.299381171065674 ], [ -16.345747939246838, 15.274281625253517 ], [ -16.333176368943494, 15.257878894154986 ], [ -16.314217988234361, 15.248771070707912 ], [ -16.295027700690515, 15.273025881225378 ], [ -16.272324996518808, 15.253569400109901 ], [ -16.236420579150693, 15.124658083987386 ], [ -16.196807959284712, 15.093412981956911 ], [ -16.17704018444617, 14.962870330187917 ], [ -16.227482428108456, 14.953044263505555 ], [ -16.276886118564907, 14.98983559930428 ], [ -16.442420142240646, 15.024298835739492 ], [ -16.650924049856933, 14.957408363988234 ], [ -16.756974852013354, 14.877978494605271 ], [ -16.796662124239539, 14.882159276528151 ], [ -16.846868890997627, 14.86226146466233 ], [ -16.873823646987177, 14.874125658131765 ], [ -16.916902188746199, 14.853066187868292 ], [ -16.959467340132875, 14.859638202017001 ], [ -17.008986620627489, 14.824382498161659 ], [ -17.042568090973312, 14.843627925683867 ], [ -17.059219272210349, 14.832667464313721 ], [ -17.060796470493436, 14.89520320786063 ], [ -17.107809066999849, 14.951648712000088 ], [ -16.891174315999915, 15.206279755000141 ], [ -16.72440904011874, 15.459866612985918 ], [ -16.688347009559326, 15.425911645114921 ], [ -16.725300266174894, 15.363983649023927 ], [ -16.741455398252938, 15.299355028028339 ] ] ] } },
{ "type": "Feature", "properties": { "loc": "SN-A2-0801" }, "geometry": { "type": "Polygon", "coordinates": [ [ [ -16.431405518821343, 15.024602323169967 ], [ -16.383310562830047, 15.020689020713929 ], [ -16.360365082262732, 14.986731177780877 ], [ -16.373399884634157, 14.914655093395124 ], [ -16.351325475289549, 14.780678268313563 ], [ -16.283649156162852, 14.714650750479164 ], [ -16.338941425310896, 14.66953792579101 ], [ -16.358469960376734, 14.604782414546269 ], [ -16.485993546307245, 14.590961921266688 ], [ -16.581162418922204, 14.607203855893614 ], [ -16.621423695534368, 14.645992296972066 ], [ -16.604698333040727, 14.689755698249519 ], [ -16.606994096704078, 14.76610575128573 ], [ -16.648630839953896, 14.814792111739228 ], [ -16.623705998881835, 14.841134770163256 ], [ -16.627107995421422, 14.86116752048069 ], [ -16.685457638919068, 14.927302817538591 ], [ -16.640229122884101, 14.961778524611836 ], [ -16.431405518821343, 15.024602323169967 ] ] ] } },
{ "type": "Feature", "properties": { "loc": "SN-A2-0802" }, "geometry": { "type": "Polygon", "coordinates": [ [ [ -16.284111124998127, 14.991313590834066 ], [ -16.227482428108456, 14.953044263505555 ], [ -16.093827377133898, 14.958149691450851 ], [ -16.114457301694276, 14.830761374614399 ], [ -16.068745889598215, 14.666157835458494 ], [ -16.051041303490024, 14.649141364580965 ], [ -16.065268446121575, 14.637001300114195 ], [ -16.042844676549642, 14.600277505439985 ], [ -16.039006487230559, 14.539940733868606 ], [ -16.149753960205462, 14.546863281993739 ], [ -16.243200298797714, 14.576144493372423 ], [ -16.334138213944652, 14.570680461623676 ], [ -16.359440221267477, 14.601043530586233 ], [ -16.340661926301017, 14.666933721471887 ], [ -16.282661475743357, 14.718868610430869 ], [ -16.351325475289549, 14.780678268313563 ], [ -16.373399884634157, 14.914655093395124 ], [ -16.360365082262732, 14.986731177780877 ], [ -16.383310562830047, 15.020689020713929 ], [ -16.284111124998127, 14.991313590834066 ] ] ] } },
{ "type": "Feature", "properties": { "loc": "SN-A2-0803" }, "geometry": { "type": "Polygon", "coordinates": [ [ [ -15.803442615654742, 14.9978664535252 ], [ -15.802312949839539, 14.968784987587059 ], [ -15.745662004591157, 14.898402747322359 ], [ -15.666368320981253, 14.942109369746904 ], [ -15.635405555229578, 14.888375350049932 ], [ -15.687553796352674, 14.88146581575579 ], [ -15.677294237749553, 14.854557072240782 ], [ -15.672636599978354, 14.869463200857014 ], [ -15.630668324958322, 14.866933370002966 ], [ -15.543244572376771, 14.823713761576618 ], [ -15.488400640127445, 14.840075552561183 ], [ -15.437101324499494, 14.824100257048778 ], [ -15.445799910826821, 14.744458089665391 ], [ -15.460386550540697, 14.709869137907317 ], [ -15.483944082136272, 14.724384670281355 ], [ -15.575247785986182, 14.672072583397567 ], [ -15.640709734918648, 14.711544487805684 ], [ -15.693953479257353, 14.69218497639705 ], [ -15.765430424953689, 14.749733954546807 ], [ -15.795319697285606, 14.734235698718068 ], [ -15.794302498093884, 14.632619296710681 ], [ -15.813961327401163, 14.582472540178715 ], [ -15.875742241092208, 14.542651138390761 ], [ -15.998943652007938, 14.514478711744816 ], [ -15.998944360073189, 14.534469272637496 ], [ -16.039006487230559, 14.539940733868606 ], [ -16.042844676549642, 14.600277505439985 ], [ -16.065268446121575, 14.637001300114195 ], [ -16.051041303490024, 14.649141364580965 ], [ -16.068745889598215, 14.666157835458494 ], [ -16.114457301694276, 14.830761374614399 ], [ -16.093827377133898, 14.958149691450851 ], [ -15.99731247715204, 14.955313557500938 ], [ -15.988424633153667, 14.972076357481024 ], [ -15.910323521068317, 14.980159070426369 ], [ -15.863458622401996, 15.016508354406477 ], [ -15.86196714746422, 15.051245752345855 ], [ -15.803442615654742, 14.9978664535252 ] ] ] } },
{ "type": "Feature", "properties": { "loc": "SN-A2-1201" }, "geometry": { "type": "Polygon", "coordinates": [ [ [ -16.688409804999907, 13.163769722000074 ], [ -15.894683647867705, 13.159408837134057 ], [ -15.934543327500819, 13.11240131542174 ], [ -15.927296896826729, 13.096260032622309 ], [ -15.900376395124496, 13.092684499220598 ], [ -15.899674054585169, 13.071971393890214 ], [ -15.995176199631736, 12.917277400288485 ], [ -15.972665007486178, 12.891877293083132 ], [ -15.973152660469239, 12.858222568665346 ], [ -16.002286034137139, 12.825314598493376 ], [ -15.994986119868518, 12.767382146090645 ], [ -16.022482885812053, 12.749368028731068 ], [ -16.016794797489744, 12.655258715046925 ], [ -16.052738191096186, 12.620223086633009 ], [ -16.177098783518609, 12.587137183494901 ], [ -16.216204692772809, 12.610637676974735 ], [ -16.261523764901156, 12.588926915055188 ], [ -16.331663299216917, 12.60035927438995 ], [ -16.370603887079874, 12.551762238739739 ], [ -16.585350499032828, 12.64623105704098 ], [ -16.666147623161567, 12.588914635565585 ], [ -16.770454369365353, 12.551321252113057 ], [ -16.765205382999884, 12.60964775100012 ], [ -16.78823661799991, 12.69538688700006 ], [ -16.776258468999863, 12.740278244000114 ], [ -16.791076659999884, 12.765532494000132 ], [ -16.736679076999852, 13.010085106000114 ], [ -16.73740196199989, 13.044586182000051 ], [ -16.755832671999851, 13.064251900000057 ], [ -16.742380141999849, 13.114009857000076 ], [ -16.688409804999907, 13.163769722000074 ] ] ] } },
{ "type": "Feature", "properties": { "loc": "SN-A2-1202" }, "geometry": { "type": "Polygon", "coordinates": [ [ [ -16.527741463770898, 12.553920536389674 ], [ -16.489040084337361, 12.552075837560961 ], [ -16.489121247440355, 12.520244670650039 ], [ -16.450938599638246, 12.49133534549477 ], [ -16.47127468404819, 12.475746899489637 ], [ -16.440828904922469, 12.427029307485904 ], [ -16.453638332488499, 12.396989482288967 ], [ -16.438601375194686, 12.370897255874025 ], [ -16.494329452999892, 12.35041046100015 ], [ -16.672809600999841, 12.356049538000081 ], [ -16.716781615999857, 12.338594437000106 ], [ -16.736122130999867, 12.378659248000135 ], [ -16.771741866999903, 12.404055595000097 ], [ -16.788568496999837, 12.454179764000129 ], [ -16.770454369365353, 12.551321252113057 ], [ -16.706869218152256, 12.568753310088743 ], [ -16.576669322209295, 12.64677863206728 ], [ -16.521445367548562, 12.619681198494115 ], [ -16.538023598591714, 12.587498649014018 ], [ -16.527741463770898, 12.553920536389674 ] ] ] } },
{ "type": "Feature", "properties": { "loc": "SN-A2-1203" }, "geometry": { "type": "Polygon", "coordinates": [ [ [ -15.966131432573352, 12.625503183094134 ], [ -15.953077555358444, 12.543078170217415 ], [ -15.920694228610291, 12.510254630193563 ], [ -15.921589301469321, 12.463896628230698 ], [ -15.892447598413931, 12.466371417333944 ], [ -15.887789922950393, 12.444533232776267 ], [ -15.958009719999858, 12.440460205000148 ], [ -16.062709807999845, 12.469320297000086 ], [ -16.153240203999911, 12.45100021400013 ], [ -16.21492004399985, 12.456379890000091 ], [ -16.381069182999866, 12.364190102000128 ], [ -16.45098042399982, 12.357488572000131 ], [ -16.435981368553801, 12.374593993584282 ], [ -16.453638332488499, 12.396989482288967 ], [ -16.440828904922469, 12.427029307485904 ], [ -16.47127468404819, 12.475746899489637 ], [ -16.450938599638246, 12.49133534549477 ], [ -16.489121247440355, 12.520244670650039 ], [ -16.489040084337361, 12.552075837560961 ], [ -16.523790117792483, 12.55098011417507 ], [ -16.538066163558465, 12.583683510862754 ], [ -16.521445367548562, 12.619681198494115 ], [ -16.366920255383224, 12.552168648470674 ], [ -16.331663299216917, 12.60035927438995 ], [ -16.261523764901156, 12.588926915055188 ], [ -16.216204692772809, 12.610637676974735 ], [ -16.177098783518609, 12.587137183494901 ], [ -16.052738191096186, 12.620223086633009 ], [ -16.009828659355854, 12.656961322874894 ], [ -15.966131432573352, 12.625503183094134 ] ] ] } },
{ "type": "Feature", "properties": { "loc": "SN-A2-1701" }, "geometry": { "type": "Polygon", "coordinates": [ [ [ -15.418669700999857, 16.545240402000108 ], [ -15.333682316999855, 16.572526694000125 ], [ -15.328997823958826, 16.427124767051851 ], [ -15.332072014909073, 16.401545959803823 ], [ -15.416248021071802, 16.408918433300759 ], [ -15.402550156790554, 16.212168926140826 ], [ -15.435939788934785, 16.027800479399215 ], [ -15.437819043186376, 16.000104336358447 ], [ -15.418943301570412, 16.000109192549274 ], [ -15.42417418253337, 15.938183550494358 ], [ -15.453938011862103, 15.916895360189667 ], [ -15.521841259254579, 15.897145087628619 ], [ -15.563734200510318, 15.913152762484053 ], [ -15.822264329029537, 16.186371430722826 ], [ -15.926202432766104, 16.101823472574708 ], [ -16.143187468093359, 15.999553609351249 ], [ -16.197370139700709, 16.02445733630903 ], [ -16.329548098525784, 16.024041732785523 ], [ -16.330452253919628, 16.139325994119815 ], [ -16.359175668114581, 16.089997625819521 ], [ -16.365560988814057, 16.104913932369271 ], [ -16.450725773623478, 16.066017269627277 ], [ -16.51002311430301, 16.061423892939022 ], [ -16.443050384999871, 16.102279663000054 ], [ -16.451339721999883, 16.179410934000096 ], [ -16.435630797999881, 16.208860397000127 ], [ -16.384489058999854, 16.218959808000069 ], [ -16.351440429999833, 16.270950317000157 ], [ -16.368190764999937, 16.306200027000042 ], [ -16.331569671999915, 16.356100082000093 ], [ -16.331619262999844, 16.397850037000108 ], [ -16.310569762999918, 16.411180496000046 ], [ -16.30583000199988, 16.456329346000089 ], [ -16.262769698999893, 16.524749756000059 ], [ -16.189359664999905, 16.516910553000077 ], [ -16.154039382999866, 16.547979355000066 ], [ -16.116350173999841, 16.556529999000116 ], [ -16.051359176999849, 16.479429245000112 ], [ -16.003049849999876, 16.501619339000086 ], [ -15.956119536999871, 16.488460541000052 ], [ -15.896759986999889, 16.518280029000056 ], [ -15.862819671999898, 16.512599945000108 ], [ -15.857830047999879, 16.494190216000106 ], [ -15.808409690999905, 16.508039474000071 ], [ -15.705639838999932, 16.474849701000096 ], [ -15.636190413999909, 16.491830826000111 ], [ -15.625639914999859, 16.530239105000124 ], [ -15.549719809999843, 16.516359329000121 ], [ -15.515760421999872, 16.528730392000082 ], [ -15.515589713999869, 16.570949554000105 ], [ -15.46854972799985, 16.596670151000072 ], [ -15.418669700999857, 16.545240402000108 ] ] ] } },
{ "type": "Feature", "properties": { "loc": "SN-A2-1702" }, "geometry": { "type": "Polygon", "coordinates": [ [ [ -14.943499564999854, 16.63518905600009 ], [ -14.911769866999894, 16.651390076000041 ], [ -14.897089957999857, 16.634840012000076 ], [ -14.881529807999907, 16.663480759000073 ], [ -14.855779647999892, 16.640989304000122 ], [ -14.824680327999864, 16.636299133000101 ], [ -14.811440467999873, 16.656030655000045 ], [ -14.785690307999857, 16.633760452000104 ], [ -14.762590407999923, 16.658119202000101 ], [ -14.738510131999874, 16.6239490510001 ], [ -14.727540015999832, 16.648529053000107 ], [ -14.679380416999901, 16.651760101000104 ], [ -14.638910293999821, 16.651449203000137 ], [ -14.647410392999863, 16.631650925000088 ], [ -14.634010314999937, 16.623359680000096 ], [ -14.554010390999863, 16.623880386000103 ], [ -14.540889739999876, 16.647720337000074 ], [ -14.497190474999869, 16.620470047000104 ], [ -14.445090293999854, 16.629749298000043 ], [ -14.419320106999869, 16.654239655000094 ], [ -14.403679847999864, 16.639919281000051 ], [ -14.332909583999889, 16.642589569000101 ], [ -14.326439856999887, 16.57040023800004 ], [ -14.270689963999875, 16.583450317000139 ], [ -14.25617980999985, 16.520299911000116 ], [ -14.247449874999887, 16.54899978600012 ], [ -14.209500312999904, 16.54381942700013 ], [ -14.194769858999859, 16.512300491000111 ], [ -14.144960402999843, 16.47565078700012 ], [ -14.127280234999898, 16.479160309000065 ], [ -14.12948989899985, 16.456029892000092 ], [ -14.021430015999872, 16.352649689000156 ], [ -13.960180282999904, 16.330610275000126 ], [ -13.95149993899987, 16.307229996000085 ], [ -13.982890128999895, 16.296489716000053 ], [ -13.977689742999846, 16.276180267000075 ], [ -13.945369719999892, 16.266939163000096 ], [ -13.964969634999871, 16.224029541000053 ], [ -13.915610312999885, 16.231840134000066 ], [ -13.902489661999898, 16.19643020600007 ], [ -13.872599601999827, 16.195039749000042 ], [ -13.869979857999873, 16.148639679000034 ], [ -13.84506988499983, 16.110889435000111 ], [ -13.814270019999888, 16.136770248000101 ], [ -13.745340346999882, 16.149330139000142 ], [ -13.715550422999836, 16.180730820000058 ], [ -13.700980185999903, 16.174860001000138 ], [ -13.74115879562672, 16.04623408005871 ], [ -13.845583052226765, 16.005929230657436 ], [ -14.231813124028861, 15.602136693754909 ], [ -14.253889344869666, 15.564306474832923 ], [ -14.245077907083051, 15.532851907095091 ], [ -14.26457993926811, 15.513155958173142 ], [ -14.298092746019744, 15.523643155535838 ], [ -14.33370370180678, 15.494344293456875 ], [ -14.376586530024074, 15.492516607858631 ], [ -14.421168364766881, 15.492854731794948 ], [ -14.404458443712567, 15.620436511820158 ], [ -14.594400755265838, 15.933603098340257 ], [ -14.754381457928492, 15.94104074876336 ], [ -14.86335768081706, 15.999928299326385 ], [ -15.167346507570237, 16.000001507424191 ], [ -15.219951139436041, 16.029329570504505 ], [ -15.319972729599687, 16.004070615515378 ], [ -15.437819043186376, 16.000104336358447 ], [ -15.400936632322296, 16.233914393843598 ], [ -15.416248021071802, 16.408918433300759 ], [ -15.332072014909073, 16.401545959803823 ], [ -15.333682316999855, 16.572526694000125 ], [ -15.313320159999869, 16.585199356000082 ], [ -15.232769965999829, 16.563770294000104 ], [ -15.171689986999873, 16.600660324000085 ], [ -15.103219985999885, 16.596340179000038 ], [ -15.097129821999847, 16.617349625000113 ], [ -15.12672996499991, 16.639869690000122 ], [ -15.098950385999935, 16.675670624000141 ], [ -15.041430472999842, 16.630430222000072 ], [ -14.978400229999902, 16.691549301000066 ], [ -14.943499564999854, 16.63518905600009 ] ] ] } },
{ "type": "Feature", "properties": { "loc": "SN-A2-1703" }, "geometry": { "type": "Polygon", "coordinates": [ [ [ -16.330452253919656, 16.139325994119801 ], [ -16.329548098525812, 16.024041732785509 ], [ -16.197370139700737, 16.024457336309016 ], [ -16.143187468093387, 15.999553609351235 ], [ -16.325430296709573, 15.832464343212592 ], [ -16.460615919509056, 15.836086891945044 ], [ -16.536628578069354, 15.801538856329977 ], [ -16.510023114303038, 16.061423892939008 ], [ -16.450725773623507, 16.066017269627263 ], [ -16.365560988814085, 16.104913932369257 ], [ -16.359175668114609, 16.089997625819507 ], [ -16.330452253919656, 16.139325994119801 ] ] ] } },
{ "type": "Feature", "properties": { "loc": "SN-A2-1801" }, "geometry": { "type": "Polygon", "coordinates": [ [ [ -13.048975539428145, 15.471698528206213 ], [ -12.964280127999864, 15.499130249000126 ], [ -12.960189818999915, 15.444430351000038 ], [ -12.930410384999938, 15.434599876000055 ], [ -12.947910308999891, 15.401570320000102 ], [ -12.943280219999867, 15.35731029500006 ], [ -12.865280150999883, 15.321990013000109 ], [ -12.840009688999857, 15.292349815000106 ], [ -12.845049857999882, 15.257140160000072 ], [ -12.89237976099982, 15.265299797000099 ], [ -12.895170211999865, 15.24411964400011 ], [ -12.846079825999837, 15.194990158000044 ], [ -12.803039550999909, 15.209910393000071 ], [ -12.788499831999925, 15.14667987800008 ], [ -12.686312443529893, 15.08435035903849 ], [ -12.62472887839732, 15.000414509752369 ], [ -12.585892798807688, 14.905243270050262 ], [ -12.652433087687001, 14.704295694767067 ], [ -12.719799348543173, 14.613522860999096 ], [ -12.795214532822044, 14.580423410555133 ], [ -12.950601361632089, 14.558253232144692 ], [ -13.243765961543311, 14.611355979628671 ], [ -13.532317550659315, 14.405162288190654 ], [ -13.566674513230772, 14.708341960847926 ], [ -13.531754376207708, 14.757079995504474 ], [ -13.517847281763309, 14.861173907969805 ], [ -13.485525400266088, 14.937115043860539 ], [ -13.671220426189937, 15.085610745652145 ], [ -13.593602374590777, 15.118125816458894 ], [ -13.567444324460912, 15.189087853309625 ], [ -13.463085694803414, 15.26779364820049 ], [ -13.404637120193932, 15.365674991748557 ], [ -13.345493831635416, 15.422761506788996 ], [ -13.206932000263308, 15.471824465577678 ], [ -13.217796937167783, 15.487112540652371 ], [ -13.157356277560542, 15.60612740295827 ], [ -13.096949576999897, 15.577059746000133 ], [ -13.103930472999917, 15.5 ], [ -13.048975539428145, 15.471698528206213 ] ] ] } },
{ "type": "Feature", "properties": { "loc": "SN-A2-1802" }, "geometry": { "type": "Polygon", "coordinates": [ [ [ -13.468319892999883, 16.131599426000101 ], [ -13.505990027999839, 16.108489990000088 ], [ -13.507479667999903, 16.088800430000063 ], [ -13.488499640999876, 16.079820633000121 ], [ -13.457610129999889, 16.107009888000103 ], [ -13.434000014999839, 16.077259064000096 ], [ -13.370949744999841, 16.049690247000061 ], [ -13.374039649999883, 15.972370148000028 ], [ -13.32166957899992, 15.914380074000114 ], [ -13.333319663999912, 15.886150360000109 ], [ -13.305040358999889, 15.860790253000125 ], [ -13.300189971999846, 15.814430237000057 ], [ -13.271439551999922, 15.786339760000114 ], [ -13.293990134999881, 15.780650139000088 ], [ -13.291509627999901, 15.758390427000037 ], [ -13.216079711999853, 15.693659782000092 ], [ -13.223679542999925, 15.673219681000139 ], [ -13.254799842999912, 15.668020248000081 ], [ -13.236430167999849, 15.617030144000077 ], [ -13.220600127999862, 15.606869698000148 ], [ -13.192379950999847, 15.621809959000144 ], [ -13.157356277560542, 15.60612740295827 ], [ -13.217796937167783, 15.487112540652371 ], [ -13.206932000263308, 15.471824465577678 ], [ -13.345493831635416, 15.422761506788996 ], [ -13.404637120193932, 15.365674991748557 ], [ -13.449408908842145, 15.285896577040281 ], [ -13.652618009399234, 15.386866996001325 ], [ -13.831085004777968, 15.52963157039059 ], [ -14.248649989096254, 15.571837157344726 ], [ -13.844098135820929, 16.007385536644705 ], [ -13.74115879562672, 16.04623408005871 ], [ -13.723348268723104, 16.12313839663976 ], [ -13.70893001599989, 16.143629074000057 ], [ -13.70759010299987, 16.122489929000086 ], [ -13.677229880999889, 16.094669342000092 ], [ -13.576700210999906, 16.135059357000117 ], [ -13.513500213999865, 16.128639221000132 ], [ -13.4857196809999, 16.146049500000128 ], [ -13.468319892999883, 16.131599426000101 ] ] ] } },
{ "type": "Feature", "properties": { "loc": "SN-A2-1803" }, "geometry": { "type": "Polygon", "coordinates": [ [ [ -14.421680842559734, 15.496309517811577 ], [ -14.333703701806808, 15.49434429345686 ], [ -14.298092746019773, 15.523643155535824 ], [ -14.264579939268138, 15.513155958173128 ], [ -14.244738712944347, 15.533818045879874 ], [ -14.248649989096283, 15.571837157344712 ], [ -13.844499107723038, 15.533169876786721 ], [ -13.791553574578916, 15.506419853708239 ], [ -13.651461685995656, 15.386130105603987 ], [ -13.449408908842173, 15.285896577040267 ], [ -13.56744432446094, 15.18908785330961 ], [ -13.596497107887782, 15.115133886550522 ], [ -13.671687439198408, 15.083814709175078 ], [ -13.485525400266116, 14.937115043860524 ], [ -13.517847281763338, 14.861173907969791 ], [ -13.531754376207736, 14.75707999550446 ], [ -13.566674513230801, 14.708341960847912 ], [ -13.532317550659343, 14.40516228819064 ], [ -13.84615804675585, 14.412251971121679 ], [ -13.998919199354329, 14.485913224095645 ], [ -14.330026178134911, 14.586402925219863 ], [ -14.548400148748595, 14.560416130205686 ], [ -14.746184992895071, 14.582909700736588 ], [ -14.84957434188102, 14.655057278615066 ], [ -14.8184617197583, 14.694794823369969 ], [ -14.789946223084858, 14.80810144404405 ], [ -14.745210697265474, 14.836848816659584 ], [ -14.730328666819013, 14.875644776423089 ], [ -14.780269645064301, 14.87075455356319 ], [ -14.834410887483038, 14.93927386883602 ], [ -14.858360918139688, 14.983714306734372 ], [ -14.841591763709392, 15.066824132258569 ], [ -14.805050978428067, 15.117661537966606 ], [ -14.737693945472206, 15.132466912721318 ], [ -14.732743133393775, 15.151241156940928 ], [ -14.604666911937745, 15.150416820411047 ], [ -14.570470573110281, 15.099796565454346 ], [ -14.55170584422115, 15.100314704033321 ], [ -14.571456111650658, 15.114776485653023 ], [ -14.494643527634796, 15.37640233479218 ], [ -14.604217687106278, 15.362217599951331 ], [ -14.773950794939381, 15.445117060913757 ], [ -14.72729553280022, 15.500013220768613 ], [ -14.726993881028481, 15.679011227382775 ], [ -14.651091394809388, 15.706758357817405 ], [ -14.522934194914914, 15.815903130021013 ], [ -14.404458443712596, 15.620436511820143 ], [ -14.421680842559734, 15.496309517811577 ] ] ] } },
{ "type": "Feature", "properties": { "loc": "SN-A2-1901" }, "geometry": { "type": "Polygon", "coordinates": [ [ [ -16.592143904329973, 15.665371127656636 ], [ -16.485477307202093, 15.642150742578609 ], [ -16.45560903710426, 15.658921470220866 ], [ -16.434750479542817, 15.632262882643333 ], [ -16.374553669075389, 15.618812655034409 ], [ -16.340918101689653, 15.59729411164591 ], [ -16.323475115806588, 15.519250090796922 ], [ -16.307989462791753, 15.516905279111304 ], [ -16.321229728470612, 15.50095443055225 ], [ -16.21529483771458, 15.425145662613138 ], [ -16.100394548641653, 15.391918037686414 ], [ -15.976316671912752, 15.389560343436537 ], [ -15.941914054461417, 15.403244682913398 ], [ -15.935900174087283, 15.378595748544067 ], [ -15.817730288137113, 15.364505349974634 ], [ -15.803442615654742, 14.9978664535252 ], [ -15.86196714746422, 15.051245752345855 ], [ -15.863458622401996, 15.016508354406477 ], [ -15.90263738576623, 14.983525485839378 ], [ -15.988424633153667, 14.972076357481024 ], [ -15.99731247715204, 14.955313557500938 ], [ -16.17704018444617, 14.962870330187917 ], [ -16.196807959284712, 15.093412981956911 ], [ -16.236420579150693, 15.124658083987386 ], [ -16.275993202846831, 15.259556159271115 ], [ -16.301652758246313, 15.272255327999529 ], [ -16.323730140196638, 15.251255088403981 ], [ -16.345041067208779, 15.271483827035881 ], [ -16.334560493318698, 15.295663352590728 ], [ -16.351452221089982, 15.321275087830999 ], [ -16.415263904119673, 15.325843236667181 ], [ -16.450863061245283, 15.35906947182818 ], [ -16.502030416673488, 15.308285674371403 ], [ -16.612793789069105, 15.145696486720118 ], [ -16.613305796604585, 15.189076267254398 ], [ -16.633800662444401, 15.222618264686039 ], [ -16.743167654424365, 15.302613214038752 ], [ -16.688674001103923, 15.422565285091883 ], [ -16.72440904011874, 15.459866612985918 ], [ -16.592143904329973, 15.665371127656636 ] ] ] } },
{ "type": "Feature", "properties": { "loc": "SN-A2-1902" }, "geometry": { "type": "Polygon", "coordinates": [ [ [ -15.182401021120587, 16.003153387272242 ], [ -14.86335768081706, 15.999928299326385 ], [ -14.754381457928492, 15.94104074876336 ], [ -14.594400755265838, 15.933603098340257 ], [ -14.522934194914885, 15.815903130021027 ], [ -14.65109139480936, 15.706758357817419 ], [ -14.726993881028452, 15.679011227382789 ], [ -14.727295532800191, 15.500013220768627 ], [ -14.773950794939353, 15.445117060913772 ], [ -14.604217687106249, 15.362217599951345 ], [ -14.494643527634768, 15.376402334792195 ], [ -14.57145611165063, 15.114776485653037 ], [ -14.551705844221122, 15.100314704033336 ], [ -14.565541886893055, 15.09519670302465 ], [ -14.597538067288632, 15.147776004138203 ], [ -14.620677689383868, 15.151881480159124 ], [ -14.732743133393747, 15.151241156940943 ], [ -14.737693945472177, 15.132466912721332 ], [ -14.810894115260645, 15.112287129810865 ], [ -14.855716120338805, 15.033414259081946 ], [ -14.85836091813966, 14.983714306734386 ], [ -14.780269645064273, 14.870754553563204 ], [ -14.730328666818984, 14.875644776423103 ], [ -14.733991365928059, 14.85747846501434 ], [ -14.789946223084829, 14.808101444044064 ], [ -14.818461719758272, 14.694794823369984 ], [ -14.849574341880992, 14.655057278615081 ], [ -14.868636049248643, 14.655080117145081 ], [ -14.909470928150739, 14.701923116400673 ], [ -15.016239659114142, 14.634804907098287 ], [ -15.022905354483765, 14.609702811458314 ], [ -15.309325524979059, 14.662087012560788 ], [ -15.445799910826732, 14.744458089665391 ], [ -15.437101324499405, 14.824100257048778 ], [ -15.488400640127356, 14.840075552561183 ], [ -15.543244572376683, 14.823713761576618 ], [ -15.630668324958233, 14.866933370002966 ], [ -15.672636599978265, 14.869463200857014 ], [ -15.677294237749553, 14.854557072240782 ], [ -15.687553796352674, 14.88146581575579 ], [ -15.635405555229578, 14.888375350049932 ], [ -15.666368320981253, 14.942109369746904 ], [ -15.745662004591157, 14.898402747322359 ], [ -15.802312949839539, 14.968784987587059 ], [ -15.817730288137113, 15.364505349974634 ], [ -15.618908258322264, 15.691707330714644 ], [ -15.596773449910753, 15.697683439253341 ], [ -15.580135166239842, 15.78279567170954 ], [ -15.580195992882764, 15.927229770066944 ], [ -15.539849894630933, 15.900584707338297 ], [ -15.502495562304055, 15.898498368236549 ], [ -15.425758855975083, 15.931577652536646 ], [ -15.418943301570412, 16.000109192549274 ], [ -15.319972729599687, 16.004070615515378 ], [ -15.219951139436041, 16.029329570504505 ], [ -15.182401021120587, 16.003153387272242 ] ] ] } },
{ "type": "Feature", "properties": { "loc": "SN-A2-1903" }, "geometry": { "type": "Polygon", "coordinates": [ [ [ -15.580195992882764, 15.927229770066944 ], [ -15.580135166239842, 15.78279567170954 ], [ -15.596773449910753, 15.697683439253341 ], [ -15.618908258322264, 15.691707330714644 ], [ -15.817730288137113, 15.364505349974634 ], [ -15.935900174087283, 15.378595748544067 ], [ -15.941914054461417, 15.403244682913398 ], [ -15.976316671912752, 15.389560343436537 ], [ -16.100394548641653, 15.391918037686414 ], [ -16.21529483771458, 15.425145662613138 ], [ -16.321229728470612, 15.50095443055225 ], [ -16.307989462791753, 15.516905279111304 ], [ -16.323475115806588, 15.519250090796922 ], [ -16.340918101689653, 15.59729411164591 ], [ -16.367347977424565, 15.615178974136457 ], [ -16.434750479542817, 15.632262882643333 ], [ -16.45560903710426, 15.658921470220866 ], [ -16.485477307202093, 15.642150742578609 ], [ -16.592143904329973, 15.665371127656636 ], [ -16.536628578069326, 15.801538856329991 ], [ -16.460615919509028, 15.836086891945058 ], [ -16.325430296709545, 15.832464343212607 ], [ -16.166622740968453, 15.964952439411952 ], [ -16.139279861445946, 16.003939014195314 ], [ -15.926202432766104, 16.101823472574708 ], [ -15.831413651047857, 16.184094078526403 ], [ -15.580195992882764, 15.927229770066944 ] ] ] } },
{ "type": "Feature", "properties": { "loc": "SN-A2-2001" }, "geometry": { "type": "Polygon", "coordinates": [ [ [ -15.044134974665393, 13.059915649970788 ], [ -14.958286882167052, 13.056262811527775 ], [ -14.92860112864334, 12.989887465943484 ], [ -14.938708484419053, 12.937814052342345 ], [ -14.927328417141819, 12.917970184423167 ], [ -14.905206654545491, 12.919848510757637 ], [ -14.892584361444808, 12.90095894236204 ], [ -14.843501074320756, 12.915670474269925 ], [ -14.801970275624868, 12.86734727230966 ], [ -14.727165241969978, 12.921036686007115 ], [ -14.691690799391147, 12.922196506575323 ], [ -14.652908340066631, 12.986228222267416 ], [ -14.59991671083343, 12.991842087050943 ], [ -14.548780211461601, 13.045074882548169 ], [ -14.514951135029833, 13.053559902739343 ], [ -14.477621511292885, 13.02843879520722 ], [ -14.422797062400797, 13.042845537223913 ], [ -14.407531707373458, 13.020312791792799 ], [ -14.3281297238427, 13.054435261045361 ], [ -14.245064266087695, 13.042721779573297 ], [ -14.221900540283386, 13.021106264373861 ], [ -14.173380910682745, 13.010829271287195 ], [ -14.139163152978032, 13.023548314704881 ], [ -14.108382515500598, 12.961353595859427 ], [ -14.146257150624411, 12.933275603405859 ], [ -14.173873551707075, 12.932820843028859 ], [ -14.143835946068631, 12.802268729776534 ], [ -14.170189861996832, 12.820023357721089 ], [ -14.201362422493993, 12.808509834002669 ], [ -14.209838562164315, 12.831204980300404 ], [ -14.223973341548415, 12.84092097548667 ], [ -14.233133726963423, 12.805689320746383 ], [ -14.268962037138369, 12.79366110482133 ], [ -14.269877636927689, 12.771203947518417 ], [ -14.294923900068238, 12.768216861918747 ], [ -14.292764791459003, 12.718590516133899 ], [ -14.311567671927097, 12.72270679779991 ], [ -14.337929060999357, 12.702532635511721 ], [ -14.324221205222479, 12.676483968883668 ], [ -15.117190114999815, 12.679618623000122 ], [ -15.155012457814301, 12.73878390030937 ], [ -15.115257301386123, 12.814045266021912 ], [ -15.111262059722844, 12.896290134190059 ], [ -15.156866565573626, 12.946200784565798 ], [ -15.166842318173959, 12.975472624277485 ], [ -15.156634380337611, 13.00701535907306 ], [ -15.177271133790551, 13.026212101668067 ], [ -15.044134974665393, 13.059915649970788 ] ] ] } },
{ "type": "Feature", "properties": { "loc": "SN-A2-2002" }, "geometry": { "type": "Polygon", "coordinates": [ [ [ -13.819202402936639, 13.546387607567246 ], [ -13.786759477832902, 13.542489484326159 ], [ -13.803898015515362, 13.468745450993181 ], [ -13.770916199199437, 13.483964225406309 ], [ -13.716979059143089, 13.465966245538519 ], [ -13.7565837541364, 13.434730381290761 ], [ -13.747706280679431, 13.404770323270066 ], [ -13.772949534985582, 13.374498742683672 ], [ -13.671980907592054, 13.381085404246152 ], [ -13.703061396999974, 13.339632751185293 ], [ -13.663266003389587, 13.342020630270602 ], [ -13.682886352948145, 13.283804050378778 ], [ -13.641700059448272, 13.277395042582929 ], [ -13.644207381993414, 13.247990293346968 ], [ -13.607460591716539, 13.237901362403226 ], [ -13.600730594125412, 13.210789385634525 ], [ -13.615566515139246, 13.173379251344242 ], [ -13.601474818979778, 13.156143434836787 ], [ -13.616293377689839, 13.132610604982931 ], [ -13.593049011741545, 13.130857299107957 ], [ -13.598541354918517, 13.112228324230058 ], [ -13.582111887116291, 13.085342299213776 ], [ -13.573478041989542, 13.092083858977988 ], [ -13.575697333190664, 13.066954370246398 ], [ -13.556734162101883, 13.075357009919875 ], [ -13.555069380221177, 13.052411906045725 ], [ -13.519814738714356, 13.035859322783805 ], [ -13.532075766779464, 13.00621343063918 ], [ -13.513602881496148, 13.015347140094347 ], [ -13.500797100703846, 13.002906847404939 ], [ -13.50964851654102, 12.988971873621614 ], [ -13.492315465360896, 12.969336678284138 ], [ -13.513658735083414, 12.953232669062887 ], [ -13.491814948783912, 12.945296657948846 ], [ -13.505243086434085, 12.93011452165892 ], [ -13.498772496010172, 12.911553375270158 ], [ -13.462296961182954, 12.897871948989204 ], [ -13.472780055208514, 12.875911076823099 ], [ -13.449915919240699, 12.850898117964283 ], [ -13.477095728380409, 12.850894504146416 ], [ -13.457297282727357, 12.768867471102608 ], [ -13.468407530127749, 12.696293774343593 ], [ -13.44439292751585, 12.702130632665598 ], [ -13.432304798617814, 12.677459793727975 ], [ -13.36169849287672, 12.695922199176513 ], [ -13.36016019895381, 12.660129878332638 ], [ -13.578740119999846, 12.674980164000116 ], [ -14.324497238623593, 12.676630934010847 ], [ -14.337929060999357, 12.702532635511721 ], [ -14.311567671927097, 12.72270679779991 ], [ -14.292764791459003, 12.718590516133899 ], [ -14.294923900068238, 12.768216861918747 ], [ -14.269877636927689, 12.771203947518417 ], [ -14.268962037138369, 12.79366110482133 ], [ -14.233133726963423, 12.805689320746383 ], [ -14.223973341548415, 12.84092097548667 ], [ -14.201362422493993, 12.808509834002669 ], [ -14.170189861996832, 12.820023357721089 ], [ -14.143835946068631, 12.802268729776534 ], [ -14.173873551707075, 12.932820843028859 ], [ -14.146257150624411, 12.933275603405859 ], [ -14.108320387616782, 12.962781979919347 ], [ -14.139163152978032, 13.023548314704881 ], [ -14.173380910682745, 13.010829271287195 ], [ -14.221900540283386, 13.021106264373861 ], [ -14.245064266087695, 13.042721779573297 ], [ -14.308939841539051, 13.046444632864452 ], [ -14.318972510548747, 13.070813680688643 ], [ -14.306413198765558, 13.141509408873942 ], [ -14.348746188951836, 13.228377475425679 ], [ -14.279740333999882, 13.236200333000115 ], [ -14.239130019999926, 13.215689659000097 ], [ -14.141989707999894, 13.221719742000049 ], [ -14.113909720999843, 13.275810242000075 ], [ -13.868249892999909, 13.32248973800011 ], [ -13.817930221999866, 13.366160393000149 ], [ -13.797789573999822, 13.423589706000117 ], [ -13.862061935999861, 13.50822084000013 ], [ -13.830505540424578, 13.504310155684108 ], [ -13.819202402936639, 13.546387607567246 ] ] ] } },
{ "type": "Feature", "properties": { "loc": "SN-A2-2003" }, "geometry": { "type": "Polygon", "coordinates": [ [ [ -15.110600470999927, 13.589460373000096 ], [ -15.048310279999935, 13.523369789000073 ], [ -14.940440177999939, 13.456469536000027 ], [ -14.768790244999888, 13.413060188000115 ], [ -14.733750342999866, 13.373929977000055 ], [ -14.659720420999836, 13.334340096000064 ], [ -14.587739943999825, 13.344829559000127 ], [ -14.546919822999918, 13.31056976300008 ], [ -14.463820456999901, 13.295169830000065 ], [ -14.409449576999858, 13.244020462000028 ], [ -14.348746188951836, 13.228377475425679 ], [ -14.306413198765558, 13.141509408873942 ], [ -14.314341126073973, 13.053883686962509 ], [ -14.407531707373458, 13.020312791792799 ], [ -14.422797062400797, 13.042845537223913 ], [ -14.477621511292885, 13.02843879520722 ], [ -14.511519386556795, 13.053915142025241 ], [ -14.542944115633219, 13.048980015058865 ], [ -14.59991671083343, 12.991842087050943 ], [ -14.652908340066631, 12.986228222267416 ], [ -14.691690799391147, 12.922196506575323 ], [ -14.727165241969978, 12.921036686007115 ], [ -14.801970275624868, 12.86734727230966 ], [ -14.843501074320756, 12.915670474269925 ], [ -14.892584361444808, 12.90095894236204 ], [ -14.905206654545491, 12.919848510757637 ], [ -14.927328417141819, 12.917970184423167 ], [ -14.938708484419053, 12.937814052342345 ], [ -14.928935398275314, 12.991909735108321 ], [ -14.960021640460244, 13.057230651686369 ], [ -15.044134974665393, 13.059915649970788 ], [ -15.177271133790551, 13.026212101668067 ], [ -15.228243749429396, 13.047501531906869 ], [ -15.253539594082113, 13.178300070696414 ], [ -15.302687939344064, 13.18464884859768 ], [ -15.351464287030339, 13.226076629605322 ], [ -15.337967457089821, 13.349080500396349 ], [ -15.281080245999881, 13.369379997000086 ], [ -15.235910415999879, 13.413009644000107 ], [ -15.205760001999849, 13.520350456000097 ], [ -15.166879653999857, 13.562950134000074 ], [ -15.110600470999927, 13.589460373000096 ] ] ] } },
{ "type": "Feature", "properties": { "loc": "SN-A2-2101" }, "geometry": { "type": "Polygon", "coordinates": [ [ [ -15.510430335999928, 13.387020111000092 ], [ -15.383830069999885, 13.343549728000104 ], [ -15.337967457089821, 13.349080500396349 ], [ -15.351464287030339, 13.226076629605322 ], [ -15.302687939344064, 13.18464884859768 ], [ -15.253539594082113, 13.178300070696414 ], [ -15.228243749429396, 13.047501531906869 ], [ -15.368353937210458, 13.026478977119671 ], [ -15.63359322854965, 12.902906048020613 ], [ -15.753506251357166, 12.883252711943294 ], [ -15.7707805386502, 12.940458880785178 ], [ -15.844676993148024, 12.939318721666593 ], [ -15.915560878709758, 12.902593336504465 ], [ -15.926919834115008, 12.881726685545869 ], [ -15.984107581929077, 12.894348080637686 ], [ -15.986938706475787, 12.939384725381442 ], [ -15.943086139931253, 12.986348715241503 ], [ -15.899674054585169, 13.071971393890214 ], [ -15.900376395124496, 13.092684499220598 ], [ -15.927296896826729, 13.096260032622309 ], [ -15.932482232110726, 13.118683622177352 ], [ -15.894683647867705, 13.159408837134057 ], [ -15.812259673999865, 13.159099579000111 ], [ -15.807809829999922, 13.341090202000084 ], [ -15.670900344999897, 13.358400345000055 ], [ -15.587639808999867, 13.338040352000069 ], [ -15.510430335999928, 13.387020111000092 ] ] ] } },
{ "type": "Feature", "properties": { "loc": "SN-A2-2102" }, "geometry": { "type": "Polygon", "coordinates": [ [ [ -15.272417662381901, 12.860871519097506 ], [ -15.233154834520615, 12.805982471632793 ], [ -15.188792573596846, 12.816350536440114 ], [ -15.126408124094784, 12.79752793847887 ], [ -15.155012457814301, 12.73878390030937 ], [ -15.117190114999815, 12.679618623000122 ], [ -15.179249762999827, 12.680789948000049 ], [ -15.235179900999832, 12.659549713000063 ], [ -15.329830169999894, 12.611760139000106 ], [ -15.452139853999849, 12.522359848000109 ], [ -15.665849685999891, 12.428299904000129 ], [ -15.887789922950393, 12.444533232776267 ], [ -15.892447598413931, 12.466371417333944 ], [ -15.921589301469321, 12.463896628230698 ], [ -15.920694228610291, 12.510254630193563 ], [ -15.953077555358444, 12.543078170217415 ], [ -15.966131432573352, 12.625503183094134 ], [ -15.902641887851868, 12.579723327672577 ], [ -15.85819475514392, 12.594950504623393 ], [ -15.814835418083575, 12.567756138755238 ], [ -15.763690228011232, 12.601746301841599 ], [ -15.682548379658659, 12.591748967291794 ], [ -15.654530736593156, 12.542731895469428 ], [ -15.628050581042288, 12.53833942103636 ], [ -15.567662348516389, 12.581930355300342 ], [ -15.526618167053588, 12.636863465220161 ], [ -15.54593106579614, 12.739734586142804 ], [ -15.520221193403152, 12.80238558508765 ], [ -15.482270130379241, 12.791492546238493 ], [ -15.437953364552939, 12.828416246918318 ], [ -15.387534383587667, 12.805131421333849 ], [ -15.369209595226099, 12.843305367915415 ], [ -15.272417662381901, 12.860871519097506 ] ] ] } },
{ "type": "Feature", "properties": { "loc": "SN-A2-2103" }, "geometry": { "type": "Polygon", "coordinates": [ [ [ -15.22492501136681, 13.04931296087396 ], [ -15.160161912209283, 13.014500543679508 ], [ -15.1578784248007, 12.948512850077021 ], [ -15.111670865193474, 12.897720978817906 ], [ -15.126408124094784, 12.79752793847887 ], [ -15.188792573596846, 12.816350536440114 ], [ -15.233154834520615, 12.805982471632793 ], [ -15.277701326227902, 12.862524187598757 ], [ -15.369209595226099, 12.843305367915415 ], [ -15.387534383587667, 12.805131421333849 ], [ -15.437953364552939, 12.828416246918318 ], [ -15.482270130379241, 12.791492546238493 ], [ -15.517537209862578, 12.804162074217141 ], [ -15.54593106579614, 12.739734586142804 ], [ -15.526618167053588, 12.636863465220161 ], [ -15.620790209915672, 12.541402505332345 ], [ -15.654530736593156, 12.542731895469428 ], [ -15.678810009421642, 12.590072066412928 ], [ -15.733890358850314, 12.601575444758096 ], [ -15.777768445456999, 12.597731658004852 ], [ -15.809964136347723, 12.567454426472791 ], [ -15.85819475514392, 12.594950504623393 ], [ -15.899226018714099, 12.578693860372104 ], [ -15.987117185015201, 12.650646072369687 ], [ -16.016794797489744, 12.655258715046925 ], [ -16.022482885812053, 12.749368028731068 ], [ -15.993567576423942, 12.770644737403492 ], [ -16.002782573312604, 12.823022925281025 ], [ -15.977000639585739, 12.846174993840298 ], [ -15.972589758336333, 12.886185877582557 ], [ -15.926919834115008, 12.881726685545869 ], [ -15.915560878709758, 12.902593336504465 ], [ -15.844676993148024, 12.939318721666593 ], [ -15.7707805386502, 12.940458880785178 ], [ -15.753506251357166, 12.883252711943294 ], [ -15.63359322854965, 12.902906048020613 ], [ -15.368353937210458, 13.026478977119671 ], [ -15.22492501136681, 13.04931296087396 ] ] ] } },
{ "type": "Feature", "properties": { "loc": "SN-A2-2201" }, "geometry": { "type": "Polygon", "coordinates": [ [ [ -12.207289695999826, 14.691940308000129 ], [ -12.163840293999886, 14.681019783000105 ], [ -12.180540084999805, 14.657309532000118 ], [ -12.146980285999856, 14.636930466000065 ], [ -12.175209998999861, 14.603560448000097 ], [ -12.191360473999893, 14.549759865000079 ], [ -12.219860076999847, 14.536589622000074 ], [ -12.22539997099992, 14.489709854000077 ], [ -12.195289611999918, 14.430259705000148 ], [ -12.204179763999903, 14.401519775000116 ], [ -12.100150107999877, 14.368880272000107 ], [ -12.097949981999914, 14.334179878000109 ], [ -12.11112976099982, 14.326569557000147 ], [ -12.100480079999912, 14.306369781000095 ], [ -12.024789809999906, 14.281689644000062 ], [ -11.987520217999872, 14.169960022000117 ], [ -12.014380454999898, 14.000280380000108 ], [ -11.940719603999852, 13.921369553000085 ], [ -11.955750464999884, 13.813759804000137 ], [ -12.079429625999907, 13.715889931000047 ], [ -12.031729697999907, 13.610449791000113 ], [ -11.982020377999916, 13.543849945000142 ], [ -11.870510100999823, 13.451339722000045 ], [ -11.893412215398527, 13.382431212377133 ], [ -11.954055164506563, 13.365822816686935 ], [ -12.015291688728016, 13.311079563500206 ], [ -12.033676658771622, 13.328122029369672 ], [ -12.026979300628529, 13.371188319314731 ], [ -12.05336013605989, 13.357606403637268 ], [ -12.1048228910029, 13.375433629306544 ], [ -12.144605241006737, 13.414338034078044 ], [ -12.244168681220138, 13.458222030285627 ], [ -12.336855269311744, 13.524450665906008 ], [ -12.334958421710709, 13.994045307174686 ], [ -12.321351103228942, 14.018116789705404 ], [ -12.343767648750628, 14.083140690979812 ], [ -12.368807811927532, 14.098683005525315 ], [ -12.362943278132946, 14.164365135461876 ], [ -12.480925024569192, 14.164458035691608 ], [ -12.489094047326013, 14.218038389176114 ], [ -12.471782207137164, 14.264741348074528 ], [ -12.48505547791752, 14.284011508641415 ], [ -12.490872396934563, 14.667414946264346 ], [ -12.650973970778725, 14.708694409280499 ], [ -12.585892798807688, 14.905243270050262 ], [ -12.62472887839732, 15.000414509752369 ], [ -12.684510230999837, 15.092370033000114 ], [ -12.666399955999832, 15.10035991700004 ], [ -12.617970466999864, 15.083089828000096 ], [ -12.553669929999892, 15.028679848000104 ], [ -12.481760024999858, 15.002320290000116 ], [ -12.451169967999867, 14.891200066000055 ], [ -12.403059958999865, 14.847749710000125 ], [ -12.336310386999852, 14.824649811000102 ], [ -12.286549567999863, 14.777870178000041 ], [ -12.241920470999926, 14.760609627000088 ], [ -12.207289695999826, 14.691940308000129 ] ] ] } },
{ "type": "Feature", "properties": { "loc": "SN-A2-2202" }, "geometry": { "type": "Polygon", "coordinates": [ [ [ -12.490872396934563, 14.667414946264346 ], [ -12.48505547791752, 14.284011508641415 ], [ -12.471782207137164, 14.264741348074528 ], [ -12.489069764641439, 14.200988427046502 ], [ -12.480925024569192, 14.164458035691608 ], [ -12.362943278132946, 14.164365135461876 ], [ -12.368807811927532, 14.098683005525315 ], [ -12.343767648750628, 14.083140690979812 ], [ -12.321351103228942, 14.018116789705404 ], [ -12.334958421710709, 13.994045307174686 ], [ -12.336855269311744, 13.524450665906008 ], [ -12.244168681220138, 13.458222030285627 ], [ -12.260575096041418, 13.396518771657407 ], [ -12.22213958087848, 13.342171130325243 ], [ -12.23063757719223, 13.322553066478038 ], [ -12.307455976370665, 13.317779211465497 ], [ -12.334198224320428, 13.258727018556671 ], [ -12.37616095249561, 13.293030929090877 ], [ -12.415109464684029, 13.284829318649328 ], [ -12.467710514936517, 13.238089444480961 ], [ -12.460056590815352, 13.281541768289385 ], [ -12.478748655950447, 13.338168070240053 ], [ -12.525992021215007, 13.372298736580246 ], [ -12.581311572982326, 13.457333258735494 ], [ -12.635960851695252, 13.467186760503703 ], [ -12.687196000920967, 13.526181478898758 ], [ -12.755209751036414, 13.563886214483068 ], [ -12.808634612285299, 13.52476121521512 ], [ -12.846966271041651, 13.524370992765833 ], [ -12.857768354690283, 13.495808348520589 ], [ -12.911774882414953, 13.460494365339704 ], [ -12.907017081774288, 13.449104349592956 ], [ -12.973084941667626, 13.424610802677551 ], [ -12.992856909562114, 13.404019091692321 ], [ -12.988256193763917, 13.387695881479134 ], [ -13.022551055566314, 13.38307728465219 ], [ -13.044087203891699, 13.348864245201087 ], [ -13.06488169718423, 13.352458314255101 ], [ -13.05588339222539, 13.37415351047907 ], [ -13.082212563991938, 13.400701128279591 ], [ -13.076538827553044, 13.416456123963306 ], [ -13.091305520289101, 13.418312649459397 ], [ -13.076396627098433, 13.458608618125234 ], [ -13.150569795484326, 13.480151759153925 ], [ -13.202164846897738, 13.478375391869546 ], [ -13.213920396862314, 13.451163179907722 ], [ -13.238646442314586, 13.445489562146518 ], [ -13.236743403686393, 13.429088191147043 ], [ -13.26135424182813, 13.447934243755933 ], [ -13.280427064044378, 13.436060717605114 ], [ -13.281455797454303, 13.453676356337263 ], [ -13.307483533402856, 13.45973713215386 ], [ -13.31069676195338, 13.428356561406874 ], [ -13.327176618368533, 13.42879191044325 ], [ -13.369070972683364, 13.485063111861473 ], [ -13.351230568956865, 13.56541071298002 ], [ -13.459770539998964, 13.596726552901151 ], [ -13.487913655708653, 13.623991381006151 ], [ -13.394080122373378, 13.731809662696682 ], [ -13.382343611437111, 13.765475683984397 ], [ -13.395711349405051, 13.82799979758328 ], [ -13.454225754115637, 13.852111201933715 ], [ -13.49317536676822, 13.899458923035402 ], [ -13.511524529475619, 13.89800769328996 ], [ -13.511429351821327, 13.870879979824425 ], [ -13.531085193303152, 13.861470118520758 ], [ -13.593348015209042, 13.866816785423575 ], [ -13.608372669008098, 13.913495604656701 ], [ -13.628563547714048, 13.885703096043079 ], [ -13.660164438246738, 13.890515884673638 ], [ -13.687430985984708, 13.904269068950049 ], [ -13.704472724143216, 13.949987242855178 ], [ -13.670881046319419, 14.109353120845947 ], [ -13.597631181028838, 14.171773395620979 ], [ -13.568390148897905, 14.235446636138994 ], [ -13.513228522371737, 14.299623939479334 ], [ -13.518366550081875, 14.403535176176463 ], [ -13.243765961543311, 14.611355979628671 ], [ -12.950601361632089, 14.558253232144692 ], [ -12.795214532822044, 14.580423410555133 ], [ -12.719799348543173, 14.613522860999096 ], [ -12.650973970778725, 14.708694409280499 ], [ -12.490872396934563, 14.667414946264346 ] ] ] } },
{ "type": "Feature", "properties": { "loc": "SN-A2-2203" }, "geometry": { "type": "Polygon", "coordinates": [ [ [ -14.307970571124898, 14.580582840407031 ], [ -13.998919199354301, 14.485913224095659 ], [ -13.846158046755821, 14.412251971121693 ], [ -13.783380247526836, 14.410869058085874 ], [ -13.856213479424476, 14.335422532280917 ], [ -13.938821435196516, 14.200611286108911 ], [ -13.967708508199575, 14.181761480033684 ], [ -13.978978076890172, 14.131786944051273 ], [ -13.949916992635661, 14.094718642197924 ], [ -14.169186523820379, 13.915156971992227 ], [ -14.178145148509572, 13.885596468248041 ], [ -14.16540177484509, 13.880353440281235 ], [ -14.180988394852559, 13.863576966988179 ], [ -14.169399578144784, 13.832207672299324 ], [ -14.294521350698755, 13.689192458969346 ], [ -14.358564797706499, 13.686723082419705 ], [ -14.474036432545059, 13.777342593762432 ], [ -14.535620095676574, 13.767769045552958 ], [ -14.561515873534095, 13.71962743695615 ], [ -14.594120052958928, 13.699361228884788 ], [ -14.609485099645816, 13.706391882109193 ], [ -14.63670630498968, 13.648549695269397 ], [ -14.719200133999902, 13.614170074000087 ], [ -14.788960456999892, 13.661840439000128 ], [ -14.800080298999887, 13.721030235000098 ], [ -14.83813624099988, 13.765275133000044 ], [ -14.802304475678898, 13.809367390723571 ], [ -14.720114499287387, 13.817384633053143 ], [ -14.69188578033134, 13.883628622844435 ], [ -14.603327576523053, 13.938218948727277 ], [ -14.582177890725426, 13.995721125329863 ], [ -14.596119926801634, 14.259206384774393 ], [ -14.640274313071203, 14.300996277156431 ], [ -14.624886087088765, 14.564907630924429 ], [ -14.657060715852779, 14.575108310836649 ], [ -14.548400148748566, 14.5604161302057 ], [ -14.447172438110403, 14.580721383489903 ], [ -14.307970571124898, 14.580582840407031 ] ] ] } },
{ "type": "Feature", "properties": { "loc": "SN-A2-2204" }, "geometry": { "type": "Polygon", "coordinates": [ [ [ -13.654393062808293, 14.125344293465981 ], [ -13.69664730182836, 14.016498539861322 ], [ -13.704472724143216, 13.949987242855178 ], [ -13.687430985984708, 13.904269068950049 ], [ -13.629824003866833, 13.885357616300576 ], [ -13.608372669008098, 13.913495604656701 ], [ -13.593348015209042, 13.866816785423575 ], [ -13.533389152001821, 13.861429700280182 ], [ -13.511429351821327, 13.870879979824425 ], [ -13.511524529475619, 13.89800769328996 ], [ -13.49317536676822, 13.899458923035402 ], [ -13.454225754115637, 13.852111201933715 ], [ -13.395711349405051, 13.82799979758328 ], [ -13.382343611437111, 13.765475683984397 ], [ -13.394080122373378, 13.731809662696682 ], [ -13.487913655708653, 13.623991381006151 ], [ -13.459770539998964, 13.596726552901151 ], [ -13.351230568956865, 13.56541071298002 ], [ -13.369070972683364, 13.485063111861473 ], [ -13.327176618368533, 13.42879191044325 ], [ -13.31069676195338, 13.428356561406874 ], [ -13.307483533402856, 13.45973713215386 ], [ -13.281455797454303, 13.453676356337263 ], [ -13.280427064044378, 13.436060717605114 ], [ -13.26135424182813, 13.447934243755933 ], [ -13.236743403686393, 13.429088191147043 ], [ -13.238646442314586, 13.445489562146518 ], [ -13.213920396862314, 13.451163179907722 ], [ -13.202164846897738, 13.478375391869546 ], [ -13.150569795484326, 13.480151759153925 ], [ -13.076396627098433, 13.458608618125234 ], [ -13.091305520289101, 13.418312649459397 ], [ -13.076538827553044, 13.416456123963306 ], [ -13.082212563991938, 13.400701128279591 ], [ -13.05588339222539, 13.37415351047907 ], [ -13.06488169718423, 13.352458314255101 ], [ -13.044087203891699, 13.348864245201087 ], [ -13.022551055566314, 13.38307728465219 ], [ -12.988256193763917, 13.387695881479134 ], [ -12.992856909562114, 13.404019091692321 ], [ -12.973084941667626, 13.424610802677551 ], [ -12.907017081774288, 13.449104349592956 ], [ -12.911774882414953, 13.460494365339704 ], [ -12.857768354690283, 13.495808348520589 ], [ -12.846966271041651, 13.524370992765833 ], [ -12.808634612285299, 13.52476121521512 ], [ -12.755209751036414, 13.563886214483068 ], [ -12.687196000920967, 13.526181478898758 ], [ -12.635960851695252, 13.467186760503703 ], [ -12.581311572982326, 13.457333258735494 ], [ -12.525992021215007, 13.372298736580246 ], [ -12.478748655950447, 13.338168070240053 ], [ -12.460056590815352, 13.281541768289385 ], [ -12.487323517090879, 13.196965215603063 ], [ -12.547831375398058, 13.183366893703264 ], [ -12.592672246300143, 13.209887430127177 ], [ -12.604327605070356, 13.191111653103993 ], [ -12.629853140346039, 13.195966359758094 ], [ -12.674813504714535, 13.174113141870814 ], [ -12.668206559772102, 13.141515047270358 ], [ -12.684357324162868, 13.106491982071178 ], [ -12.719009642685933, 13.090671534086018 ], [ -12.723869083119535, 13.072442109191085 ], [ -12.75835315275933, 13.075591320981095 ], [ -12.77383018154821, 13.036495477910249 ], [ -12.811417042571296, 13.02917083105365 ], [ -12.812317560171696, 12.996780574451472 ], [ -12.835440619289276, 13.015925808004559 ], [ -12.864240003121388, 13.015161489906946 ], [ -12.899306723880802, 13.05040492231816 ], [ -12.912384813562852, 13.042963552181897 ], [ -12.934629452097315, 13.066116133114869 ], [ -12.929043439145474, 13.080287142529679 ], [ -12.965410011921577, 13.069568640455065 ], [ -12.990346916737419, 13.081142213490383 ], [ -13.023217170466086, 13.056569173770816 ], [ -13.049970936479241, 13.064825113492374 ], [ -13.084709536484088, 13.028913221314065 ], [ -13.125183850096558, 13.052618469248268 ], [ -13.166048910685671, 13.050742185601861 ], [ -13.1701100202988, 13.065134261009026 ], [ -13.207280098655819, 13.050462872030211 ], [ -13.208721349493427, 13.029547149795151 ], [ -13.238212149564557, 13.012710014544504 ], [ -13.21196905111475, 13.004739082085004 ], [ -13.143305579701384, 12.928992778928661 ], [ -13.152569173200781, 12.896148146008491 ], [ -13.178077236929767, 12.896706668872804 ], [ -13.168631951199863, 12.869008551583006 ], [ -13.140824850262447, 12.855634662190363 ], [ -13.147294911540655, 12.833815084224154 ], [ -13.0962123135449, 12.817533502986523 ], [ -13.116215291865821, 12.765651201743234 ], [ -13.089052247964997, 12.702736817051575 ], [ -13.115777473343229, 12.679003112122922 ], [ -13.12342212699982, 12.637133903000064 ], [ -13.187700271999894, 12.627759933000105 ], [ -13.213350295999884, 12.648770332000081 ], [ -13.232970237999922, 12.639679909000046 ], [ -13.287859916999903, 12.652460098000107 ], [ -13.324090003999814, 12.641719818000075 ], [ -13.36016019895381, 12.660129878332638 ], [ -13.36169849287672, 12.695922199176513 ], [ -13.432304798617814, 12.677459793727975 ], [ -13.44439292751585, 12.702130632665598 ], [ -13.468407530127749, 12.696293774343593 ], [ -13.457297282727357, 12.768867471102608 ], [ -13.477095728380409, 12.850894504146416 ], [ -13.449915919240699, 12.850898117964283 ], [ -13.472780055208514, 12.875911076823099 ], [ -13.462296961182954, 12.897871948989204 ], [ -13.498772496010172, 12.911553375270158 ], [ -13.505243086434085, 12.93011452165892 ], [ -13.491814948783912, 12.945296657948846 ], [ -13.513658735083414, 12.953232669062887 ], [ -13.492315465360896, 12.969336678284138 ], [ -13.50964851654102, 12.988971873621614 ], [ -13.500797100703846, 13.002906847404939 ], [ -13.513602881496148, 13.015347140094347 ], [ -13.532075766779464, 13.00621343063918 ], [ -13.519814738714356, 13.035859322783805 ], [ -13.555069380221177, 13.052411906045725 ], [ -13.556734162101883, 13.075357009919875 ], [ -13.575697333190664, 13.066954370246398 ], [ -13.573478041989542, 13.092083858977988 ], [ -13.582111887116291, 13.085342299213776 ], [ -13.598541354918517, 13.112228324230058 ], [ -13.593049011741545, 13.130857299107957 ], [ -13.616293377689839, 13.132610604982931 ], [ -13.601474818979778, 13.156143434836787 ], [ -13.615566515139246, 13.173379251344242 ], [ -13.600730594125412, 13.210789385634525 ], [ -13.607460591716539, 13.237901362403226 ], [ -13.644207381993414, 13.247990293346968 ], [ -13.641700059448272, 13.277395042582929 ], [ -13.682886352948145, 13.283804050378778 ], [ -13.663266003389587, 13.342020630270602 ], [ -13.703061396999974, 13.339632751185293 ], [ -13.671980907592054, 13.381085404246152 ], [ -13.772949534985582, 13.374498742683672 ], [ -13.747706280679431, 13.404770323270066 ], [ -13.7565837541364, 13.434730381290761 ], [ -13.716979059143089, 13.465966245538519 ], [ -13.770916199199437, 13.483964225406309 ], [ -13.803898015515362, 13.468745450993181 ], [ -13.78744571562989, 13.543713282872394 ], [ -13.819202402936639, 13.546387607567246 ], [ -13.83334637691063, 13.503383161127436 ], [ -13.964469909999913, 13.573399544000109 ], [ -14.034990310999909, 13.549289703000101 ], [ -14.124959945999851, 13.543129921000075 ], [ -14.24715995799988, 13.475919724000052 ], [ -14.333200454999886, 13.457090378000148 ], [ -14.446940421999901, 13.516799927000134 ], [ -14.490670203999859, 13.59609985400011 ], [ -14.532990455999897, 13.635180473000064 ], [ -14.580960273999935, 13.65417957300007 ], [ -14.63670630498968, 13.648549695269397 ], [ -14.609485099645816, 13.706391882109193 ], [ -14.594120052958928, 13.699361228884788 ], [ -14.561515873534095, 13.71962743695615 ], [ -14.535620095676574, 13.767769045552958 ], [ -14.474036432545059, 13.777342593762432 ], [ -14.358564797706499, 13.686723082419705 ], [ -14.294521350698755, 13.689192458969346 ], [ -14.169399578144784, 13.832207672299324 ], [ -14.180988394852559, 13.863576966988179 ], [ -14.16540177484509, 13.880353440281235 ], [ -14.178145148509572, 13.885596468248041 ], [ -14.169186523820379, 13.915156971992227 ], [ -13.949916992635661, 14.094718642197924 ], [ -13.978978076890172, 14.131786944051273 ], [ -13.967708508199575, 14.181761480033684 ], [ -13.938821435196516, 14.200611286108911 ], [ -13.856213479424476, 14.335422532280917 ], [ -13.783380247526836, 14.410869058085874 ], [ -13.51723599636048, 14.40481162468158 ], [ -13.513228522371737, 14.299623939479334 ], [ -13.568390148897905, 14.235446636138994 ], [ -13.597631181028838, 14.171773395620979 ], [ -13.654393062808293, 14.125344293465981 ] ] ] } },
{ "type": "Feature", "properties": { "loc": "SN-A2-2301" }, "geometry": { "type": "Polygon", "coordinates": [ [ [ -12.592672246300143, 13.209887430127177 ], [ -12.547831375398058, 13.183366893703264 ], [ -12.501150948857667, 13.197471003209261 ], [ -12.472011989694323, 13.183037748885996 ], [ -12.456628903357927, 13.116235206538763 ], [ -12.395751271421254, 13.08415926096197 ], [ -12.394952142653739, 13.011785843064006 ], [ -12.368086880531973, 13.00298641977159 ], [ -12.329237780254967, 13.025997256617694 ], [ -12.278405447574794, 13.000016402448844 ], [ -12.248306642072595, 12.961697102675485 ], [ -12.193331606225691, 12.945021263565282 ], [ -12.175697264444477, 12.887472289661284 ], [ -12.100817306947878, 12.865652017241425 ], [ -12.069218232324566, 12.812019027798927 ], [ -12.026619997892077, 12.782385183030554 ], [ -12.012390299125133, 12.752048216636192 ], [ -12.022454488774439, 12.743554530889812 ], [ -11.974043688508143, 12.716908489974744 ], [ -11.874479413799868, 12.725717695783201 ], [ -11.795065318124223, 12.7066085865858 ], [ -11.727628826557204, 12.648942566020283 ], [ -11.734114835095458, 12.618920938868728 ], [ -11.867843491462374, 12.419951226436277 ], [ -11.912679671999829, 12.430390358000077 ], [ -12.016759871999863, 12.396590233000049 ], [ -12.049610137999903, 12.423190117000116 ], [ -12.096839904999815, 12.42131042500011 ], [ -12.159190177999893, 12.368049622000077 ], [ -12.234760283999904, 12.355059624000154 ], [ -12.3532199859999, 12.307279587000098 ], [ -12.400369643999845, 12.365469933000062 ], [ -12.388915526540092, 12.394867641079832 ], [ -12.404690310926838, 12.437283013956469 ], [ -12.452569223661872, 12.434295843906751 ], [ -12.476922841998952, 12.469445777035249 ], [ -12.517031458520325, 12.483697190126753 ], [ -12.541027583118527, 12.531751980857331 ], [ -12.538737981582873, 12.610900381953927 ], [ -12.597725755699177, 12.654621590466276 ], [ -12.574636131384167, 12.694666801944743 ], [ -12.616889129504763, 12.719283612753197 ], [ -12.619023207336991, 12.748995583722722 ], [ -12.693434187590594, 12.730462373848217 ], [ -12.704094692160186, 12.698718987917468 ], [ -12.765958072390429, 12.705816740817555 ], [ -12.814394740329352, 12.729517554059411 ], [ -12.840015551874842, 12.764169164026329 ], [ -12.851787865967637, 12.753673699438062 ], [ -12.856159778223855, 12.787679755433635 ], [ -12.881819131739938, 12.794845853273562 ], [ -12.928017012612905, 12.762289570354868 ], [ -12.937824046419813, 12.785990485541133 ], [ -12.978962099502603, 12.807747691835869 ], [ -12.988818700630958, 12.796967654250968 ], [ -12.990902770549997, 12.837257111050738 ], [ -13.007619923765848, 12.83490805637827 ], [ -13.027192921843536, 12.789937019481313 ], [ -13.070122427430622, 12.784425165751346 ], [ -13.079032865224452, 12.799385251530849 ], [ -13.088853530042524, 12.784498307952441 ], [ -13.107668443977374, 12.805395148955546 ], [ -13.101120613576914, 12.826236737414954 ], [ -13.147294911540655, 12.833815084224154 ], [ -13.14141640809077, 12.856615011641759 ], [ -13.168631951199863, 12.869008551583006 ], [ -13.178077236929767, 12.896706668872804 ], [ -13.152569173200781, 12.896148146008491 ], [ -13.143305579701384, 12.928992778928661 ], [ -13.21196905111475, 13.004739082085004 ], [ -13.238212149564557, 13.012710014544504 ], [ -13.208721349493427, 13.029547149795151 ], [ -13.207280098655819, 13.050462872030211 ], [ -13.1701100202988, 13.065134261009026 ], [ -13.166048910685671, 13.050742185601861 ], [ -13.125183850096558, 13.052618469248268 ], [ -13.084709536484088, 13.028913221314065 ], [ -13.049970936479241, 13.064825113492374 ], [ -13.023217170466086, 13.056569173770816 ], [ -12.990346916737419, 13.081142213490383 ], [ -12.965410011921577, 13.069568640455065 ], [ -12.929043439145474, 13.080287142529679 ], [ -12.934629452097315, 13.066116133114869 ], [ -12.912384813562852, 13.042963552181897 ], [ -12.899306723880802, 13.05040492231816 ], [ -12.864240003121388, 13.015161489906946 ], [ -12.835440619289276, 13.015925808004559 ], [ -12.812317560171696, 12.996780574451472 ], [ -12.811417042571296, 13.02917083105365 ], [ -12.77383018154821, 13.036495477910249 ], [ -12.75835315275933, 13.075591320981095 ], [ -12.723869083119535, 13.072442109191085 ], [ -12.719009642685933, 13.090671534086018 ], [ -12.684357324162868, 13.106491982071178 ], [ -12.668206559772102, 13.141515047270358 ], [ -12.675343483025728, 13.173711332651939 ], [ -12.629853140346039, 13.195966359758094 ], [ -12.604327605070356, 13.191111653103993 ], [ -12.592672246300143, 13.209887430127177 ] ] ] } },
{ "type": "Feature", "properties": { "loc": "SN-A2-2302" }, "geometry": { "type": "Polygon", "coordinates": [ [ [ -12.998660411137333, 12.805483946290009 ], [ -12.937824046419813, 12.785990485541133 ], [ -12.928017012612905, 12.762289570354868 ], [ -12.881819131739938, 12.794845853273562 ], [ -12.856159778223855, 12.787679755433635 ], [ -12.851787865967637, 12.753673699438062 ], [ -12.840015551874842, 12.764169164026329 ], [ -12.810441091302696, 12.726683445454102 ], [ -12.738318953629005, 12.700422619844643 ], [ -12.700048756194285, 12.700347756184927 ], [ -12.693434187590594, 12.730462373848217 ], [ -12.619023207336991, 12.748995583722722 ], [ -12.616889129504763, 12.719283612753197 ], [ -12.574636131384167, 12.694666801944743 ], [ -12.597725755699177, 12.654621590466276 ], [ -12.538737981582873, 12.610900381953927 ], [ -12.541027583118527, 12.531751980857331 ], [ -12.517031458520325, 12.483697190126753 ], [ -12.476922841998952, 12.469445777035249 ], [ -12.452569223661872, 12.434295843906751 ], [ -12.404690310926838, 12.437283013956469 ], [ -12.391552330837488, 12.376480547094671 ], [ -12.400369643999845, 12.365469933000062 ], [ -12.48935985599984, 12.40060997000011 ], [ -12.564579963999936, 12.368559837000104 ], [ -12.633939742999914, 12.431280136000067 ], [ -12.755450248999825, 12.435070038000118 ], [ -12.771829604999876, 12.470899582000106 ], [ -12.834179877999865, 12.486880302000126 ], [ -12.845589637999868, 12.51558017700013 ], [ -12.887649535999859, 12.540650368000106 ], [ -12.930910109999896, 12.530520439000037 ], [ -12.939550399999902, 12.487460136000051 ], [ -12.96864986399984, 12.461669922000096 ], [ -13.060600280999893, 12.47780990600006 ], [ -13.076589583999823, 12.529709816000112 ], [ -13.050900458999884, 12.582059860000106 ], [ -13.056730269999875, 12.619290352000101 ], [ -13.07347011599991, 12.638990402000106 ], [ -13.097279548999932, 12.625749588000124 ], [ -13.12342212699982, 12.637133903000064 ], [ -13.115777473343229, 12.679003112122922 ], [ -13.089052247964997, 12.702736817051575 ], [ -13.116565132618366, 12.77933788951916 ], [ -13.103366464929625, 12.794436823648814 ], [ -13.080743398824193, 12.784023649120469 ], [ -13.079032865224452, 12.799385251530849 ], [ -13.070122427430622, 12.784425165751346 ], [ -13.027192921843536, 12.789937019481313 ], [ -13.006087680438963, 12.836496134477516 ], [ -12.984617752088504, 12.835383341411733 ], [ -12.998660411137333, 12.805483946290009 ] ] ] } },
{ "type": "Feature", "properties": { "loc": "SN-A2-2303" }, "geometry": { "type": "Polygon", "coordinates": [ [ [ -12.239985223830033, 13.460664709698323 ], [ -12.144605241006737, 13.414338034078044 ], [ -12.1048228910029, 13.375433629306544 ], [ -12.05336013605989, 13.357606403637268 ], [ -12.026979300628529, 13.371188319314731 ], [ -12.033676658771622, 13.328122029369672 ], [ -12.020732905800038, 13.31181180789679 ], [ -11.954055164506563, 13.365822816686935 ], [ -11.893412215398527, 13.382431212377133 ], [ -11.854410171999888, 13.352250099000107 ], [ -11.838629722999919, 13.309720039000117 ], [ -11.812560080999937, 13.303770065000043 ], [ -11.77293014499983, 13.338109970000056 ], [ -11.742509841999851, 13.40933990500014 ], [ -11.708230018999835, 13.402680397000067 ], [ -11.69841957099991, 13.382920265000065 ], [ -11.63700008399984, 13.387370110000097 ], [ -11.644009589999918, 13.355620384000078 ], [ -11.604800223999881, 13.358849525000094 ], [ -11.597029685999896, 13.304120064000136 ], [ -11.534210204999809, 13.250820160000066 ], [ -11.54811000799987, 13.202619553000117 ], [ -11.50920009599983, 13.185259819000128 ], [ -11.522439956999911, 13.146019936000142 ], [ -11.481780051999849, 13.094519615000111 ], [ -11.436889647999873, 13.07968998000012 ], [ -11.440730094999843, 13.053279877000124 ], [ -11.407910346999842, 13.006270409000143 ], [ -11.420350074999888, 12.966950417000101 ], [ -11.393159865999827, 12.959569931000148 ], [ -11.383060454999885, 12.990389824000149 ], [ -11.362830161999884, 12.97393035900013 ], [ -11.357769965999889, 12.932410240000126 ], [ -11.405830382999874, 12.926460266000051 ], [ -11.393650054999885, 12.901840210000104 ], [ -11.416179656999883, 12.8434400560001 ], [ -11.411259650999853, 12.825489998000117 ], [ -11.390629767999918, 12.826290131000063 ], [ -11.400500297999841, 12.768910408000112 ], [ -11.375450133999923, 12.73071003000007 ], [ -11.426059722999884, 12.726369858000053 ], [ -11.452309607999858, 12.663129807000074 ], [ -11.423970221999838, 12.653909683000053 ], [ -11.414380073999933, 12.62631034900007 ], [ -11.432180404999873, 12.611140251000064 ], [ -11.413220405999905, 12.585590363000099 ], [ -11.449299811999872, 12.541440010000072 ], [ -11.416520118999898, 12.520039558000063 ], [ -11.412300109999876, 12.535909653000077 ], [ -11.393580436999898, 12.532219887000052 ], [ -11.381890296999877, 12.483220100000059 ], [ -11.375800132999839, 12.500000000000123 ], [ -11.36293029799991, 12.496780396000096 ], [ -11.35686016099984, 12.468020439000094 ], [ -11.377929687999913, 12.446869850000065 ], [ -11.379460334999905, 12.413559914000095 ], [ -11.459710120999869, 12.441490173000103 ], [ -11.531350135999865, 12.442839622000113 ], [ -11.663829802999917, 12.423399925000068 ], [ -11.712470054999827, 12.393449783000088 ], [ -11.860650062999881, 12.40174007400009 ], [ -11.875933762354965, 12.413961553110243 ], [ -11.734114835095458, 12.618920938868728 ], [ -11.727628826557204, 12.648942566020283 ], [ -11.795065318124223, 12.7066085865858 ], [ -11.874479413799868, 12.725717695783201 ], [ -11.974043688508143, 12.716908489974744 ], [ -12.023589572486884, 12.744840797950053 ], [ -12.012390299125133, 12.752048216636192 ], [ -12.026619997892077, 12.782385183030554 ], [ -12.069218232324566, 12.812019027798927 ], [ -12.100817306947878, 12.865652017241425 ], [ -12.175697264444477, 12.887472289661284 ], [ -12.193331606225691, 12.945021263565282 ], [ -12.248306642072595, 12.961697102675485 ], [ -12.278405447574794, 13.000016402448844 ], [ -12.329237780254967, 13.025997256617694 ], [ -12.378924278759243, 13.000945980211609 ], [ -12.396638709952892, 13.013501220861412 ], [ -12.395751271421254, 13.08415926096197 ], [ -12.455544844364599, 13.114986755700231 ], [ -12.472011989694323, 13.183037748885996 ], [ -12.492932129988723, 13.195836654124927 ], [ -12.460384184743425, 13.249960317415288 ], [ -12.415109464684029, 13.284829318649328 ], [ -12.37616095249561, 13.293030929090877 ], [ -12.334198224320428, 13.258727018556671 ], [ -12.307455976370665, 13.317779211465497 ], [ -12.23063757719223, 13.322553066478038 ], [ -12.22213958087848, 13.342171130325243 ], [ -12.261827601521905, 13.412919635555943 ], [ -12.239985223830033, 13.460664709698323 ] ] ] } },
{ "type": "Feature", "properties": { "loc": "SN-A2-2401" }, "geometry": { "type": "Polygon", "coordinates": [ [ [ -15.68928962224361, 14.476422357718677 ], [ -15.686170069893837, 14.288434603250122 ], [ -15.801691959870581, 14.286257466510166 ], [ -15.850879358280714, 14.175151005298614 ], [ -15.85198986386154, 14.115058299466233 ], [ -15.9558456025396, 14.107914830990198 ], [ -16.044225360725076, 14.13876040564176 ], [ -16.031966958863666, 14.163713382789689 ], [ -16.053581622348936, 14.18176149939695 ], [ -16.117655511965026, 14.184588114950836 ], [ -16.131394591483453, 14.225482211431329 ], [ -16.12765277235069, 14.322993755269076 ], [ -16.085206163226243, 14.367843826005123 ], [ -16.020652392279302, 14.37476118876061 ], [ -16.001130283018508, 14.392148514437897 ], [ -16.00044699307033, 14.433504645410567 ], [ -15.895017275056336, 14.446225730681162 ], [ -15.894247623636939, 14.377935981950019 ], [ -15.801779322504331, 14.37658998162531 ], [ -15.78701152135811, 14.427420251538281 ], [ -15.720129852590173, 14.498309761193118 ], [ -15.68928962224361, 14.476422357718677 ] ] ] } },
{ "type": "Feature", "properties": { "loc": "SN-A2-2402" }, "geometry": { "type": "Polygon", "coordinates": [ [ [ -16.12765277235069, 14.322993755269076 ], [ -16.130050564297107, 14.214181766689594 ], [ -16.109290510731292, 14.176613641664948 ], [ -16.053581622348936, 14.18176149939695 ], [ -16.031966958863666, 14.163713382789689 ], [ -16.044225360725076, 14.13876040564176 ], [ -15.9558456025396, 14.107914830990198 ], [ -15.85198986386154, 14.115058299466233 ], [ -15.860903202952439, 14.108083091901358 ], [ -15.845734902834987, 14.081853369612707 ], [ -15.788183141099957, 14.051496969101985 ], [ -15.779776719751684, 13.992032895874685 ], [ -15.683134001265866, 13.912086895941334 ], [ -15.693754745016733, 13.879578781593194 ], [ -15.726665611262394, 13.86787395903365 ], [ -15.801549595171707, 13.910162407075022 ], [ -15.913483781258478, 13.886109680918002 ], [ -16.000649764026711, 13.88686108969498 ], [ -16.070113464346949, 13.856577648002 ], [ -16.164577083296841, 13.852702123518535 ], [ -16.19354748786315, 13.871860395882363 ], [ -16.20437175043519, 13.984818646708275 ], [ -16.275772578764983, 14.004478654642705 ], [ -16.227725573347687, 14.064310213007348 ], [ -16.233804468862026, 14.114868593225916 ], [ -16.303515601039756, 14.16189919538361 ], [ -16.387179937824683, 14.16425046164237 ], [ -16.358151192183204, 14.174685554355671 ], [ -16.367692666009084, 14.20691162920148 ], [ -16.348738332902116, 14.22480128596021 ], [ -16.350876922566762, 14.257179197394565 ], [ -16.30252954286491, 14.280951447855228 ], [ -16.2488495722273, 14.336520066469072 ], [ -16.127748538214817, 14.370168399752837 ], [ -16.089422977502668, 14.365443482306206 ], [ -16.12765277235069, 14.322993755269076 ] ] ] } },
{ "type": "Feature", "properties": { "loc": "SN-A2-2403" }, "geometry": { "type": "Polygon", "coordinates": [ [ [ -15.801549595171707, 13.910162407075022 ], [ -15.781167274175559, 13.888203856590254 ], [ -15.710290017184938, 13.86622225123414 ], [ -15.701096530854233, 13.830489609806518 ], [ -15.63718302037487, 13.775263566653207 ], [ -15.584887572361186, 13.831056474100157 ], [ -15.513818432587303, 13.799070896710608 ], [ -15.439082241498461, 13.79983966279269 ], [ -15.409009529999842, 13.738431487000058 ], [ -15.457900046999853, 13.681429863000128 ], [ -15.481129645999861, 13.587280273000102 ], [ -16.091631404999898, 13.587698577000074 ], [ -16.086306648318008, 13.607410130392806 ], [ -16.114089611250851, 13.62267470513604 ], [ -16.105003690976474, 13.640879265075013 ], [ -16.122170912135594, 13.631020248354842 ], [ -16.151887890273134, 13.664723350967146 ], [ -16.164177132449378, 13.751584015681429 ], [ -16.245133203245679, 13.797629381104349 ], [ -16.250572760059459, 13.847993010292148 ], [ -16.211508754996665, 13.865689094574696 ], [ -16.195109357936513, 13.897558948375133 ], [ -16.194474670246908, 13.873016423071538 ], [ -16.164577083296841, 13.852702123518535 ], [ -16.070113464346949, 13.856577648002 ], [ -16.000649764026711, 13.88686108969498 ], [ -15.913483781258478, 13.886109680918002 ], [ -15.801549595171707, 13.910162407075022 ] ] ] } },
{ "type": "Feature", "properties": { "loc": "SN-A2-2501" }, "geometry": { "type": "Polygon", "coordinates": [ [ [ -15.573612914260629, 14.083793145632962 ], [ -15.586658234430864, 14.005044966644087 ], [ -15.510767640707559, 13.99856204270259 ], [ -15.476236085446018, 13.943855172255349 ], [ -15.507248045482161, 13.899373851049857 ], [ -15.574717569693533, 13.856641422615324 ], [ -15.606649089885874, 13.798045550661831 ], [ -15.63718302037487, 13.775263566653207 ], [ -15.704481508660198, 13.836139896407962 ], [ -15.711084355397745, 13.862304984457852 ], [ -15.683134001265866, 13.912086895941334 ], [ -15.778587142864289, 13.990716691468686 ], [ -15.788183141099957, 14.051496969101985 ], [ -15.834407131874986, 14.071703510124712 ], [ -15.860903202952439, 14.108083091901358 ], [ -15.850879358280714, 14.175151005298614 ], [ -15.801691959870581, 14.286257466510166 ], [ -15.686170069893837, 14.288434603250122 ], [ -15.632448153540615, 14.165953453516112 ], [ -15.573612914260629, 14.083793145632962 ] ] ] } },
{ "type": "Feature", "properties": { "loc": "SN-A2-2502" }, "geometry": { "type": "Polygon", "coordinates": [ [ [ -15.539938436183363, 14.058679880633138 ], [ -15.420531010771352, 14.05046319304912 ], [ -15.262135699041988, 13.998578403225112 ], [ -15.197418640750957, 13.995174379671857 ], [ -15.161890627622707, 13.97098966166743 ], [ -15.146777828060696, 13.993773756633329 ], [ -15.126544277456908, 13.992068305926095 ], [ -15.143630480408596, 13.95240174565002 ], [ -15.104149452535118, 13.86049694507536 ], [ -15.104361187439572, 13.815257661203814 ], [ -15.222220420999886, 13.754010201000108 ], [ -15.32339000699988, 13.77692985500005 ], [ -15.409009529999871, 13.738431487000044 ], [ -15.440935340751913, 13.801292092032311 ], [ -15.513818432587332, 13.799070896710594 ], [ -15.587845130620668, 13.829367647299248 ], [ -15.476236085446047, 13.943855172255335 ], [ -15.509441821745327, 13.99779628799733 ], [ -15.550738343211155, 13.992859731312565 ], [ -15.593398655138877, 14.01512798470492 ], [ -15.573612914260657, 14.083793145632947 ], [ -15.558603081369657, 14.086061635794264 ], [ -15.539938436183363, 14.058679880633138 ] ] ] } },
{ "type": "Feature", "properties": { "loc": "SN-A2-2503" }, "geometry": { "type": "Polygon", "coordinates": [ [ [ -14.868636049248643, 14.655080117145081 ], [ -14.746184992895042, 14.582909700736602 ], [ -14.624886087088765, 14.564907630924429 ], [ -14.640274313071203, 14.300996277156431 ], [ -14.595403985242353, 14.255199740424407 ], [ -14.581513698428175, 14.000095073939301 ], [ -14.601341940513127, 13.94121081822316 ], [ -14.69188578033134, 13.883628622844435 ], [ -14.720114499287387, 13.817384633053143 ], [ -14.802304475678898, 13.809367390723571 ], [ -14.83813624099988, 13.765275133000044 ], [ -14.910980224999928, 13.798290253000046 ], [ -14.981080054999854, 13.796469688000046 ], [ -15.07116031599989, 13.826569557000068 ], [ -15.104361187439544, 13.815257661203828 ], [ -15.10414945253509, 13.860496945075374 ], [ -15.143630480408568, 13.952401745650034 ], [ -15.126832061664189, 13.993397327169122 ], [ -15.149315123762833, 14.018599184655079 ], [ -15.117796477484749, 14.051668293814712 ], [ -15.111146404321943, 14.147582348168742 ], [ -15.053793401521467, 14.248068242470191 ], [ -15.064596039707492, 14.452685524302067 ], [ -15.016239659114142, 14.634804907098287 ], [ -14.909470928150739, 14.701923116400673 ], [ -14.868636049248643, 14.655080117145081 ] ] ] } },
{ "type": "Feature", "properties": { "loc": "SN-A2-2504" }, "geometry": { "type": "Polygon", "coordinates": [ [ [ -15.445799910826732, 14.744458089665391 ], [ -15.309325524979059, 14.662087012560788 ], [ -15.022905354483765, 14.609702811458314 ], [ -15.064596039707492, 14.452685524302067 ], [ -15.053793401521467, 14.248068242470191 ], [ -15.111146404321943, 14.147582348168742 ], [ -15.117796477484749, 14.051668293814712 ], [ -15.149315123762833, 14.018599184655079 ], [ -15.12654427745688, 13.992068305926109 ], [ -15.146777828060667, 13.993773756633344 ], [ -15.155797998879919, 13.971403924392012 ], [ -15.197418640750929, 13.995174379671871 ], [ -15.262135699041959, 13.998578403225126 ], [ -15.420531010771324, 14.050463193049135 ], [ -15.539938436183334, 14.058679880633152 ], [ -15.558603081369629, 14.086061635794279 ], [ -15.577933910220956, 14.08521139259159 ], [ -15.593883675398448, 14.127695889456804 ], [ -15.632448153540615, 14.165953453516112 ], [ -15.679646331697253, 14.269882642654553 ], [ -15.698064322134478, 14.42459004510347 ], [ -15.68928962224361, 14.476422357718677 ], [ -15.660509460998487, 14.486368779814585 ], [ -15.658184818036627, 14.51038053717445 ], [ -15.54133221253722, 14.595817161755276 ], [ -15.58760143933802, 14.63286299386416 ], [ -15.569963649233756, 14.685674093834445 ], [ -15.483944082136183, 14.724384670281355 ], [ -15.460386550540608, 14.709869137907317 ], [ -15.445799910826732, 14.744458089665391 ] ] ] } },
{ "type": "Feature", "properties": { "loc": "SN-A2-2601" }, "geometry": { "type": "Polygon", "coordinates": [ [ [ -16.524067652961463, 14.606020208503201 ], [ -16.485993546307245, 14.590961921266688 ], [ -16.360645156152767, 14.604245459234766 ], [ -16.336164168993353, 14.571120862128273 ], [ -16.243200298797714, 14.576144493372423 ], [ -16.159849119828198, 14.553530178935892 ], [ -16.150640702455757, 14.542465495706869 ], [ -16.200037657119928, 14.493500686549366 ], [ -16.187573581472694, 14.461891512187764 ], [ -16.222138558281188, 14.420324517392691 ], [ -16.131140868655194, 14.403158939655148 ], [ -16.09348285486443, 14.383717743618474 ], [ -16.088764643819456, 14.365818290907606 ], [ -16.127748538214817, 14.370168399752837 ], [ -16.25458826953923, 14.3329371406549 ], [ -16.30252954286491, 14.280951447855228 ], [ -16.350876922566762, 14.257179197394565 ], [ -16.348738332902116, 14.22480128596021 ], [ -16.367692666009084, 14.20691162920148 ], [ -16.358151192183204, 14.174685554355671 ], [ -16.387179937824683, 14.16425046164237 ], [ -16.387173703954108, 14.14643244958217 ], [ -16.432704932856648, 14.169039318847554 ], [ -16.413241894091016, 14.194162361241547 ], [ -16.435574373694386, 14.209936480264352 ], [ -16.512255846788484, 14.150177850966228 ], [ -16.541847058715867, 14.069978605911915 ], [ -16.575846520364593, 14.069432505455682 ], [ -16.628049149265614, 13.988186016046756 ], [ -16.708344480406303, 14.006578580685536 ], [ -16.751861109307711, 13.956520273007589 ], [ -16.757087707999865, 13.801701546000123 ], [ -16.773305892999904, 14.047204018000093 ], [ -16.752339315627587, 14.079304521104364 ], [ -16.791561114626521, 14.130100296409898 ], [ -16.75366281278097, 14.14098259222264 ], [ -16.763466973671751, 14.160857890058354 ], [ -16.722309166422658, 14.201114924727721 ], [ -16.748750048239039, 14.240691965661723 ], [ -16.708841942727595, 14.302352878544101 ], [ -16.703761646605766, 14.39795252358328 ], [ -16.551231146315828, 14.492149419882894 ], [ -16.517994418120832, 14.578409115705727 ], [ -16.524067652961463, 14.606020208503201 ] ] ] } },
{ "type": "Feature", "properties": { "loc": "SN-A2-2602" }, "geometry": { "type": "Polygon", "coordinates": [ [ [ -16.416242363163416, 14.19992872204462 ], [ -16.432704932856648, 14.169039318847554 ], [ -16.411512224319427, 14.151471393840287 ], [ -16.303515601039756, 14.16189919538361 ], [ -16.232589116310006, 14.112786566999292 ], [ -16.229270700306511, 14.060415108453251 ], [ -16.275772578764983, 14.004478654642705 ], [ -16.205565311495665, 13.986467083909593 ], [ -16.195109357936513, 13.897558948375133 ], [ -16.211508754996665, 13.865689094574696 ], [ -16.250572760059459, 13.847993010292148 ], [ -16.245133203245679, 13.797629381104349 ], [ -16.164177132449378, 13.751584015681429 ], [ -16.151887890273134, 13.664723350967146 ], [ -16.122170912135594, 13.631020248354842 ], [ -16.105003690976474, 13.640879265075013 ], [ -16.114089611250851, 13.62267470513604 ], [ -16.086306648318008, 13.607410130392806 ], [ -16.091631404999898, 13.587698577000074 ], [ -16.560142516999868, 13.588785172000096 ], [ -16.592090606999868, 13.642049789000088 ], [ -16.619018554999812, 13.656925201000137 ], [ -16.650186538999925, 13.750961304000098 ], [ -16.686443328999914, 13.786118507000145 ], [ -16.753294860406712, 13.807516728316161 ], [ -16.753220169911057, 13.950219847042911 ], [ -16.739328743118101, 13.977245843247966 ], [ -16.69779326648915, 14.010665798935518 ], [ -16.628049149265614, 13.988186016046756 ], [ -16.575846520364593, 14.069432505455682 ], [ -16.541847058715867, 14.069978605911915 ], [ -16.512255846788484, 14.150177850966228 ], [ -16.435574373694386, 14.209936480264352 ], [ -16.416242363163416, 14.19992872204462 ] ] ] } },
{ "type": "Feature", "properties": { "loc": "SN-A2-2603" }, "geometry": { "type": "Polygon", "coordinates": [ [ [ -15.685338451954703, 14.690450992186788 ], [ -15.640709734918559, 14.711544487805684 ], [ -15.575174374864378, 14.672042387077811 ], [ -15.58760143933802, 14.63286299386416 ], [ -15.54133221253722, 14.595817161755276 ], [ -15.631756596744964, 14.534509019167563 ], [ -15.66415303153488, 14.483924198862697 ], [ -15.68928962224361, 14.476422357718677 ], [ -15.722120147544352, 14.496811887851491 ], [ -15.78701152135811, 14.427420251538281 ], [ -15.801779322504331, 14.37658998162531 ], [ -15.894247623636939, 14.377935981950019 ], [ -15.895017275056336, 14.446225730681162 ], [ -16.00044699307033, 14.433504645410567 ], [ -16.001130283018508, 14.392148514437897 ], [ -16.038358269482636, 14.367514090083445 ], [ -16.088764643819456, 14.365818290907606 ], [ -16.09348285486443, 14.383717743618474 ], [ -16.131140868655194, 14.403158939655148 ], [ -16.222138558281188, 14.420324517392691 ], [ -16.187573581472694, 14.461891512187764 ], [ -16.199305468435401, 14.495375680243272 ], [ -16.149753960205462, 14.546863281993739 ], [ -16.000040434478205, 14.534875935198455 ], [ -15.998943652007938, 14.514478711744816 ], [ -15.875742241092208, 14.542651138390761 ], [ -15.821186600882278, 14.575775190982066 ], [ -15.795719098711849, 14.621186947088328 ], [ -15.794315603884471, 14.736571640867291 ], [ -15.765430424953689, 14.749733954546807 ], [ -15.685338451954703, 14.690450992186788 ] ] ] } }
]
}
