{
"type": "FeatureCollection",
"name": "border_EE",
"crs": { "type": "name", "properties": { "name": "urn:ogc:def:crs:OGC:1.3:CRS84" } },
"features": [
{ "type": "Feature", "properties": { }, "geometry": { "type": "Polygon", "coordinates": [ [ [ 27.981126857000987, 59.475373334325269 ], [ 28.13169925305175, 59.300825100330925 ], [ 27.420150000000149, 58.724570000000142 ], [ 27.716685825315722, 57.791899115624361 ], [ 27.288184848751513, 57.474528306703832 ], [ 26.463532342237787, 57.47638865826633 ], [ 25.164593540149269, 57.970156968815189 ], [ 24.312862583114622, 57.793423570376973 ], [ 24.428927850042161, 58.383413397853289 ], [ 24.061198357853186, 58.257374579493408 ], [ 23.426560092876684, 58.612753404364625 ], [ 23.339795363058645, 59.187240302153384 ], [ 24.604214308376186, 59.465853786855021 ], [ 25.864189080516638, 59.611090399811332 ], [ 26.949135776484525, 59.445803331125774 ], [ 27.981126857000987, 59.475373334325269 ] ] ] } }
]
}
