{
"type": "FeatureCollection",
"name": "border_MW",
"crs": { "type": "name", "properties": { "name": "urn:ogc:def:crs:OGC:1.3:CRS84" } },
"features": [
{ "type": "Feature", "properties": { }, "geometry": { "type": "Polygon", "coordinates": [ [ [ 32.759375441221323, -9.23059905358906 ], [ 33.73972, -9.41715 ], [ 34.28, -10.16 ], [ 34.559989047999352, -11.520020033415925 ], [ 34.28000613784198, -12.280025323132506 ], [ 34.559989047999352, -13.579997653866876 ], [ 34.907151320136165, -13.565424899960568 ], [ 35.267956170398008, -13.887834161029566 ], [ 35.68684533055594, -14.611045830954332 ], [ 35.771904738108361, -15.896858819240727 ], [ 35.339062941231646, -16.107440280830112 ], [ 35.033810255683534, -16.801299737213093 ], [ 34.381291945134052, -16.183559665596043 ], [ 34.307291294092096, -15.478641452702597 ], [ 34.517666049952311, -15.013708591372612 ], [ 34.459633416488543, -14.613009535381423 ], [ 34.064825473778626, -14.35995004644812 ], [ 33.789700148256685, -14.45183074306307 ], [ 33.214024692525214, -13.971860039936153 ], [ 32.688165317523129, -13.712857761289277 ], [ 32.991764357237884, -12.783870537978274 ], [ 33.306422153463075, -12.435778090060218 ], [ 33.114289178201915, -11.607198174692314 ], [ 33.315310499817286, -10.796549981329697 ], [ 33.485687697083591, -10.525558770391115 ], [ 33.231387973775298, -9.676721693564801 ], [ 32.759375441221323, -9.23059905358906 ] ] ] } }
]
}
