{
"type": "FeatureCollection",
"name": "regions_MW",
"crs": { "type": "name", "properties": { "name": "urn:ogc:def:crs:OGC:1.3:CRS84" } },
"features": [
{ "type": "Feature", "properties": { "loc": "MW-A2-0101" }, "geometry": { "type": "Polygon", "coordinates": [ [ [ 33.123382567951182, -9.479989051853238 ], [ 33.210243224445321, -9.508880615248131 ], [ 33.255626677828957, -9.486225128087142 ], [ 33.282447814814873, -9.501255035191662 ], [ 33.329734802019573, -9.49152946531251 ], [ 33.392551422610097, -9.538841247725372 ], [ 33.422534942833408, -9.597182274342458 ], [ 33.460437775183209, -9.619728088280624 ], [ 33.519828796262004, -9.626969336765455 ], [ 33.55258560174417, -9.591428757231313 ], [ 33.587829590263425, -9.580941199876406 ], [ 33.644652728540621, -9.604552750908681 ], [ 33.657152121473302, -9.656049557241204 ], [ 33.677032623656714, -9.664024841373305 ], [ 33.654846050205094, -9.706850524831793 ], [ 33.685171913553006, -9.731402377317806 ], [ 33.675987254408312, -9.747276405181935 ], [ 33.701048434337849, -9.791608876648297 ], [ 33.663726257360963, -9.789775400913982 ], [ 33.63804517114778, -9.823517009002728 ], [ 33.623759708443856, -9.819473409770012 ], [ 33.582873278079376, -9.884471252346373 ], [ 33.472617102996935, -9.938326945332221 ], [ 33.472599573411628, -9.972924461594573 ], [ 33.501244786417828, -9.970313857398537 ], [ 33.537959671901376, -9.99399078374762 ], [ 33.539063556438009, -10.012956323775256 ], [ 33.590166267259463, -10.015275476581905 ], [ 33.61285363988361, -10.060431546278778 ], [ 33.651431354973113, -10.072875827857104 ], [ 33.71811831231031, -10.058546589753291 ], [ 33.730756220623107, -10.110950611481485 ], [ 33.744758485016121, -10.112773362800397 ], [ 33.961953256837376, -10.450673309525541 ], [ 33.681510925488851, -10.576716423024436 ], [ 33.66850662258264, -10.53019523552166 ], [ 33.620819091727753, -10.492909430725604 ], [ 33.630657196472498, -10.478938103010989 ], [ 33.618736267264978, -10.448747635295092 ], [ 33.576782227417937, -10.428503989567446 ], [ 33.548061371535141, -10.371541022899862 ], [ 33.534828185772199, -10.330074309481745 ], [ 33.560497284921837, -10.228366852348302 ], [ 33.319126129367419, -10.065223694417909 ], [ 33.349391937787743, -9.943118095223895 ], [ 33.381641388938988, -9.90654754643208 ], [ 33.365264893659969, -9.856096268527949 ], [ 33.345737457217922, -9.827463150503945 ], [ 33.279602051393624, -9.799891471713977 ], [ 33.272399902733355, -9.767890930422027 ], [ 33.225921631777908, -9.716537476023632 ], [ 33.227279662926151, -9.654486656034294 ], [ 33.195644378585257, -9.605533600095498 ], [ 33.151561736984604, -9.61348915130327 ], [ 33.121299744387727, -9.600854874452864 ], [ 33.099346160996561, -9.687344551609726 ], [ 33.062427520613653, -9.634658813653289 ], [ 33.027774811158679, -9.650482178209927 ], [ 33.005142211743703, -9.640651703313438 ], [ 33.026786804267658, -9.507283211550941 ], [ 32.975337982162216, -9.48136711090342 ], [ 32.947738647420692, -9.486662864999175 ], [ 32.947174071925929, -9.411736488148335 ], [ 33.00122451759745, -9.368962288179034 ], [ 33.027317047243969, -9.408003807030013 ], [ 33.123382567951182, -9.479989051853238 ] ] ] } },
{ "type": "Feature", "properties": { "loc": "MW-A2-0102" }, "geometry": { "type": "Polygon", "coordinates": [ [ [ 33.763893127266044, -9.582587241607882 ], [ 33.917022704734109, -9.691125869862958 ], [ 33.921344757454619, -9.709303855588416 ], [ 33.940279108993764, -9.709960023436281 ], [ 33.892372420550828, -9.755213034653764 ], [ 33.904811420410795, -9.843714034774848 ], [ 33.949298419686386, -9.906280034995575 ], [ 33.945072419956261, -9.976382034703079 ], [ 34.004890420256743, -10.067232035230177 ], [ 34.002090419737158, -10.097343035252834 ], [ 34.244846419726514, -10.368252034903435 ], [ 34.252750419995948, -10.420709034794072 ], [ 34.2770084199027, -10.454151034642507 ], [ 34.25428041950579, -10.443247034522983 ], [ 34.2146414198657, -10.472274034918712 ], [ 34.209159419771481, -10.502829034732144 ], [ 34.231815419546024, -10.530753034624809 ], [ 34.178582161737438, -10.581327139236066 ], [ 34.151519983060837, -10.567075598959661 ], [ 34.102767066746765, -10.579973799850961 ], [ 33.961953256837376, -10.450673310424918 ], [ 33.744758485016121, -10.112773362800397 ], [ 33.730756219723787, -10.110950611481485 ], [ 33.71811831141099, -10.058546590652611 ], [ 33.651431354973113, -10.072875827857104 ], [ 33.61285363988361, -10.060431546278778 ], [ 33.590166266360143, -10.015275476581905 ], [ 33.539063555538689, -10.012956323775256 ], [ 33.537959671002056, -9.99399078374762 ], [ 33.501244785518509, -9.970313857398537 ], [ 33.472599572512308, -9.972924461594573 ], [ 33.472617102097615, -9.938326945332221 ], [ 33.582873277180056, -9.884471252346373 ], [ 33.623759707544536, -9.819473410669332 ], [ 33.63804517114778, -9.823517009002728 ], [ 33.663726257360963, -9.789775401813301 ], [ 33.701048434337849, -9.791608876648297 ], [ 33.675987254408312, -9.747276405181935 ], [ 33.685171913553006, -9.731402377317806 ], [ 33.654846050205094, -9.706850524831793 ], [ 33.677032623656714, -9.664024841373305 ], [ 33.657152121473302, -9.656049557241204 ], [ 33.641932050024138, -9.603024591411724 ], [ 33.701770782395727, -9.618407248595588 ], [ 33.723369598528222, -9.590409278565289 ], [ 33.763893127266044, -9.582587241607882 ] ] ] } },
{ "type": "Feature", "properties": { "loc": "MW-A2-0103" }, "geometry": { "type": "Polygon", "coordinates": [ [ [ 34.211667099257284, -10.998256908329608 ], [ 34.237606420400027, -11.116705035808707 ], [ 34.206321420197412, -11.182798035900589 ], [ 34.23265042028072, -11.236500035648078 ], [ 34.221050420440577, -11.276925035561874 ], [ 34.258834420871892, -11.325616035351686 ], [ 34.283180420340159, -11.467159035361135 ], [ 34.277099420501884, -11.525780035320338 ], [ 34.3278544201454, -11.667202035145749 ], [ 34.299106420025339, -11.730331035249037 ], [ 34.252796420318589, -11.748764035431861 ], [ 34.231372419801403, -11.787768035466399 ], [ 34.179611420530705, -11.819045037098761 ], [ 34.167846420276135, -11.887527036743279 ], [ 34.181488419854759, -11.918637036969642 ], [ 34.082115420190519, -11.978422036647601 ], [ 34.055454420085482, -12.027968037195137 ], [ 34.062656420357541, -12.082741036869322 ], [ 34.028778420188019, -12.168814036538492 ], [ 34.023754419630791, -12.235024036629966 ], [ 33.992568105633609, -12.222182761025579 ], [ 33.982489346805949, -12.235430451953732 ], [ 33.955678453098187, -12.215766362627505 ], [ 33.909896815885418, -12.212865004916011 ], [ 33.893540901591393, -12.188158806283809 ], [ 33.874718601981954, -12.192369890757789 ], [ 33.861606077358658, -12.157224456243625 ], [ 33.822429144889156, -12.166649226280697 ], [ 33.78772320276363, -12.108737718570808 ], [ 33.777314473684044, -12.06158795981645 ], [ 33.806892473408993, -12.026424873409155 ], [ 33.84671496082683, -12.019623196453324 ], [ 33.788665506108259, -11.97723579309735 ], [ 33.807215081810625, -11.952829250369575 ], [ 33.7772141821888, -11.893408017466015 ], [ 33.823410883505517, -11.886006154560334 ], [ 33.847682888554516, -11.847798619310765 ], [ 33.848457415277551, -11.815773788229706 ], [ 33.791469462745567, -11.801025618037784 ], [ 33.796537209025018, -11.769594381775278 ], [ 33.760576700054742, -11.759084495153274 ], [ 33.753550604476857, -11.738049631285435 ], [ 33.766540414808333, -11.719728959124097 ], [ 33.734868850916769, -11.665025495030534 ], [ 33.747022451824762, -11.64126356476163 ], [ 33.775098145762854, -11.636993128629911 ], [ 33.787646894388729, -11.592039447762261 ], [ 33.839668510893091, -11.572377145388884 ], [ 33.866114888691186, -11.534081481075418 ], [ 33.932149636996201, -11.555581129865232 ], [ 33.961257285895101, -11.5325342928233 ], [ 33.965468820929402, -11.483605206514994 ], [ 33.987410105192225, -11.469469526797184 ], [ 34.050307491197827, -11.501217378379238 ], [ 34.071566272765324, -11.468241424302221 ], [ 34.093698601809081, -11.466296545948808 ], [ 34.092936206940465, -11.409120568559331 ], [ 34.077131914306449, -11.390007712385966 ], [ 34.043823357661893, -11.385669590579084 ], [ 34.03263803521719, -11.33259836452288 ], [ 34.043398985574754, -11.280987115862672 ], [ 34.008622889135097, -11.271277320991544 ], [ 34.007982782279612, -11.213935681286614 ], [ 34.041246155185945, -11.17991820526089 ], [ 34.061851639541601, -11.091131441063112 ], [ 34.175351637767903, -11.051364368071063 ], [ 34.19790842703236, -10.998202950805478 ], [ 34.211667099257284, -10.998256908329608 ] ] ] } },
{ "type": "Feature", "properties": { "loc": "MW-A2-0104" }, "geometry": { "type": "Polygon", "coordinates": [ [ [ 34.079305409317215, -10.56477247926648 ], [ 34.120073729019452, -10.583647725562059 ], [ 34.151519983060837, -10.567075598959661 ], [ 34.178582161737438, -10.581327139236066 ], [ 34.19992841946106, -10.641441034476088 ], [ 34.188709420103692, -10.705085034946364 ], [ 34.21481741988805, -10.744294035441328 ], [ 34.222545420135077, -10.994294035841051 ], [ 34.200720786035504, -10.994647005354977 ], [ 34.176026027679086, -11.050764919565324 ], [ 34.127279114339728, -11.075475395373132 ], [ 34.093501917379626, -11.071674888285429 ], [ 34.056783856389927, -11.097524767354059 ], [ 34.048867093841352, -11.055808444404136 ], [ 33.94350823721544, -10.960229655674027 ], [ 33.92412171644412, -11.03093834073178 ], [ 33.749961551384558, -11.027458097513147 ], [ 33.729360301936424, -11.041354830960643 ], [ 33.744563626210436, -11.067617902644031 ], [ 33.732556955639041, -11.095511974897704 ], [ 33.702410860472867, -11.103108430409691 ], [ 33.668606512080942, -11.061247590903577 ], [ 33.608924236564292, -11.076975074240238 ], [ 33.545852481007216, -11.028726397904904 ], [ 33.524488789925783, -11.039608362835622 ], [ 33.483381182995231, -11.109572215885009 ], [ 33.42508332653432, -11.132054322748729 ], [ 33.442415274145617, -11.091175426904385 ], [ 33.438135656835129, -11.04481958965232 ], [ 33.411709802465452, -11.033352010486851 ], [ 33.392470480028692, -11.047975463596742 ], [ 33.375734374641752, -11.02433608034579 ], [ 33.310805644964603, -11.010416058054602 ], [ 33.309867858914629, -10.936211585895933 ], [ 33.276824951210585, -10.898961066899687 ], [ 33.25092315697816, -10.907292366549427 ], [ 33.26562118457008, -10.868756294567277 ], [ 33.311008452877843, -10.869524955911913 ], [ 33.334556580122126, -10.828516006408506 ], [ 33.403324127106828, -10.811484337032482 ], [ 33.452606200915511, -10.820534706711271 ], [ 33.516628264682709, -10.777688980062351 ], [ 33.532234192054375, -10.735466957534015 ], [ 33.549697875956269, -10.733040810584896 ], [ 33.597099304589278, -10.660874366758549 ], [ 33.623390198598827, -10.659643172394453 ], [ 33.705121983692663, -10.570193611445973 ], [ 33.961953256837376, -10.450673310424918 ], [ 34.079305409317215, -10.56477247926648 ] ] ] } }
]
}
