{
"type": "FeatureCollection",
"name": "regions_SK",
"crs": { "type": "name", "properties": { "name": "urn:ogc:def:crs:OGC:1.3:CRS84" } },
"features": [
{ "type": "Feature", "properties": { "loc": "SK041" }, "geometry": { "type": "Polygon", "coordinates": [ [ [ 20.61494, 49.417833 ], [ 20.598512, 49.38853 ], [ 20.569626, 49.377414 ], [ 20.462463, 49.415071 ], [ 20.400788, 49.393678 ], [ 20.331166, 49.400572 ], [ 20.315038, 49.348826 ], [ 20.219697, 49.348394 ], [ 20.144264, 49.31127 ], [ 20.101678, 49.246639 ], [ 20.082184, 49.182707 ], [ 19.977433, 49.230305 ], [ 19.914442, 49.230903 ], [ 19.88393, 49.204177 ], [ 19.920964, 49.163732 ], [ 19.902493, 49.127299 ], [ 19.982193, 49.154653 ], [ 19.952941, 49.11376 ], [ 20.034945, 49.106482 ], [ 20.013461, 49.018736 ], [ 19.967613, 49.008582 ], [ 20.020268, 48.965726 ], [ 20.031029, 48.938017 ], [ 20.055703, 48.930127 ], [ 19.992255, 48.9075 ], [ 20.151602, 48.890136 ], [ 20.177494, 48.905174 ], [ 20.285478, 48.875375 ], [ 20.300655, 48.901582 ], [ 20.338366, 48.917557 ], [ 20.300462, 48.93799 ], [ 20.326762, 48.962717 ], [ 20.426789, 48.999549 ], [ 20.481067, 48.975792 ], [ 20.523848, 49.01771 ], [ 20.536059, 48.994273 ], [ 20.578879, 48.97301 ], [ 20.614672, 48.977022 ], [ 20.633244, 48.954506 ], [ 20.711474, 48.980334 ], [ 20.769459, 48.968257 ], [ 20.784045, 48.998037 ], [ 20.944112, 48.950401 ], [ 20.98112, 48.958495 ], [ 21.025498, 48.905621 ], [ 21.140872, 48.899129 ], [ 21.17891, 48.873557 ], [ 21.259075, 48.870414 ], [ 21.248733, 48.829512 ], [ 21.284027, 48.812846 ], [ 21.315003, 48.834501 ], [ 21.36861, 48.84116 ], [ 21.381734, 48.881488 ], [ 21.479661, 48.881008 ], [ 21.541485, 48.796154 ], [ 21.687651, 48.763457 ], [ 21.799832, 48.792802 ], [ 21.784937, 48.882796 ], [ 21.803032, 48.90005 ], [ 21.910327, 48.881575 ], [ 21.997492, 48.840468 ], [ 22.123552, 48.844961 ], [ 22.129354, 48.886599 ], [ 22.212811, 48.929336 ], [ 22.259899, 48.867775 ], [ 22.382818, 48.862264 ], [ 22.419291, 48.887147 ], [ 22.431328, 48.934047 ], [ 22.481343, 48.991441 ], [ 22.541207, 49.008045 ], [ 22.56684, 49.088377 ], [ 22.421672, 49.100734 ], [ 22.365663, 49.14488 ], [ 22.315041, 49.137388 ], [ 22.231391, 49.153541 ], [ 22.224121, 49.181828 ], [ 22.189773, 49.1762 ], [ 22.056538, 49.214181 ], [ 22.032983, 49.227514 ], [ 22.030719, 49.278443 ], [ 21.963404, 49.345226 ], [ 21.902681, 49.352745 ], [ 21.837586, 49.389879 ], [ 21.783028, 49.356707 ], [ 21.719673, 49.41044 ], [ 21.666237, 49.415575 ], [ 21.628286, 49.445226 ], [ 21.444143, 49.41313 ], [ 21.278208, 49.45748 ], [ 21.201052, 49.403469 ], [ 21.126166, 49.432575 ], [ 21.064629, 49.422415 ], [ 21.055836, 49.408566 ], [ 21.095632, 49.371412 ], [ 21.040971, 49.361375 ], [ 20.984319, 49.309485 ], [ 20.932314, 49.299198 ], [ 20.864939, 49.343207 ], [ 20.808264, 49.344876 ], [ 20.731295, 49.415323 ], [ 20.649949, 49.404464 ], [ 20.61494, 49.417833 ] ] ] } },
{ "type": "Feature", "properties": { "loc": "SK042" }, "geometry": { "type": "Polygon", "coordinates": [ [ [ 22.155306, 48.403396 ], [ 22.138396, 48.424503 ], [ 22.163904, 48.572547 ], [ 22.189022, 48.606799 ], [ 22.340978, 48.690391 ], [ 22.360378, 48.7344 ], [ 22.345907, 48.762545 ], [ 22.385201, 48.800469 ], [ 22.382818, 48.862264 ], [ 22.259899, 48.867775 ], [ 22.212811, 48.929336 ], [ 22.129354, 48.886599 ], [ 22.123552, 48.844961 ], [ 21.997492, 48.840468 ], [ 21.910327, 48.881575 ], [ 21.803032, 48.90005 ], [ 21.784937, 48.882796 ], [ 21.799832, 48.792802 ], [ 21.687651, 48.763457 ], [ 21.541485, 48.796154 ], [ 21.479661, 48.881008 ], [ 21.381734, 48.881488 ], [ 21.36861, 48.84116 ], [ 21.315003, 48.834501 ], [ 21.284027, 48.812846 ], [ 21.248733, 48.829512 ], [ 21.259075, 48.870414 ], [ 21.17891, 48.873557 ], [ 21.140872, 48.899129 ], [ 21.025498, 48.905621 ], [ 20.98112, 48.958495 ], [ 20.944112, 48.950401 ], [ 20.784045, 48.998037 ], [ 20.769459, 48.968257 ], [ 20.711474, 48.980334 ], [ 20.633244, 48.954506 ], [ 20.614672, 48.977022 ], [ 20.578879, 48.97301 ], [ 20.536059, 48.994273 ], [ 20.523848, 49.01771 ], [ 20.481067, 48.975792 ], [ 20.426789, 48.999549 ], [ 20.326762, 48.962717 ], [ 20.300462, 48.93799 ], [ 20.338366, 48.917557 ], [ 20.300655, 48.901582 ], [ 20.285478, 48.875375 ], [ 20.249486, 48.867785 ], [ 20.20015, 48.817018 ], [ 20.204553, 48.774387 ], [ 20.183648, 48.754414 ], [ 20.183961, 48.72885 ], [ 20.299063, 48.657349 ], [ 20.301321, 48.611529 ], [ 20.352642, 48.597571 ], [ 20.302656, 48.512466 ], [ 20.309705, 48.479737 ], [ 20.346449, 48.462076 ], [ 20.463937, 48.463967 ], [ 20.504343, 48.492091 ], [ 20.511412, 48.534687 ], [ 20.710167, 48.568944 ], [ 20.833702, 48.580855 ], [ 20.871699, 48.553244 ], [ 20.9217, 48.557076 ], [ 20.962112, 48.522933 ], [ 21.064652, 48.524891 ], [ 21.118042, 48.492381 ], [ 21.220479, 48.535695 ], [ 21.300966, 48.524289 ], [ 21.319787, 48.557531 ], [ 21.411755, 48.560989 ], [ 21.438045, 48.582631 ], [ 21.508274, 48.553819 ], [ 21.541428, 48.511118 ], [ 21.610297, 48.508282 ], [ 21.66973, 48.393506 ], [ 21.727551, 48.350226 ], [ 21.823562, 48.334257 ], [ 21.847013, 48.361833 ], [ 22.024955, 48.388542 ], [ 22.121078, 48.378311 ], [ 22.155306, 48.403396 ] ] ] } },
{ "type": "Feature", "properties": { "loc": "SK010" }, "geometry": { "type": "Polygon", "coordinates": [ [ [ 17.160798, 48.006656 ], [ 17.241788, 48.022465 ], [ 17.247428, 48.012009 ], [ 17.298816, 48.046682 ], [ 17.301242, 48.065275 ], [ 17.348425, 48.086609 ], [ 17.313494, 48.096974 ], [ 17.311885, 48.114725 ], [ 17.381588, 48.134278 ], [ 17.382197, 48.167507 ], [ 17.440751, 48.145381 ], [ 17.515273, 48.179272 ], [ 17.525547, 48.197318 ], [ 17.504032, 48.205034 ], [ 17.513813, 48.223731 ], [ 17.478124, 48.237158 ], [ 17.510306, 48.278063 ], [ 17.453118, 48.318891 ], [ 17.473536, 48.355136 ], [ 17.430259, 48.374551 ], [ 17.389893, 48.436635 ], [ 17.306145, 48.464686 ], [ 17.345202, 48.506826 ], [ 17.286984, 48.545456 ], [ 17.371913, 48.605077 ], [ 17.355001, 48.643387 ], [ 17.326961, 48.649688 ], [ 17.230354, 48.56875 ], [ 17.129462, 48.548116 ], [ 17.062763, 48.561779 ], [ 16.982238, 48.550571 ], [ 16.918946, 48.51547 ], [ 16.851106, 48.438635 ], [ 16.858413, 48.415611 ], [ 16.841989, 48.363275 ], [ 16.898799, 48.327492 ], [ 16.909539, 48.288048 ], [ 16.950411, 48.263426 ], [ 16.976203, 48.172244 ], [ 17.056797, 48.141123 ], [ 17.088579, 48.096616 ], [ 17.073329, 48.030099 ], [ 17.160798, 48.006656 ] ] ] } },
{ "type": "Feature", "properties": { "loc": "SK021" }, "geometry": { "type": "Polygon", "coordinates": [ [ [ 17.247428, 48.012009 ], [ 17.337728, 47.990399 ], [ 17.455676, 47.886537 ], [ 17.528049, 47.863488 ], [ 17.565432, 47.818112 ], [ 17.607258, 47.820082 ], [ 17.705437, 47.758992 ], [ 17.735484, 47.804852 ], [ 17.793595, 47.825881 ], [ 17.809656, 47.868149 ], [ 17.883277, 47.916308 ], [ 17.877925, 48.041897 ], [ 17.841345, 48.072443 ], [ 17.809593, 48.074157 ], [ 17.81263, 48.110444 ], [ 17.768652, 48.147362 ], [ 17.819038, 48.161785 ], [ 17.810518, 48.193853 ], [ 17.841101, 48.187909 ], [ 17.875692, 48.20692 ], [ 17.851963, 48.242297 ], [ 17.860116, 48.279924 ], [ 17.840791, 48.298543 ], [ 17.862257, 48.3534 ], [ 17.95779, 48.462731 ], [ 17.851121, 48.523463 ], [ 17.896749, 48.586518 ], [ 17.95383, 48.586428 ], [ 17.979113, 48.612531 ], [ 17.850954, 48.635258 ], [ 17.830688, 48.651666 ], [ 17.786897, 48.638396 ], [ 17.701695, 48.680331 ], [ 17.622727, 48.669134 ], [ 17.619424, 48.644538 ], [ 17.531234, 48.629347 ], [ 17.47053, 48.699745 ], [ 17.486761, 48.734324 ], [ 17.470061, 48.757897 ], [ 17.415406, 48.782931 ], [ 17.365893, 48.77846 ], [ 17.396726, 48.81335 ], [ 17.195728, 48.875038 ], [ 17.112055, 48.830189 ], [ 16.940278, 48.617245 ], [ 16.949778, 48.535792 ], [ 17.062763, 48.561779 ], [ 17.129462, 48.548116 ], [ 17.230354, 48.56875 ], [ 17.326961, 48.649688 ], [ 17.355001, 48.643387 ], [ 17.371913, 48.605077 ], [ 17.286984, 48.545456 ], [ 17.345202, 48.506826 ], [ 17.306145, 48.464686 ], [ 17.389893, 48.436635 ], [ 17.430259, 48.374551 ], [ 17.473536, 48.355136 ], [ 17.453118, 48.318891 ], [ 17.510306, 48.278063 ], [ 17.478124, 48.237158 ], [ 17.513813, 48.223731 ], [ 17.504032, 48.205034 ], [ 17.525547, 48.197318 ], [ 17.515273, 48.179272 ], [ 17.440751, 48.145381 ], [ 17.382197, 48.167507 ], [ 17.381588, 48.134278 ], [ 17.311885, 48.114725 ], [ 17.313494, 48.096974 ], [ 17.348425, 48.086609 ], [ 17.301242, 48.065275 ], [ 17.298816, 48.046682 ], [ 17.247428, 48.012009 ] ] ] } },
{ "type": "Feature", "properties": { "loc": "SK022" }, "geometry": { "type": "Polygon", "coordinates": [ [ [ 17.365893, 48.77846 ], [ 17.415406, 48.782931 ], [ 17.470061, 48.757897 ], [ 17.486761, 48.734324 ], [ 17.47053, 48.699745 ], [ 17.531234, 48.629347 ], [ 17.619424, 48.644538 ], [ 17.622727, 48.669134 ], [ 17.701695, 48.680331 ], [ 17.786897, 48.638396 ], [ 17.830688, 48.651666 ], [ 17.850954, 48.635258 ], [ 17.979113, 48.612531 ], [ 18.019406, 48.634013 ], [ 17.99316, 48.701205 ], [ 18.016639, 48.71333 ], [ 18.110345, 48.693322 ], [ 18.164563, 48.6454 ], [ 18.246891, 48.615619 ], [ 18.218232, 48.573467 ], [ 18.232578, 48.556707 ], [ 18.286051, 48.538863 ], [ 18.318404, 48.495208 ], [ 18.368412, 48.492502 ], [ 18.498664, 48.56558 ], [ 18.594975, 48.576981 ], [ 18.652878, 48.637409 ], [ 18.715174, 48.629219 ], [ 18.756404, 48.69119 ], [ 18.79501, 48.701387 ], [ 18.826351, 48.744059 ], [ 18.767355, 48.81278 ], [ 18.700313, 48.848941 ], [ 18.694921, 48.921232 ], [ 18.717208, 48.938093 ], [ 18.701662, 48.954083 ], [ 18.581244, 48.968178 ], [ 18.523671, 48.938617 ], [ 18.469142, 48.946599 ], [ 18.596337, 49.023291 ], [ 18.598068, 49.069359 ], [ 18.560178, 49.090299 ], [ 18.587441, 49.116929 ], [ 18.549858, 49.156476 ], [ 18.469349, 49.190673 ], [ 18.371751, 49.316956 ], [ 18.193233, 49.289576 ], [ 18.151563, 49.250052 ], [ 18.153109, 49.217283 ], [ 18.110532, 49.134885 ], [ 18.112893, 49.090478 ], [ 18.070407, 49.039046 ], [ 17.926014, 49.01894 ], [ 17.880988, 48.927367 ], [ 17.786776, 48.924047 ], [ 17.705689, 48.863058 ], [ 17.587697, 48.827046 ], [ 17.525614, 48.814844 ], [ 17.453987, 48.844529 ], [ 17.365893, 48.77846 ] ] ] } },
{ "type": "Feature", "properties": { "loc": "SK023" }, "geometry": { "type": "Polygon", "coordinates": [ [ [ 18.982163, 48.054301 ], [ 19.007765, 48.070119 ], [ 19.060083, 48.132793 ], [ 19.064229, 48.195214 ], [ 18.973978, 48.184125 ], [ 18.919245, 48.160002 ], [ 18.810458, 48.170402 ], [ 18.804566, 48.186111 ], [ 18.82302, 48.210992 ], [ 18.813865, 48.247294 ], [ 18.845775, 48.306811 ], [ 18.811208, 48.364057 ], [ 18.74091, 48.410331 ], [ 18.659562, 48.352537 ], [ 18.579538, 48.345058 ], [ 18.539644, 48.325288 ], [ 18.568444, 48.395533 ], [ 18.529449, 48.449235 ], [ 18.531368, 48.49691 ], [ 18.496614, 48.50736 ], [ 18.478677, 48.548604 ], [ 18.368412, 48.492502 ], [ 18.318404, 48.495208 ], [ 18.286051, 48.538863 ], [ 18.218232, 48.573467 ], [ 18.246891, 48.615619 ], [ 18.164563, 48.6454 ], [ 18.110345, 48.693322 ], [ 18.016639, 48.71333 ], [ 17.99316, 48.701205 ], [ 18.019406, 48.634013 ], [ 17.95383, 48.586428 ], [ 17.896749, 48.586518 ], [ 17.851121, 48.523463 ], [ 17.95779, 48.462731 ], [ 17.862257, 48.3534 ], [ 17.840791, 48.298543 ], [ 17.860116, 48.279924 ], [ 17.851963, 48.242297 ], [ 17.875692, 48.20692 ], [ 17.841101, 48.187909 ], [ 17.810518, 48.193853 ], [ 17.819038, 48.161785 ], [ 17.768652, 48.147362 ], [ 17.81263, 48.110444 ], [ 17.809593, 48.074157 ], [ 17.841345, 48.072443 ], [ 17.877925, 48.041897 ], [ 17.883277, 47.916308 ], [ 17.809656, 47.868149 ], [ 17.793595, 47.825881 ], [ 17.735484, 47.804852 ], [ 17.705437, 47.758992 ], [ 17.784473, 47.73942 ], [ 18.080415, 47.756356 ], [ 18.293578, 47.73191 ], [ 18.454687, 47.764282 ], [ 18.647723, 47.759532 ], [ 18.716344, 47.784401 ], [ 18.745317, 47.812033 ], [ 18.848478, 47.818228 ], [ 18.76388, 47.875617 ], [ 18.774254, 47.952939 ], [ 18.758293, 47.975417 ], [ 18.814255, 47.994801 ], [ 18.836237, 48.047843 ], [ 18.982163, 48.054301 ] ] ] } },
{ "type": "Feature", "properties": { "loc": "SK031" }, "geometry": { "type": "Polygon", "coordinates": [ [ [ 19.467387, 49.613767 ], [ 19.375441, 49.56741 ], [ 19.361247, 49.538255 ], [ 19.261938, 49.529871 ], [ 19.237665, 49.510924 ], [ 19.225381, 49.459205 ], [ 19.190152, 49.438083 ], [ 19.188195, 49.412028 ], [ 19.117846, 49.403837 ], [ 19.076866, 49.416845 ], [ 19.029751, 49.39564 ], [ 18.98066, 49.397003 ], [ 18.971571, 49.410409 ], [ 18.985776, 49.430971 ], [ 18.963319, 49.45945 ], [ 18.968356, 49.504163 ], [ 18.936609, 49.518541 ], [ 18.810663, 49.514702 ], [ 18.750859, 49.48934 ], [ 18.594084, 49.508417 ], [ 18.538753, 49.490263 ], [ 18.543368, 49.46704 ], [ 18.471769, 49.408567 ], [ 18.403596, 49.396745 ], [ 18.415142, 49.368255 ], [ 18.402968, 49.350329 ], [ 18.322436, 49.315059 ], [ 18.371751, 49.316956 ], [ 18.469349, 49.190673 ], [ 18.549858, 49.156476 ], [ 18.587441, 49.116929 ], [ 18.560178, 49.090299 ], [ 18.598068, 49.069359 ], [ 18.596337, 49.023291 ], [ 18.469142, 48.946599 ], [ 18.523671, 48.938617 ], [ 18.581244, 48.968178 ], [ 18.701662, 48.954083 ], [ 18.717208, 48.938093 ], [ 18.694921, 48.921232 ], [ 18.700313, 48.848941 ], [ 18.767355, 48.81278 ], [ 18.826351, 48.744059 ], [ 18.874618, 48.768568 ], [ 18.922871, 48.743202 ], [ 18.994199, 48.748391 ], [ 19.014526, 48.784922 ], [ 18.995295, 48.80448 ], [ 18.998356, 48.84527 ], [ 19.028165, 48.875888 ], [ 19.246674, 48.891898 ], [ 19.266963, 48.859378 ], [ 19.293529, 48.859946 ], [ 19.385967, 48.925142 ], [ 19.537459, 48.945331 ], [ 19.628632, 48.939203 ], [ 19.74522, 48.899197 ], [ 19.809845, 48.915022 ], [ 19.992255, 48.9075 ], [ 20.055703, 48.930127 ], [ 20.031029, 48.938017 ], [ 20.020268, 48.965726 ], [ 19.967613, 49.008582 ], [ 20.013461, 49.018736 ], [ 20.034945, 49.106482 ], [ 19.952941, 49.11376 ], [ 19.982193, 49.154653 ], [ 19.902493, 49.127299 ], [ 19.920964, 49.163732 ], [ 19.88393, 49.204177 ], [ 19.845474, 49.194782 ], [ 19.763522, 49.209718 ], [ 19.769692, 49.23709 ], [ 19.819234, 49.279665 ], [ 19.795903, 49.300669 ], [ 19.80219, 49.362542 ], [ 19.788732, 49.407523 ], [ 19.756057, 49.409915 ], [ 19.720585, 49.389443 ], [ 19.636629, 49.411156 ], [ 19.639454, 49.454675 ], [ 19.577818, 49.460438 ], [ 19.533603, 49.532572 ], [ 19.527432, 49.570989 ], [ 19.476995, 49.590386 ], [ 19.467387, 49.613767 ] ] ] } },
{ "type": "Feature", "properties": { "loc": "SK032" }, "geometry": { "type": "Polygon", "coordinates": [ [ [ 18.478677, 48.548604 ], [ 18.496614, 48.50736 ], [ 18.531368, 48.49691 ], [ 18.529449, 48.449235 ], [ 18.568444, 48.395533 ], [ 18.539644, 48.325288 ], [ 18.579538, 48.345058 ], [ 18.659562, 48.352537 ], [ 18.74091, 48.410331 ], [ 18.811208, 48.364057 ], [ 18.845775, 48.306811 ], [ 18.813865, 48.247294 ], [ 18.82302, 48.210992 ], [ 18.804566, 48.186111 ], [ 18.810458, 48.170402 ], [ 18.919245, 48.160002 ], [ 18.973978, 48.184125 ], [ 19.064229, 48.195214 ], [ 19.060083, 48.132793 ], [ 19.014323, 48.077736 ], [ 19.056906, 48.060569 ], [ 19.134967, 48.072483 ], [ 19.238853, 48.055727 ], [ 19.296478, 48.086376 ], [ 19.404883, 48.085054 ], [ 19.443983, 48.09891 ], [ 19.464104, 48.087104 ], [ 19.485106, 48.102702 ], [ 19.529711, 48.203039 ], [ 19.629362, 48.247797 ], [ 19.66745, 48.237172 ], [ 19.695506, 48.204697 ], [ 19.752194, 48.213801 ], [ 19.798849, 48.19161 ], [ 19.79373, 48.158907 ], [ 19.85609, 48.172614 ], [ 19.906701, 48.15079 ], [ 19.908105, 48.128841 ], [ 19.935209, 48.134355 ], [ 19.982695, 48.165506 ], [ 20.051879, 48.167704 ], [ 20.129895, 48.224277 ], [ 20.139147, 48.253676 ], [ 20.199518, 48.250317 ], [ 20.238423, 48.2791 ], [ 20.302426, 48.264481 ], [ 20.407644, 48.366473 ], [ 20.4183, 48.418209 ], [ 20.466361, 48.453106 ], [ 20.452022, 48.471718 ], [ 20.400526, 48.458706 ], [ 20.309705, 48.479737 ], [ 20.302656, 48.512466 ], [ 20.352642, 48.597571 ], [ 20.301321, 48.611529 ], [ 20.299063, 48.657349 ], [ 20.27137, 48.685748 ], [ 20.183961, 48.72885 ], [ 20.183648, 48.754414 ], [ 20.204553, 48.774387 ], [ 20.20015, 48.817018 ], [ 20.267451, 48.874073 ], [ 20.177494, 48.905174 ], [ 20.151602, 48.890136 ], [ 19.976189, 48.913662 ], [ 19.809845, 48.915022 ], [ 19.74522, 48.899197 ], [ 19.628632, 48.939203 ], [ 19.537459, 48.945331 ], [ 19.385967, 48.925142 ], [ 19.293529, 48.859946 ], [ 19.266963, 48.859378 ], [ 19.246674, 48.891898 ], [ 19.028165, 48.875888 ], [ 18.998356, 48.84527 ], [ 18.995295, 48.80448 ], [ 19.014526, 48.784922 ], [ 18.994199, 48.748391 ], [ 18.922871, 48.743202 ], [ 18.874618, 48.768568 ], [ 18.826351, 48.744059 ], [ 18.79501, 48.701387 ], [ 18.756404, 48.69119 ], [ 18.715174, 48.629219 ], [ 18.652878, 48.637409 ], [ 18.594975, 48.576981 ], [ 18.498664, 48.56558 ], [ 18.478677, 48.548604 ] ] ] } }
]
}
