{
"type": "FeatureCollection",
"name": "border_US",
"crs": { "type": "name", "properties": { "name": "urn:ogc:def:crs:OGC:1.3:CRS84" } },
"features": [
{ "type": "Feature", "properties": { }, "geometry": { "type": "Polygon", "coordinates": [ [ [ -122.84, 49.000000000000114 ], [ -95.159069509172056, 49.0 ], [ -95.15609, 49.38425 ], [ -94.81758, 49.38905 ], [ -94.64, 48.84 ], [ -94.32914, 48.67074 ], [ -92.61, 48.45 ], [ -91.64, 48.14 ], [ -90.83, 48.27 ], [ -89.6, 48.010000000000105 ], [ -89.272917446636654, 48.019808254582813 ], [ -88.378114183286712, 48.302917588893706 ], [ -84.876079881514897, 46.900083319682381 ], [ -84.779238247399917, 46.637101955749017 ], [ -84.543748745445839, 46.538684190449146 ], [ -84.6049, 46.4396 ], [ -84.3367, 46.40877 ], [ -84.142119513673407, 46.512225857115709 ], [ -84.091851264161505, 46.27541860613826 ], [ -83.89076534700574, 46.116926988299014 ], [ -83.616130947590591, 46.116926988299014 ], [ -83.469550747394692, 45.994686387712534 ], [ -83.592850714843109, 45.816893622412522 ], [ -82.550924648758212, 45.347516587905432 ], [ -82.137642381503952, 43.571087551439973 ], [ -82.43, 42.98 ], [ -83.12, 42.08 ], [ -83.14199968131264, 41.975681057292874 ], [ -83.029810146806994, 41.832795722005983 ], [ -82.690089280920233, 41.675105088867326 ], [ -82.439277716791594, 41.675105088867326 ], [ -81.277746548167158, 42.209025987306816 ], [ -80.247447679347943, 42.366199856122549 ], [ -78.939362148743754, 42.863611355147981 ], [ -79.01, 43.27 ], [ -79.171673550111862, 43.466339423184259 ], [ -78.720279914042351, 43.625089423184932 ], [ -76.820034145805579, 43.628784288093755 ], [ -76.5, 44.018458893758648 ], [ -75.31821, 44.81645 ], [ -74.867, 45.00048 ], [ -71.50506, 45.0082 ], [ -71.405, 45.255 ], [ -70.66, 45.46 ], [ -70.305, 45.915 ], [ -69.99997, 46.69307 ], [ -69.237216, 47.447781 ], [ -68.905, 47.185 ], [ -68.23444, 47.35486 ], [ -67.79046, 47.06636 ], [ -67.79134, 45.70281 ], [ -67.13741, 45.13753 ], [ -66.96466, 44.809700000000134 ], [ -68.03252, 44.3252 ], [ -70.11617, 43.684050000000127 ], [ -70.81489, 42.8653 ], [ -70.825, 42.335 ], [ -70.495, 41.805 ], [ -70.08, 41.78 ], [ -70.185, 42.145 ], [ -69.88497, 41.92283 ], [ -69.96503, 41.63717000000014 ], [ -70.64, 41.475 ], [ -71.12039, 41.494450000000143 ], [ -71.86, 41.32 ], [ -72.87643, 41.22065 ], [ -73.71, 40.931102351654488 ], [ -72.24126, 41.119480000000124 ], [ -71.944999999999879, 40.93 ], [ -73.345, 40.63 ], [ -73.982, 40.628 ], [ -73.952325, 40.75075 ], [ -74.25671, 40.47351 ], [ -73.96244, 40.42763 ], [ -74.17838, 39.70926 ], [ -74.90604, 38.93954 ], [ -74.98041, 39.1964 ], [ -75.20002, 39.248450000000105 ], [ -75.52805, 39.4985 ], [ -75.32, 38.96 ], [ -75.071834764789855, 38.782032230179254 ], [ -75.05673, 38.40412 ], [ -75.94023, 37.21689 ], [ -76.03127, 37.2566 ], [ -75.722049999999854, 37.937050000000113 ], [ -76.23287, 38.319215 ], [ -76.35, 39.15 ], [ -76.542725, 38.717615 ], [ -76.32933, 38.08326 ], [ -76.989997931613516, 38.239991766913363 ], [ -76.30162, 37.917945 ], [ -76.25874, 36.9664 ], [ -75.9718, 36.89726 ], [ -75.72749, 35.550740000000133 ], [ -76.36318, 34.808540000000107 ], [ -77.397635, 34.51201 ], [ -78.05496, 33.92547 ], [ -78.554349999999886, 33.861330000000123 ], [ -79.06067, 33.49395 ], [ -79.20357, 33.15839 ], [ -80.301325, 32.509355 ], [ -80.86498, 32.0333 ], [ -81.33629, 31.44049 ], [ -81.49042, 30.7299900000001 ], [ -81.31371, 30.03552 ], [ -80.98, 29.180000000000121 ], [ -80.535585, 28.47213 ], [ -80.529999999999859, 28.04 ], [ -80.056539284977589, 26.880000000000109 ], [ -80.13156, 25.816775 ], [ -80.38103, 25.20616 ], [ -80.68, 25.08 ], [ -81.17213, 25.201260000000104 ], [ -81.33, 25.64 ], [ -81.709999999999866, 25.87 ], [ -82.70515, 27.49504 ], [ -82.85526, 27.88624 ], [ -82.65, 28.550000000000125 ], [ -82.93, 29.1 ], [ -83.70959, 29.93656 ], [ -84.1, 30.09 ], [ -85.10882, 29.63615 ], [ -85.28784, 29.68612000000013 ], [ -85.7731, 30.15261 ], [ -86.4, 30.4 ], [ -87.53036, 30.27433 ], [ -88.41782, 30.3849 ], [ -89.18049, 30.31598 ], [ -89.593831178419805, 30.159994004836847 ], [ -89.413735, 29.89419 ], [ -89.43, 29.48864 ], [ -89.21767, 29.29108 ], [ -89.40823, 29.15961 ], [ -89.77928, 29.307140000000118 ], [ -90.15463, 29.11743 ], [ -90.880225, 29.148535 ], [ -91.626785, 29.677000000000135 ], [ -92.49906, 29.5523 ], [ -93.22637, 29.78375 ], [ -93.84842, 29.71363 ], [ -94.69, 29.480000000000132 ], [ -95.60026, 28.73863 ], [ -96.59404, 28.30748 ], [ -97.139999999999873, 27.83 ], [ -97.37, 27.38 ], [ -97.38, 26.69 ], [ -97.33, 26.21 ], [ -97.139999999999873, 25.87 ], [ -97.53, 25.84 ], [ -99.02, 26.37 ], [ -99.3, 26.84 ], [ -99.52, 27.54 ], [ -100.11, 28.110000000000127 ], [ -100.9576, 29.380710000000136 ], [ -101.6624, 29.7793 ], [ -102.48, 29.76 ], [ -103.11, 28.97 ], [ -103.94, 29.27 ], [ -104.456969999999899, 29.57196 ], [ -105.03737, 30.64402 ], [ -106.1429, 31.39995 ], [ -106.50758999999988, 31.75452 ], [ -108.24, 31.754853718166373 ], [ -108.24194, 31.34222 ], [ -111.02361, 31.33472 ], [ -114.815, 32.52528 ], [ -114.72139, 32.72083 ], [ -117.127759999999853, 32.53534 ], [ -117.295937691273934, 33.046224615203869 ], [ -117.944, 33.621236431201396 ], [ -118.410602275897531, 33.740909223124447 ], [ -118.519894822799756, 34.027781577575752 ], [ -119.081, 34.078 ], [ -119.438840642016714, 34.34847717828427 ], [ -120.36778, 34.44711 ], [ -120.62286, 34.60855 ], [ -120.74433, 35.156860000000108 ], [ -121.71457, 36.16153 ], [ -122.54747, 37.551760000000115 ], [ -122.51201, 37.783390000000111 ], [ -122.95319, 38.11371 ], [ -123.7272, 38.951660000000118 ], [ -123.86517, 39.76699 ], [ -124.39807, 40.3132 ], [ -124.17886, 41.142020000000116 ], [ -124.2137, 41.999640000000113 ], [ -124.53284, 42.765990000000102 ], [ -124.14214, 43.70838 ], [ -123.89893, 45.52341 ], [ -124.079635, 46.86475 ], [ -124.39567, 47.72017000000011 ], [ -124.687210083007812, 48.184432983398551 ], [ -124.56610107421875, 48.379714965820369 ], [ -123.12, 48.04 ], [ -122.58736, 47.096 ], [ -122.34, 47.36 ], [ -122.5, 48.18 ], [ -122.84, 49.000000000000114 ] ] ] } },
{ "type": "Feature", "properties": { }, "geometry": { "type": "Polygon", "coordinates": [ [ [ -155.86108, 20.26721 ], [ -155.06226, 19.8591 ], [ -154.80741, 19.50871 ], [ -155.54211, 19.08348 ], [ -155.68817, 18.91619 ], [ -155.93665, 19.05939 ], [ -155.90806, 19.33888 ], [ -156.07347, 19.70294 ], [ -155.85008, 19.97729 ], [ -155.91907, 20.17395 ], [ -155.86108, 20.26721 ] ] ] } },
{ "type": "Feature", "properties": { }, "geometry": { "type": "Polygon", "coordinates": [ [ [ -155.99566, 20.76404 ], [ -156.07926, 20.64397 ], [ -156.41445, 20.57241 ], [ -156.71055, 20.92676 ], [ -156.61258, 21.01249 ], [ -155.99566, 20.76404 ] ] ] } },
{ "type": "Feature", "properties": { }, "geometry": { "type": "Polygon", "coordinates": [ [ [ -156.75824, 21.17684 ], [ -156.78933, 21.06873 ], [ -157.32521, 21.09777 ], [ -157.25027, 21.21958 ], [ -156.75824, 21.17684 ] ] ] } },
{ "type": "Feature", "properties": { }, "geometry": { "type": "Polygon", "coordinates": [ [ [ -158.0252, 21.71696 ], [ -157.65283, 21.32217 ], [ -157.70703, 21.26442 ], [ -158.12667, 21.31244 ], [ -158.29265, 21.57912 ], [ -158.0252, 21.71696 ] ] ] } },
{ "type": "Feature", "properties": { }, "geometry": { "type": "Polygon", "coordinates": [ [ [ -159.36569, 22.21494 ], [ -159.34512, 21.982 ], [ -159.46372, 21.88299 ], [ -159.80051, 22.06533 ], [ -159.5962, 22.23618 ], [ -159.36569, 22.21494 ] ] ] } },
{ "type": "Feature", "properties": { }, "geometry": { "type": "Polygon", "coordinates": [ [ [ -166.467792121424623, 60.384169826897754 ], [ -165.674429694663644, 60.293606879306253 ], [ -165.579164191733582, 59.909986884187532 ], [ -166.192770148767266, 59.75444082298899 ], [ -167.455277066090076, 60.213069159579362 ], [ -166.467792121424623, 60.384169826897754 ] ] ] } },
{ "type": "Feature", "properties": { }, "geometry": { "type": "Polygon", "coordinates": [ [ [ -153.22872941792113, 57.968968410872478 ], [ -152.564790615835136, 57.901427313866996 ], [ -152.141147223906387, 57.591058661521998 ], [ -153.006314053336922, 57.115842190165928 ], [ -154.0050902984581, 56.734676825581076 ], [ -154.516402757770038, 56.992748928446687 ], [ -154.670992804971178, 57.461195787172528 ], [ -153.22872941792113, 57.968968410872478 ] ] ] } },
{ "type": "Feature", "properties": { }, "geometry": { "type": "Polygon", "coordinates": [ [ [ -140.985987610376014, 69.711998399526351 ], [ -140.99778, 60.30639 ], [ -140.013, 60.27682 ], [ -139.039, 60.0 ], [ -137.4525, 58.905 ], [ -136.47972, 59.46389 ], [ -135.47583, 59.78778 ], [ -134.945, 59.270560000000103 ], [ -133.35556, 58.41028 ], [ -131.70781, 56.55212 ], [ -130.00778, 55.91583 ], [ -129.98, 55.285 ], [ -130.536110189467308, 54.802753404349403 ], [ -131.085818237972148, 55.178906155002039 ], [ -131.967211467142306, 55.497775580459006 ], [ -132.250010742859502, 56.3699962428974 ], [ -133.539181084356414, 57.178887437562139 ], [ -134.078062920296077, 58.12306753196691 ], [ -136.628062309954714, 58.212209377670433 ], [ -137.800006279685988, 58.499995429103762 ], [ -139.86778704141301, 59.537761542389148 ], [ -142.574443535564455, 60.084446519604967 ], [ -143.958880994879905, 59.999180406323376 ], [ -145.925556816827878, 60.45860972761426 ], [ -147.114373949146653, 60.884656073644635 ], [ -148.224306200127614, 60.672989406977138 ], [ -148.018065558850822, 59.978328965893638 ], [ -149.727857835875852, 59.705658270905531 ], [ -150.608243374616421, 59.368211168039466 ], [ -151.716392788683294, 59.155821031319931 ], [ -151.859433153267219, 59.744984035879554 ], [ -151.409719001247169, 60.72580272077937 ], [ -150.346941494732505, 61.033587551509868 ], [ -150.621110806257036, 61.284424953854398 ], [ -151.895839199816834, 60.727197984451266 ], [ -152.578329841095581, 60.061657212964235 ], [ -154.019172126257644, 59.350279446034278 ], [ -153.287511359653166, 58.864727688219773 ], [ -154.23249243875847, 58.14637360293051 ], [ -156.308334723923053, 57.422774359763594 ], [ -156.556097378546383, 56.979984849670643 ], [ -158.117216559867785, 56.46360809999419 ], [ -158.433321296197136, 55.994153550838519 ], [ -159.603327399717415, 55.56668610292013 ], [ -160.289719611634268, 55.643580634170576 ], [ -163.069446581046378, 54.689737046927121 ], [ -164.785569221027174, 54.404173082082139 ], [ -164.942226325520068, 54.572224839895341 ], [ -163.848339606765649, 55.039431464246093 ], [ -162.870001390615954, 55.348043117893212 ], [ -161.804174974596066, 55.894986477270379 ], [ -160.563604702781191, 56.00805451112501 ], [ -160.070559862284483, 56.41805532492873 ], [ -158.684442918919501, 57.016675116597867 ], [ -158.46109737855403, 57.216921291728852 ], [ -157.722770352183915, 57.570000515363063 ], [ -157.55027442119362, 58.328326321030204 ], [ -157.041674974576978, 58.918884589261722 ], [ -158.194731208305541, 58.615802313869779 ], [ -158.517217984023034, 58.787781480537319 ], [ -159.058606126928794, 58.424186102931628 ], [ -159.711667040017375, 58.931390285876319 ], [ -159.981288825500172, 58.572549140041644 ], [ -160.355271165996498, 59.071123358793614 ], [ -161.355003425115086, 58.670837714260756 ], [ -161.968893602526322, 58.671664537177378 ], [ -162.054986538724648, 59.26692536074745 ], [ -161.874170702135388, 59.633621324290573 ], [ -162.51805904849212, 59.989723619213862 ], [ -163.818341437820209, 59.798055731843363 ], [ -164.662217577146521, 60.267484442782632 ], [ -165.3463877024748, 60.507495632562382 ], [ -165.350831875651892, 61.073895168697504 ], [ -166.121379157556021, 61.500019029376233 ], [ -165.734451870770584, 62.074996853271784 ], [ -164.919178636717902, 62.63307648380794 ], [ -164.562507901039339, 63.146378485763023 ], [ -163.753332485997078, 63.219448961023772 ], [ -163.067224494457861, 63.059458726648018 ], [ -162.260555386381753, 63.541935736741152 ], [ -161.534449836248626, 63.455816962326764 ], [ -160.772506680321101, 63.766108100023246 ], [ -160.958335130842613, 64.222798570402745 ], [ -161.518068407212184, 64.40278758407527 ], [ -160.777777676414814, 64.788603827566419 ], [ -161.391926235987654, 64.777235012462313 ], [ -162.453050096668903, 64.559444688568192 ], [ -162.757786017894148, 64.338605455168761 ], [ -163.54639421288428, 64.559160468190498 ], [ -164.960829841145141, 64.446945095468834 ], [ -166.425288255864473, 64.686672064870663 ], [ -166.845004238939111, 65.088895575614515 ], [ -168.110560065767146, 65.669997056736747 ], [ -166.70527116602193, 66.088317776139377 ], [ -164.474709642575476, 66.576660061297503 ], [ -163.652511766595637, 66.576660061297503 ], [ -163.788601651036231, 66.077207343196676 ], [ -161.677774421210131, 66.116119696712417 ], [ -162.489714525380037, 66.735565090595117 ], [ -163.719716966791168, 67.116394558370075 ], [ -164.430991380856511, 67.616338202577765 ], [ -165.390286831706732, 68.042772121850248 ], [ -166.764440680996046, 68.358876858179656 ], [ -166.204707404626674, 68.883030910916148 ], [ -164.430810513343459, 68.915535386827742 ], [ -163.168613654614489, 69.371114813912868 ], [ -162.930566169261994, 69.858061835399269 ], [ -161.908897264635556, 70.333329983187639 ], [ -160.93479651593367, 70.447689927849581 ], [ -159.039175788387126, 70.891642157668912 ], [ -158.119722866833939, 70.824721177851018 ], [ -156.580824551398081, 71.35776357694175 ], [ -155.067790290324268, 71.147776394323671 ], [ -154.344165208941206, 70.696408596470178 ], [ -153.900006273392592, 70.889988511835668 ], [ -152.210006069935275, 70.829992173944845 ], [ -152.270002407826127, 70.600006212029825 ], [ -150.73999243874448, 70.430016588005685 ], [ -149.720003018167489, 70.530010484490447 ], [ -147.613361579357047, 70.214034939241799 ], [ -145.689989800225334, 70.120009670686727 ], [ -144.920010959076393, 69.989991767040465 ], [ -143.589446180425227, 70.152514146598321 ], [ -140.985987610376014, 69.711998399526351 ] ] ] } },
{ "type": "Feature", "properties": { }, "geometry": { "type": "Polygon", "coordinates": [ [ [ -171.731656867539442, 63.782515367275934 ], [ -171.114433560245288, 63.592191067144952 ], [ -170.491112433940714, 63.694975490973505 ], [ -169.682505459653612, 63.431115627691192 ], [ -168.68943946030069, 63.297506212000556 ], [ -168.771940884454665, 63.188598130945437 ], [ -169.529439867205099, 62.976931464277918 ], [ -170.671385667990933, 63.375821845138901 ], [ -171.553063117538727, 63.317789211675105 ], [ -171.791110602891223, 63.405845852300459 ], [ -171.731656867539442, 63.782515367275934 ] ] ] } }
]
}
