{
"type": "FeatureCollection",
"name": "border_SN",
"crs": { "type": "name", "properties": { "name": "urn:ogc:def:crs:OGC:1.3:CRS84" } },
"features": [
{ "type": "Feature", "properties": { }, "geometry": { "type": "Polygon", "coordinates": [ [ [ -16.713728807023472, 13.594958604379855 ], [ -17.126106736712615, 14.373515733289224 ], [ -17.625042690490659, 14.729540513564073 ], [ -17.185172898822231, 14.919477240452862 ], [ -16.700706346085923, 15.621527411354108 ], [ -16.463098110407884, 16.13503611903846 ], [ -16.120690070041931, 16.455662543193384 ], [ -15.623666144258692, 16.369337063049812 ], [ -15.135737270558819, 16.587282416240782 ], [ -14.577347581428981, 16.598263658102809 ], [ -14.099521450242179, 16.304302273010492 ], [ -13.435737677453062, 16.039383042866191 ], [ -12.170750291380301, 14.616834214735505 ], [ -12.124887457721259, 13.994727484589788 ], [ -11.927716030311615, 13.422075100147396 ], [ -11.553397793005431, 13.141213690641067 ], [ -11.467899135778524, 12.754518947800975 ], [ -11.513942836950591, 12.442987575729418 ], [ -11.658300950557932, 12.386582749882836 ], [ -12.203564825885634, 12.465647691289405 ], [ -12.27859900557344, 12.354440008997287 ], [ -12.499050665730564, 12.332089952031057 ], [ -13.217818162478238, 12.575873521367967 ], [ -15.54847693527401, 12.628170070847347 ], [ -15.816574266004254, 12.515567124883347 ], [ -16.147716844130585, 12.547761542201187 ], [ -16.677451951554573, 12.384851589401052 ], [ -16.841524624081273, 13.151393947802561 ], [ -15.931295945692211, 13.130284125211332 ], [ -15.141163295949468, 13.509511623585238 ], [ -14.712197231494628, 13.298206691943777 ], [ -14.277701788784555, 13.280585028532244 ], [ -13.844963344772408, 13.505041612192002 ], [ -14.046992356817482, 13.794067898000449 ], [ -14.376713833055788, 13.625680243377374 ], [ -14.687030808968487, 13.630356960499784 ], [ -15.081735398813819, 13.876491807505985 ], [ -15.39877031092446, 13.860368760630919 ], [ -15.624596320039942, 13.623587347869559 ], [ -16.713728807023472, 13.594958604379855 ] ] ] } }
]
}
