{
"type": "FeatureCollection",
"name": "border_FR",
"crs": { "type": "name", "properties": { "name": "urn:ogc:def:crs:OGC:1.3:CRS84" } },
"features": [
{ "type": "Feature", "properties": { }, "geometry": { "type": "Polygon", "coordinates": [ [ [ 6.186320428094177, 49.463802802114515 ], [ 6.658229607783568, 49.20195831969157 ], [ 8.099278598674744, 49.01778351500333 ], [ 7.593676385131062, 48.333019110703717 ], [ 7.466759067422231, 47.620581976911808 ], [ 7.192202182655507, 47.449765529971017 ], [ 6.736571079138059, 47.541801255882845 ], [ 6.768713820023606, 47.287708238303701 ], [ 6.037388950229001, 46.725778713561866 ], [ 6.022609490593538, 46.272989813820473 ], [ 6.500099724970426, 46.429672756529442 ], [ 6.843592970414505, 45.991146552100609 ], [ 6.802355177445605, 45.708579820328637 ], [ 7.096652459347837, 45.333098863295888 ], [ 6.749955275101655, 45.028517971367577 ], [ 7.007562290076635, 44.254766750661361 ], [ 7.549596388386107, 44.127901109384808 ], [ 7.435184767291872, 43.693844916349221 ], [ 6.52924523278304, 43.128892320318315 ], [ 4.556962517931424, 43.399650987311595 ], [ 3.100410597352663, 43.075200507167054 ], [ 2.985998976258458, 42.473015041669861 ], [ 1.826793247087153, 42.343384711265692 ], [ 0.701590610363894, 42.795734361332606 ], [ 0.338046909190581, 42.57954600683955 ], [ -1.502770961910528, 43.034014390630432 ], [ -1.901351284177764, 43.422802028978339 ], [ -1.384225226232985, 44.022610378590116 ], [ -1.193797573237418, 46.014917710954862 ], [ -2.225724249673846, 47.064362697938222 ], [ -2.963276129559603, 47.570326646507951 ], [ -4.491554938159481, 47.954954332056374 ], [ -4.592349819344776, 48.68416046812699 ], [ -3.295813971357802, 48.901692409859628 ], [ -1.616510789384961, 48.644421291694542 ], [ -1.933494025063311, 49.776341864615745 ], [ -0.98946895995536, 49.347375800160911 ], [ 1.338761020522696, 50.127173163445264 ], [ 1.6390010921385, 50.9466063502975 ], [ 2.513573032246143, 51.148506171261829 ], [ 2.658422071960274, 50.796848049515745 ], [ 3.123251580425688, 50.780363267614547 ], [ 4.286022983425084, 49.907496649772554 ], [ 4.799221632515724, 49.985373033236371 ], [ 5.897759230176348, 49.442667141307112 ], [ 6.186320428094177, 49.463802802114515 ] ] ] } },
{ "type": "Feature", "properties": { }, "geometry": { "type": "Polygon", "coordinates": [ [ [ 8.746009148807559, 42.628121853193917 ], [ 9.390000848028876, 43.00998484961471 ], [ 9.560016310269134, 42.152491970379522 ], [ 9.229752231491773, 41.380006822264455 ], [ 8.775723097375362, 41.583611965494427 ], [ 8.544212680707773, 42.256516628583057 ], [ 8.746009148807559, 42.628121853193917 ] ] ] } }
]
}
